locality,sub_locality,street_name,postcode
Agalega,La Fourche,,A1101
Agalega,OIDC (office),,A1102
Agalega,Ste Rita Village,,A2101
Agalega,Village Vingt-Cinq,,A1103
16eme Mille,Cite Anoushka,,52601
16eme Mille,Cite Mon Bois,,52602
16eme Mille,Coriolis,,52603
16eme Mille,Mon Bois(cnt+ubs+laiterie),,52604
16eme Mille,Morc Domah,,52605
16eme Mille,morc Sookary,,52606
16eme Mille,Morcellement RAMPHUL 1,,52607
16eme Mille,Morcellement RAMPHUL 2,,52608
16eme Mille,Seizieme mile,,52609
Bambous,Allee Tamarin,,90101
Bambous,Bambous,,90102
Bambous,Eaux Bonnes,,90103
Bambous,Geoffroy,,90104
Bambous,La Ferme,,90105
Bambous,Mangues Vert Doux,,90106
Bambous,Mon Repos,,90107
Bambous,Morc Eaux Bonnes,,90108
Bambous,Vaudagne,,90109
Baie Du Cap,Baie Du Cap,,60101
Baie Du Cap,Choisy,,60102
Amitie Gokhoola,Amitie,,31501
Amitie Gokhoola,Cite EDC,,31502
Amitie Gokhoola,Gokhoola,,31503
Amitie Gokhoola,Morc VRS,,31504
Albion,Albion,,91001
Albion,Camp Creoles,,91002
Albion,La Croisette,,91003
Albion,Morc Beerjeeraz,,91004
Albion,Morc de Chazal,,91005
Albion,Morc Raffray,,91006
Albion,Morc Terre Albion,,91007
Albion,Splendid View,,91008
Albion,Splendid Village,,91009
Black River,Black River,,90601
Black River,Cite Carre D'As,,90602
Black River,Cite EDC,,90603
Black River,Cite Tamarinier,,90604
Black River,La Balise,,90605
Black River,La Balise Marina,,90606
Black River,La Mivoie,,90607
Black River,La Preneuse,,90608
Black River,La Tourelle View,,90609
Black River,Les Salines/Morc. Plateau,,90610
Black River,London Complex,,90611
Black River,Martello Complex,,90612
Black River,Matala Villa,,90613
Black River,Morc Carlos,,90614
Black River,Morc Filature,,90615
Black River,Morc Majo,,90616
Black River,Morc Mont Calme,,90617
Black River,Morc Paul Hein,,90618
Black River,Morc Ramdenee,,90619
Black River,Morc. Diocese,,90620
Black River,Morc. Villaze,,90621
Black River,Nautica Complex,,90622
Black River,Plantation Marguery,,90623
Black River,River view Com Centre,,90624
Black River,Ruisseau Creole Complex,,90625
Black River,West Island Villa,,90626
Benares,BATIMARAIS,,61101
Benares,BENARES,,61103
Benares,COLMAR,,61102
Bois Cheri,Ahchin,,60201
Bois Cheri,Akla Road,,60202
Bois Cheri,Bois Cheri,,60203
Bois Cheri,Building,,60204
Bois Cheri,Cader Road,,60205
Bois Cheri,Cite EDC Bois Cheri,,60206
Bois Cheri,Cooperative,,60207
Bois Cheri,Heerallal Rd,,60208
Bois Cheri,Mambahal,,60209
Bois Cheri,Morc VRS,,60210
Bois Cheri,Porida,,60211
Bois Cheri,Residence Bois Cheri,,60212
Bois Cheri,Seeruttun Rd,,60213
Bois Cheri,Tivoli,,60214
Bel Ombre,Beau Champ,,61001
Bel Ombre,Bel Ombre,,61002
Bel Ombre,Cite EDC Bel Ombre,,61003
Bel Ombre,Cite Longtill Bel Ombre,,61004
Bel Ombre,Saint Martin,,61006
Bel Ombre,Sainte Marie,,61005
Bambous Virieux,Bambous Virieux,,50101
Bambous Virieux,Debarcadere,,50102
Bambous Virieux,Les Mares,,50103
Bambous Virieux,Pointe Bambous,,50104
Bel Air,Bel Air,,40101
Bel Air,Caroline,,40102
Bel Air,Ernest Florent,,40103
Bel Air,La Laura,,40104
Bel Air,La Lucie  Building,,40106
Bel Air,La Lucie Roy,,40105
Bel Air,Morcellement  Central,,40107
Bel Air,Morcellement  La Cheminee,,40108
Bel Air,Morcellement Pont Lardier,,40109
Bel Air,Petit Bois,,40110
Bel Air,Pont Lardier,,40111
Bel Air,Saint Michel,,40112
Beau Bassin,BEAU BASSIN CENTRE 1 ,ABBE MAZUY,71501
Beau Bassin,BEAU BASSIN CENTRE 1 ,BRODILE,71501
Beau Bassin,BEAU BASSIN CENTRE 1 ,DE ROSNAY (Royal to Esaie David),71501
Beau Bassin,BEAU BASSIN CENTRE 1 ,DE ROSNAY(from P.Hennessy to Esaie David) Northern side,71501
Beau Bassin,BEAU BASSIN CENTRE 1 ,Dessenes St,71501
Beau Bassin,BEAU BASSIN CENTRE 1 ,FURGUSON,71501
Beau Bassin,BEAU BASSIN CENTRE 1 ,IMP MGR LEEN,71501
Beau Bassin,BEAU BASSIN CENTRE 1 ,IMP MONNERON,71501
Beau Bassin,BEAU BASSIN CENTRE 1 ,IMP PERE LAVAL,71501
Beau Bassin,BEAU BASSIN CENTRE 1 ,IMP VENKATASAMY,71501
Beau Bassin,BEAU BASSIN CENTRE 1 ,LORQUET,71501
Beau Bassin,BEAU BASSIN CENTRE 1 ,Meldrum (Southern Side),71501
Beau Bassin,BEAU BASSIN CENTRE 1 ,MGR LEEN STREET,71501
Beau Bassin,BEAU BASSIN CENTRE 1 ,MONNERON,71501
Beau Bassin,BEAU BASSIN CENTRE 1 ,MONTGOMERY,71501
Beau Bassin,BEAU BASSIN CENTRE 1 ,P.Hennessy(east side) from Meldrum to De Rosnay,71501
Beau Bassin,BEAU BASSIN CENTRE 1 ,Pere Laval from Royal Rd to Morc Avrillon),71501
Beau Bassin,BEAU BASSIN CENTRE 1 ,Royal from Pere Laval to Meldrum,71501
Beau Bassin,BEAU BASSIN CENTRE 1 ,STEIN,71501
Beau Bassin,BEAU BASSIN CENTRE 1 ,VENKATASAMY LANE ,71501
Beau Bassin,BEAU BASSIN CENTRE 2  ,ABBE DE LA CAILLE,71502
Beau Bassin,BEAU BASSIN CENTRE 2  ,ARNAUD,71502
Beau Bassin,BEAU BASSIN CENTRE 2  ,DE MASCARENHAS,71502
Beau Bassin,BEAU BASSIN CENTRE 2  ,GABRIEL FROPPIER,71502
Beau Bassin,BEAU BASSIN CENTRE 2  ,LOUIS L'ECHELLE,71502
Beau Bassin,BEAU BASSIN CENTRE 2  ,N.G. BESTEL,71502
Beau Bassin,BEAU BASSIN CENTRE 2  ,PROMENADE ROLAND ARMAND,71502
Beau Bassin,BEAU BASSIN CENTRE 2  ,R.GODER,71502
Beau Bassin,BEAU BASSIN CENTRE 2  ,RAOUL LEJEUNE,71502
Beau Bassin,BEAU BASSIN CENTRE 2  ,Rev Lebrun(from Royal Rd  to Promenade),71502
Beau Bassin,BEAU BASSIN CENTRE 2  ,ROYAL RD(from Rev Lebrun to Round About),71502
Beau Bassin,BEAU BASSIN CENTRE 2  ,WARDE,71502
Beau Bassin,BEAU BASSIN CENTRE 3  ,BALFOUR,71503
Beau Bassin,BEAU BASSIN CENTRE 3  ,BETHANIE,71503
Beau Bassin,BEAU BASSIN CENTRE 3  ,BOULEVARD COWIN,71503
Beau Bassin,BEAU BASSIN CENTRE 3  ,CONAL,71503
Beau Bassin,BEAU BASSIN CENTRE 3  ,DAFFODIL,71503
Beau Bassin,BEAU BASSIN CENTRE 3  ,GUY FORGET,71503
Beau Bassin,BEAU BASSIN CENTRE 3  ,K.JAGATSINGH,71503
Beau Bassin,BEAU BASSIN CENTRE 3  ,L.LARCHER,71503
Beau Bassin,BEAU BASSIN CENTRE 3  ,LISLET GEFFROY,71503
Beau Bassin,BEAU BASSIN CENTRE 3  ,M.VIRASAWMY,71503
Beau Bassin,BEAU BASSIN CENTRE 3  ,MC IRVINE,71503
Beau Bassin,BEAU BASSIN CENTRE 3  ,ODETTE ERNEST,71503
Beau Bassin,BEAU BASSIN CENTRE 3  ,Peramblon,71503
Beau Bassin,BEAU BASSIN CENTRE 3  ,Reverend LEBRUN (north  side from Conal to Balfour),71503
Beau Bassin,BEAU BASSIN CENTRE 3  ,VICTOR HUGO (South part),71503
Beau Bassin,BEAU BASSIN CENTRE 4   ,ARAGO,71504
Beau Bassin,BEAU BASSIN CENTRE 4   ,BARKLY ASYLUM Southern side,71504
Beau Bassin,BEAU BASSIN CENTRE 4   ,COLONEL DRAPER,71504
Beau Bassin,BEAU BASSIN CENTRE 4   ,COSSIGNY,71504
Beau Bassin,BEAU BASSIN CENTRE 4   ,JOSSE,71504
Beau Bassin,BEAU BASSIN CENTRE 4   ,LEISHMAN,71504
Beau Bassin,BEAU BASSIN CENTRE 4   ,MELDRUM Northern side,71504
Beau Bassin,BEAU BASSIN CENTRE 4   ,NAPPIER BROOME,71504
Beau Bassin,BEAU BASSIN CENTRE 4   ,POIVRE,71504
Beau Bassin,BEAU BASSIN CENTRE 4   ,POIVRE,71504
Beau Bassin,BEAU BASSIN CENTRE 4   ,POPE HENESSY (From Meldrum to Barkly East Side),71504
Beau Bassin,BEAU BASSIN CENTRE 4   ,ROYAL (From Barkly to Meldrum East Side)),71504
Beau Bassin,BEAU BASSIN CENTRE 4   ,SHOLTO DOUGLAS,71504
Beau Bassin,BEAU BASSIN CENTRE 5  ,BAISSAC,71505
Beau Bassin,BEAU BASSIN CENTRE 5  ,BARKLY ASYLUM(northern part),71505
Beau Bassin,BEAU BASSIN CENTRE 5  ,DUMAT,71505
Beau Bassin,BEAU BASSIN CENTRE 5  ,EDGAR JANSON,71505
Beau Bassin,BEAU BASSIN CENTRE 5  ,GASTON VELLIN,71505
Beau Bassin,BEAU BASSIN CENTRE 5  ,IMPASSE BHOLAH,71505
Beau Bassin,BEAU BASSIN CENTRE 5  ,LAVOQUER,71505
Beau Bassin,BEAU BASSIN CENTRE 5  ,LORD BYRON,71505
Beau Bassin,BEAU BASSIN CENTRE 5  ,MAINGARD ST(southern part Royal to P.Hennessy),71505
Beau Bassin,BEAU BASSIN CENTRE 5  ,Nicolas de Cere,71505
Beau Bassin,BEAU BASSIN CENTRE 5  ,Pope Hennessy(from Barkly St to Maingard st)East Side,71505
Beau Bassin,BEAU BASSIN CENTRE 5  ,Royal Rd (from Barkly St to Maingard)west side,71505
Beau Bassin,BEAU BASSIN CENTRE 5  ,SERGE ALFRED,71505
Beau Bassin,BEAU BASSIN CENTRE 5  ,SHAKESPEARE,71505
Beau Bassin,BEAU BASSIN CENTRE 5  ,ST ETIENNE,71505
Beau Bassin,BEAU BASSIN CENTRE 5  ,V GOVINDEN,71505
Beau Bassin,BEAU BASSIN CENTRE 6, TROTTER southern side,71506
Beau Bassin,BEAU BASSIN CENTRE 6, HASSENJEE,71506
Beau Bassin,BEAU BASSIN CENTRE 6, MOUTIA,71506
Beau Bassin,BEAU BASSIN CENTRE 6, OSHAN,71506
Beau Bassin,BEAU BASSIN CENTRE 6, RAWAT LANE,71506
Beau Bassin,BEAU BASSIN CENTRE 6,BOUGAINVILLEA,71506
Beau Bassin,BEAU BASSIN CENTRE 6,DUCRAY,71506
Beau Bassin,BEAU BASSIN CENTRE 6,DUVIVIER,71506
Beau Bassin,BEAU BASSIN CENTRE 6,GAETAN RAYNAL,71506
Beau Bassin,BEAU BASSIN CENTRE 6,HENRI LEMAIRE,71506
Beau Bassin,BEAU BASSIN CENTRE 6,MAJOR PAUL HEIN,71506
Beau Bassin,BEAU BASSIN CENTRE 6,MOSQUE,71506
Beau Bassin,BEAU BASSIN CENTRE 6,QUEEN ALEXANDRA ,71506
Beau Bassin,BEAU BASSIN CENTRE 6,R E HART,71506
Beau Bassin,BEAU BASSIN CENTRE 6,ROYAL ROAD ( From Trotter to Duvivier)East Side,71506
Beau Bassin,BEAU BASSIN CENTRE 6,SAVRIMOUTOU,71506
Beau Bassin,BEAU BASSIN CENTRE 6,SHAND,71506
Beau Bassin,BEAU BASSIN CENTRE 6,SUFFREN,71506
Beau Bassin,BEAU BASSIN CENTRE 6,VICTOR HUGO (north part),71506
Beau Bassin,BEAU BASSIN CENTRE 6,VOLCY GOUPILLE,71506
Beau Bassin,BEAU BASSIN CENTRE 7, JOLIVET,71507
Beau Bassin,BEAU BASSIN CENTRE 7, TROTTER northern side,71507
Beau Bassin,BEAU BASSIN CENTRE 7,BEYTS,71507
Beau Bassin,BEAU BASSIN CENTRE 7,DE LA FAYE,71507
Beau Bassin,BEAU BASSIN CENTRE 7,DESAI,71507
Beau Bassin,BEAU BASSIN CENTRE 7,DUPONT-southern side,71507
Beau Bassin,BEAU BASSIN CENTRE 7,FADHEUIL,71507
Beau Bassin,BEAU BASSIN CENTRE 7,HIGGINSON,71507
Beau Bassin,BEAU BASSIN CENTRE 7,IMPASSE BIKOO,71507
Beau Bassin,BEAU BASSIN CENTRE 7,IMPASSE DU PONT,71507
Beau Bassin,BEAU BASSIN CENTRE 7,IMPASSE RENARDS,71507
Beau Bassin,BEAU BASSIN CENTRE 7,IMPASSE RENNARDS,71507
Beau Bassin,BEAU BASSIN CENTRE 7,LADY TWINING STREET,71507
Beau Bassin,BEAU BASSIN CENTRE 7,LANE B,71507
Beau Bassin,BEAU BASSIN CENTRE 7,LATULIPE,71507
Beau Bassin,BEAU BASSIN CENTRE 7,LILAS,71507
Beau Bassin,BEAU BASSIN CENTRE 7,MAGON DE MEDINE,71507
Beau Bassin,BEAU BASSIN CENTRE 7,MORRISON,71507
Beau Bassin,BEAU BASSIN CENTRE 7,PEERBYE STREET,71507
Beau Bassin,BEAU BASSIN CENTRE 7,R.P FREZIA,71507
Beau Bassin,BEAU BASSIN CENTRE 7,REMY OLLIER,71507
Beau Bassin,BEAU BASSIN CENTRE 7,RENNARDS,71507
Beau Bassin,BEAU BASSIN CENTRE 7,RIVALLAND,71507
Beau Bassin,BEAU BASSIN CENTRE 7,ROYAL RD-from Trotter to Dupont east side,71507
Beau Bassin,BELLE ETOILE,Allee  Des Cocotiers,71601
Beau Bassin,BELLE ETOILE,Belle Etoile Street,71601
Beau Bassin,BELLE ETOILE,Castle,71601
Beau Bassin,BELLE ETOILE,Flat Mardaymootoo,71601
Beau Bassin,BELLE ETOILE,Goder Lane,71601
Beau Bassin,BELLE ETOILE,Impasse Belle Etoile,71601
Beau Bassin,BELLE ETOILE,Maharishi ,71601
Beau Bassin,BELLE ETOILE,Maurice,71601
Beau Bassin,BELLE ETOILE,Middle-(Belle Etoile),71601
Beau Bassin,BELLE ETOILE,New Road,71601
Beau Bassin,BELLE ETOILE,Riverside,71601
Beau Bassin,BELLE ETOILE, Temple,71601
Beau Bassin,BELLE ETOILE,Saran Villa,71601
Beau Bassin,BELVEDERE/CINQUIEME MILE,,71602
Beau Bassin,BELVEDERE/CINQUIEME MILE,belvedere lane,71602
Beau Bassin,BELVEDERE/CINQUIEME MILE,belvedere street,71602
Beau Bassin,BROWN SEQUARD HOSPITAL,Brown Sequard Hospital,71401
Beau Bassin,CAMP  BERTHELOT,CAMP  BERTHELOT,71603
Beau Bassin,CASCADELLA,Cascadella,71508
Beau Bassin,CASCADELLE,Imp Vuillemin,71509
Beau Bassin,CASCADELLE,Imp Lesur,71509
Beau Bassin,CASCADELLE,N.Decotter,71509
Beau Bassin,CASCADELLE,Imp Dr Brunel,71509
Beau Bassin,CENTRAL PRISON,CENTRAL PRISON,71402
Beau Bassin,CHEBEL ,Chebel branch road part (south),71604
Beau Bassin,CHEBEL ,Royal from Chebel Bch Rd to Robertson,71604
Beau Bassin,CHEBEL ,Imp cheri Lienard,71604
Beau Bassin,CHEBEL ,P.Baboolall,71604
Beau Bassin,CHEBEL ,Swami Dayanand (part),71604
Beau Bassin,CITE  DE ROSNAY,MARCEL DUCASSE,71510
Beau Bassin,CITE  DE ROSNAY,M DE SPEVILLE,71510
Beau Bassin,CITE  DE ROSNAY,MAX ROHAN,71510
Beau Bassin,CITE  DE ROSNAY,MICHEAL LEAL,71510
Beau Bassin,CITE  DE ROSNAY,LATHAM KOENIG,71510
Beau Bassin,CITE  DE ROSNAY,VENKATASAMY STREET,71510
Beau Bassin,CITE  DE ROSNAY,PHILLIPE  GOUPILLE,71510
Beau Bassin,CITE  DE ROSNAY,DE ROSNAY southern side (part)up to ESAIE DAVID,71510
Beau Bassin,CITE  DE ROSNAY,POPE HENNESSY (from Pere Laval to De Rosnay),71510
Beau Bassin,CITE  DE ROSNAY,ESAIE DAVID,71510
Beau Bassin,CITE BARKLY ,azalees,71403
Beau Bassin,CITE BARKLY ,berlioz,71403
Beau Bassin,CITE BARKLY ,bizet,71403
Beau Bassin,CITE BARKLY ,boule de neige,71403
Beau Bassin,CITE BARKLY ,brahms,71403
Beau Bassin,CITE BARKLY ,corneillle,71403
Beau Bassin,CITE BARKLY ,cosmos,71403
Beau Bassin,CITE BARKLY ,de bourg,71403
Beau Bassin,CITE BARKLY ,delphinuums,71403
Beau Bassin,CITE BARKLY ,fuschias,71403
Beau Bassin,CITE BARKLY ,geraniums,71403
Beau Bassin,CITE BARKLY ,haendel,71403
Beau Bassin,CITE BARKLY ,Herchenroder,71403
Beau Bassin,CITE BARKLY ,hibiscus,71403
Beau Bassin,CITE BARKLY ,hortensias,71403
Beau Bassin,CITE BARKLY ,imp schuman,71403
Beau Bassin,CITE BARKLY ,iris,71403
Beau Bassin,CITE BARKLY ,jasmin,71403
Beau Bassin,CITE BARKLY ,jean lebrun,71403
Beau Bassin,CITE BARKLY ,kolatiers,71403
Beau Bassin,CITE BARKLY ,lauriers,71403
Beau Bassin,CITE BARKLY , maingard-small part,71403
Beau Bassin,CITE BARKLY ,mandela,71403
Beau Bassin,CITE BARKLY ,muguets,71403
Beau Vallon,Beau Vallon,,52201
Beau Vallon,Cite CHA,,52202
Beau Vallon,Cite NHDC,,52203
Beau Vallon,New Residential Area [Morc] ,,52204
Beau Vallon,Verger,,52205
Beau Bassin,CITE BARKLY ,narcisses,71403
Beau Bassin,CITE BARKLY ,oillets,71403
Beau Bassin,CITE BARKLY ,pensees,71403
Beau Bassin,CITE BARKLY , P.Henessy (from Maingard to Herchenroder)west side,71403
Beau Bassin,CITE BARKLY ,racine,71403
Beau Bassin,CITE BARKLY ,remi.ollier,71403
Beau Bassin,CITE BARKLY ,rose de bois,71403
Beau Bassin,CITE BARKLY ,rosiers,71403
Beau Bassin,CITE BARKLY ,saponnaire,71403
Beau Bassin,CITE BARKLY ,schuman,71403
Beau Bassin,CITE BARKLY ,tournesol,71403
Beau Bassin,CITE BARKLY ,yuccas,71403
Beau Bassin,CITE BARKLY ,zinnias,71403
Beau Bassin,CITE CHEBEC,CITE CHEBEC,71607
Beau Bassin,CITE CHEBEL H.E 1,ANANAS,71605
Beau Bassin,CITE CHEBEL H.E 1,DATTIERS,71605
Beau Bassin,CITE CHEBEL H.E 1,FIGUIERS,71605
Beau Bassin,CITE CHEBEL H.E 1,MANGUIERS,71605
Beau Bassin,CITE CHEBEL H.E 1,ORANGERS,71605
Beau Bassin,CITE CHEBEL H.E 1,PALMIERS,71605
Beau Bassin,CITE CHEBEL H.E 1,POIRIERS,71605
Beau Bassin,CITE CHEBEL H.E 1,POMMIERS,71605
Beau Bassin,CITE CHEBEL H.E 1,PRUNIERS,71605
Beau Bassin,CITE CHEBEL H.E 2,AMITIE,71606
Beau Bassin,CITE CHEBEL H.E 2,ANQUETIL,71606
Beau Bassin,CITE CHEBEL H.E 2,D'EPINAY,71606
Beau Bassin,CITE CHEBEL H.E 2,DR BALGOBIN,71606
Beau Bassin,CITE CHEBEL H.E 2,E.NAIRAC,71606
Beau Bassin,CITE CHEBEL H.E 2,FERRIERE,71606
Beau Bassin,CITE CHEBEL H.E 2,INDEPENDENCE,71606
Beau Bassin,CITE CHEBEL H.E 2,PERE LAVAL,71606
Beau Bassin,CITE CHEBEL H.E 2,R.RIVET,71606
Beau Bassin,CITE CHEBEL H.E 2,ROZEMONT,71606
Beau Bassin,CITE CHEBEL H.E 2,VENKATASAMY,71606
Beau Bassin,CITE VUILLEMIN,Cite Vuillemin,71511
Beau Bassin,COROMANDEL,Both sides of Emmaus,71608
Beau Bassin,COROMANDEL,coom,71608
Beau Bassin,COROMANDEL,Dr Ganess,71608
Beau Bassin,COROMANDEL,Issac Khan,71608
Beau Bassin,COROMANDEL,Latiff Khan,71608
Beau Bassin,COROMANDEL,"pave d""Amour lane 1",71608
Beau Bassin,COROMANDEL,"pave d""Amour lane 2",71608
Beau Bassin,COROMANDEL,"pave d""Amour St",71608
Beau Bassin,COROMANDEL,ramdenee,71608
Beau Bassin,COROMANDEL,Ramnarain,71608
Beau Bassin,COROMANDEL,Randanee,71608
Beau Bassin,COROMANDEL,rashid khan,71608
Beau Bassin,COROMANDEL,Roselmie,71608
Beau Bassin,COROMANDEL,Royal rd from Emmaus to Richelieu Branch rd,71608
Beau Bassin,COROMANDEL,soba,71608
Beau Bassin,COROMANDEL,whitehouse,71608
Beau Bassin,GOVERNMENT BLOCK,Police Training School,71404
Beau Bassin,GOVERNMENT BLOCK,Odette Leal Health Centre,71404
Beau Bassin,GOVERNMENT BLOCK,Malaria Unit,71404
Beau Bassin,GOVERNMENT BLOCK,Orthopaedic,71404
Beau Bassin,GOVERNMENT BLOCK,Waste Water Management,71404
Beau Bassin,HAREWOOD PARK,,71512
Beau Bassin,JULES KOENIG H.E,,71513
Beau Bassin,LA CHAUMIERE,,90110
Beau Bassin,MAINGARD ,Brunet ,71609
Ville Bague,Camp Sipaye,,21601
Ville Bague,Mon Songe,,21602
Ville Bague,Monc V.R.S,,21603
Ville Bague,Nicoliere,,21604
Ville Bague,Petite Julie,,21605
Ville Bague,Ville Bague lower,,21607
Ville Bague,Ville Bague upper,,21606
Beau Bassin,MAINGARD ,CHASTEAUNEUF,71609
Beau Bassin,MAINGARD ,Colonel Maingard northern part from Royal to La Confiance,71609
Beau Bassin,MAINGARD ,Commerson,71609
Beau Bassin,MAINGARD ,DALEEPSING GOPAL,71609
Beau Bassin,MAINGARD ,Dr Reid,71609
Beau Bassin,MAINGARD ,DUPERRE,71609
Beau Bassin,MAINGARD ,Imp St Thomas,71609
Beau Bassin,MAINGARD ,La Confiance Lane,71609
Beau Bassin,MAINGARD ,M.De Narbonne,71609
Beau Bassin,MAINGARD ,Mahadeo BILTOO,71609
Beau Bassin,MAINGARD ,MARTINDALE,71609
Beau Bassin,MAINGARD ,Pasteur,71609
Beau Bassin,MAINGARD ,ROBERTSON,71609
Beau Bassin,MAINGARD ,royal rd from Maingard to Robertson lane,71609
Beau Bassin,MAINGARD ,SWAMI DAYANAND,71609
Beau Bassin,MARE GRAVIER Ward 5    ,C.Leckning (part)Up to L'Etang,71514
Beau Bassin,MARE GRAVIER Ward 5    ,Dookhun (part),71514
Beau Bassin,MARE GRAVIER Ward 5    ,Dr Moliere(part) up to L'Etang,71514
Beau Bassin,MARE GRAVIER Ward 5    ,Lesur (small part),71514
Beau Bassin,MARE GRAVIER Ward 5    ,Marcelle L'Etang (southern),71514
Beau Bassin,MARE GRAVIER Ward 5    ,Mare Gravier St (whole),71514
Beau Bassin,MARE GRAVIER Ward 5    ,Patel,71514
Beau Bassin,MARE GRAVIER Ward 5    ,Ragoo Pawar (part)up to Marcelle L'Etang,71514
Beau Bassin,MARE GRAVIER Ward 5    ,Roger Pezzani,71514
Beau Bassin,MARE GRAVIER Ward 5    ,Royal Road(from L'Etang to Adolphe),71514
Beau Bassin,MARE GRAVIER Ward 5    ,Sevremont(part),71514
Beau Bassin,MARE GRAVIER Ward 6         ,C.Leckning (part)Up to Marcelle L'Etang,71610
Beau Bassin,MARE GRAVIER Ward 6         ,Dookun Lane,71610
Beau Bassin,MARE GRAVIER Ward 6         ,Dookun Lane(part) up to L'Etang,71610
Beau Bassin,MARE GRAVIER Ward 6         ,Dr Moliere(part) up to L'Etang,71610
Beau Bassin,MARE GRAVIER Ward 6         ,Edgar Adolphe,71610
Beau Bassin,MARE GRAVIER Ward 6         ,Marcelle L'Etang (northern),71610
Beau Bassin,MARE GRAVIER Ward 6         ,Ragoo Pawar (part)up to Marcelle L'Etang,71610
Beau Bassin,MARE GRAVIER Ward 6         ,Raoul Follereau,71610
Beau Bassin,MARE GRAVIER Ward 6         ,Royal Road(from L'Etang to M Gravier),71610
Beau Bassin,MARE GRAVIER Ward 6         ,Sevremont(part) up to L'Etang,71610
Beau Bassin,MARE GRAVIER Ward 6         ,Vaghjee (part),71610
Beau Bassin,MELDRUM TOWERS,Meldrum Towers,71515
Beau Bassin,MONT ROCHES,A.Poupard,71405
Beau Bassin,MONT ROCHES,Arthur Maurice,71405
Beau Bassin,MONT ROCHES,Badamier,71405
Beau Bassin,MONT ROCHES,Bakoorising,71405
Beau Bassin,MONT ROCHES,Capt Brebner,71405
Beau Bassin,MONT ROCHES,Dayot,71405
Beau Bassin,MONT ROCHES,Domino,71405
Beau Bassin,MONT ROCHES,Doyen,71405
Beau Bassin,MONT ROCHES,Elizabeth,71405
Beau Bassin,MONT ROCHES,H.laventure,71405
Beau Bassin,MONT ROCHES,I.Glover,71405
Beau Bassin,MONT ROCHES,Jaquelin,71405
Beau Bassin,MONT ROCHES,"L""Epingle",71405
Beau Bassin,MONT ROCHES,La Fontaine Lane,71405
Beau Bassin,MONT ROCHES,Mamzelle,71405
Beau Bassin,MONT ROCHES,mayor,71405
Beau Bassin,MONT ROCHES, Pope  Henessy(from Rene maingard to Bharati)west side,71405
Beau Bassin,MONT ROCHES, Rene Maingard (both sides),71405
Beau Bassin,MONT ROCHES,P.De Coulhac,71405
Arsenal,Arsenal,,20101
Arsenal,Domaine Les Cascades,,20102
Arsenal,Morc Poonith,,20103
Arsenal,Morc Promo Holiday,,20104
Arsenal,Morc Ramjan,,20105
Arsenal,Morc Sobrun,,20107
Arsenal,Morc. Baie aux Tortues,,21307
Arsenal,Morc. Le Vieux Banian,,21308
Arsenal,Morc. Royal Park,,20106
Arsenal,Paul & Virginie,,20108
Arsenal,Petit Gamin,,20109
Arsenal,Riviere Citron,,20110
Arsenal,St Joseph,,20111
Union Park,Cluny rd,,52104
Union Park,Morc Cheminee,,52105
Union Park,Morc VRS,,52106
Union Park,School Rd,,52107
Union Park,U.Park,,52108
Verdun,Alma,,81801
Verdun,Cite EDC Verdun,,81802
Verdun,Verdun,,81803
Beau Bassin,MONT ROCHES,Part E.Dennemont,71405
Beau Bassin,MONT ROCHES,part of Glover,71405
Beau Bassin,MONT ROCHES,Pere frezia,71405
Beau Bassin,MONT ROCHES,R.Rivet,71405
Beau Bassin,MONT ROCHES,Railway,71405
Beau Bassin,MONT ROCHES,railway,71405
Beau Bassin,MONT ROCHES,Ramnanain Lallah,71405
Beau Bassin,MONT ROCHES,S.Bharati (route prison),71405
Beau Bassin,MONT ROCHES,Shellgrove,71405
Beau Bassin,MONT ROCHES,Small Mountain,71405
Beau Bassin,MONT ROCHES,Tamil Temple,71405
Beau Bassin,MONT ROCHES,Vetiver,71405
Beau Bassin,MONTREAL 1,andreanum,71617
Beau Bassin,MONTREAL 1,azalees,71617
Beau Bassin,MONTREAL 1,balsamine,71617
Beau Bassin,MONTREAL 1,camelias,71617
Beau Bassin,MONTREAL 1,capucine,71617
Beau Bassin,MONTREAL 1,daffodils,71617
Beau Bassin,MONTREAL 1,dahlia,71617
Beau Bassin,MONTREAL 1,fuschia,71617
Beau Bassin,MONTREAL 1,geranium,71617
Beau Bassin,MONTREAL 1,glaieul,71617
Beau Bassin,MONTREAL 1,hibiscus upto marguerite,71617
Beau Bassin,MONTREAL 1,hortensia,71617
Beau Bassin,MONTREAL 1,hyacinthes,71617
Beau Bassin,MONTREAL 1,jacarandas,71617
Beau Bassin,MONTREAL 1,nenuphar,71617
Beau Bassin,MONTREAL 1,Marguerite (northern side),71617
Beau Bassin,MONTREAL 1,orchidees,71617
Beau Bassin,MONTREAL 1,petunia,71617
Beau Bassin,MONTREAL 1,roses,71617
Beau Bassin,MONTREAL 1,tulip,71617
Beau Bassin,MONTREAL 1,ylang-ylang,71617
Beau Bassin,MONTREAL 1,zinnia,71617
Beau Bassin,MONTREAL 2,apricot,71618
Beau Bassin,MONTREAL 2,avocado,71618
Beau Bassin,MONTREAL 2,badamier,71618
Beau Bassin,MONTREAL 2, Marguerite (southern side),71618
Beau Bassin,MONTREAL 2,carambolas,71618
Beau Bassin,MONTREAL 2,cerisier,71618
Beau Bassin,MONTREAL 2,cococtier,71618
Beau Bassin,MONTREAL 2,coquelicot,71618
Beau Bassin,MONTREAL 2,datier,71618
Beau Bassin,MONTREAL 2,hibiscus upto marguerite,71618
Beau Bassin,MONTREAL 2,iris,71618
Beau Bassin,MONTREAL 2,jasmin,71618
Beau Bassin,MONTREAL 2,longanier,71618
Beau Bassin,MONTREAL 3,MONTREAL 3,71619
Beau Bassin,MONTREAL 4,MONTREAL 4(CHAPMAN VIEWS),71620
Beau Bassin,MORC AVRILLON,BASTIEN DASILVA,71516
Beau Bassin,MORC AVRILLON,TANGUY,71516
Beau Bassin,MORC AVRILLON,HERVE MASSON,71516
Beau Bassin,MORC AVRILLON,AUGUSTE TOUSSSAINT,71516
Beau Bassin,MORC AVRILLON,ALEX BHUJOHARRY,71516
Beau Bassin,MORC CLAIRMONT ,Asterix,71611
Beau Bassin,MORC CLAIRMONT ,Castafiore,71611
Beau Bassin,MORC CLAIRMONT ,Tournesol,71611
Beau Bassin,MORC CLAIRMONT ,Vaghjee (part),71611
Beau Bassin,MORC LA COMETE,APOLLO{part of Apollo},71406
Beau Bassin,MORC LA COMETE,ARMSTRONG,71406
Beau Bassin,MORC LA COMETE,Challenger,71406
Beau Bassin,MORC LA COMETE,Columbia,71406
Union Ducray / St Aubin,CITE SAINT AUBIN,,61502
Union Ducray / St Aubin,MORC St Aubin,,61503
Union Ducray / St Aubin,New morc St Aubin (land only),,61504
Union Ducray / St Aubin,UNION DUCRAY S.E/Union St Aubin,,61501
Beau Bassin,MORC LA COMETE,E.Aldrin,71406
Beau Bassin,MORC LA COMETE, Ariane(east side),71406
Beau Bassin,MORC LA COMETE,Flamboyant,71406
Beau Bassin,MORC LA COMETE, Allee des manguiers(part),71406
Beau Bassin,MORC LA COMETE, Collins(part),71406
Beau Bassin,MORC LA COMETE, Glover(one side),71406
Beau Bassin,MORC LA COMETE, Jacmin (Part),71406
Beau Bassin,MORC LA COMETE, Rene Maingard (part),71406
Beau Bassin,MORC LA COMETE,Roblet,71406
Beau Bassin,MORC LA COMETE, La Comete(whole),71406
Beau Bassin,MORC LA COMETE,L'independence (part),71406
Beau Bassin,MORC LA CONFIANCE 1,MORC LA CONFIANCE 1,71614
Beau Bassin,MORC LA CONFIANCE 2,MORC LA CONFIANCE 2,71615
Beau Bassin,MORC NEW TOWN, Ariane (part)east,71407
Beau Bassin,MORC NEW TOWN, Collins (part),71407
Beau Bassin,MORC NEW TOWN, Independence (part) southern side,71407
Beau Bassin,MORC NEW TOWN,Andrew,71407
Beau Bassin,MORC NEW TOWN,Armstrong,71407
Beau Bassin,MORC NEW TOWN,halley,71407
Beau Bassin,MORC NEW TOWN,Jupiter,71407
Beau Bassin,MORC NEW TOWN,L'independence (part),71407
Beau Bassin,MORC NEW TOWN,Mars,71407
Beau Bassin,MORC NEW TOWN,Pluton,71407
Beau Bassin,MORC NEW TOWN,Roches Brunes Ave (part) north,71407
Beau Bassin,MORC NEW TOWN,saturn,71407
Beau Bassin,MORC NEW TOWN,Spoutnik,71407
Beau Bassin,MORC VRS CHEBEL,MORC VRS CHEBEL,71621
Beau Bassin,Morcellement Hart de Keating ,Grenade lane,71612
Beau Bassin,Morcellement Hart de Keating ,Hart de Keating Lane,71612
Beau Bassin,Morcellement Hart de Keating ,Quinc Coromandel,71612
Beau Bassin,Morcellement Hart de Keating ,Ramjan lane,71612
Beau Bassin,Morcellement Hart de Keating , Royal Rd from Quin Coromandel  to Panorama,71612
Beau Bassin,MORCELLEMENT HERMITAGE,Ceres,71613
Beau Bassin,MORCELLEMENT HERMITAGE,Jupiter,71613
Beau Bassin,MORCELLEMENT HERMITAGE,Mars,71613
Beau Bassin,MORCELLEMENT HERMITAGE,Mercury,71613
Beau Bassin,MORCELLEMENT HERMITAGE,Saturne,71613
Beau Bassin,MORCELLEMENT HERMITAGE,Soleil,71613
Beau Bassin,Morcellement LIM FAT ,Middle Lane,71616
Beau Bassin,Morcellement LIM FAT ,Riverside,71616
Beau Bassin,Morcellement LIM FAT ,Including ROYAL RD,71616
Beau Bassin,N.H.D.C VUILLEMIN,N.H.D.C VUILLEMIN,71517
Beau Bassin,PALM PLAZA,PALM PLAZA,71518
Beau Bassin,PANORAMA,Panorama Lane,71622
Beau Bassin,PANORAMA,Colfin,71622
Beau Bassin,PANORAMA,Caboche,71622
Beau Bassin,PANORAMA,Ng Wan Hing,71622
Beau Bassin,PANORAMA,A. Bernon Lane,71622
Beau Bassin,PANORAMA,Royal Rd from Panorama to Bernon,71622
Beau Bassin,POLICE FLATS 1,POLICE FLATS 1,71623
Beau Bassin,POLICE FLATS 2,POLICE FLATS 2,71624
Beau Bassin,RESIDENCE ST DANIEL, L' Independence part (northern),71408
Beau Bassin,RESIDENCE ST DANIEL, Ariane  part  (west),71408
Beau Bassin,RESIDENCE ST DANIEL,South part of R.Rivet ending at Ariane,71408
Beau Bassin,ROCHES BRUNES,Allees des manguiers,71409
Beau Bassin,ROCHES BRUNES,Baboolll,71409
Beau Bassin,ROCHES BRUNES,east part of Ariane from R.Brunes to R.Maingard,71409
Beau Bassin,ROCHES BRUNES,Esprit Dennemont,71409
Beau Bassin,ROCHES BRUNES,Francois LIM,71409
Beau Bassin,ROCHES BRUNES,Independence,71409
L'Esperance,L'Esperance,,80301
Beau Bassin,ROCHES BRUNES,Jacmin,71409
Beau Bassin,ROCHES BRUNES,Jaumdally,71409
Beau Bassin,ROCHES BRUNES,M.Raffray,71409
Beau Bassin,ROCHES BRUNES,M.Vythilingum,71409
Beau Bassin,ROCHES BRUNES,marly,71409
Beau Bassin,ROCHES BRUNES,north side of Roches Brunes Avenue upto Ariane,71409
Beau Bassin,ROCHES BRUNES,P.Henessy from R.Brunes to R.maigard,71409
Beau Bassin,ROCHES BRUNES,Pere Arokeum,71409
Beau Bassin,ROCHES BRUNES,R.Balgobin,71409
Beau Bassin,ROCHES BRUNES,R.Rey,71409
Beau Bassin,ROCHES BRUNES,Rene Goblet,71409
Beau Bassin,ROCHES BRUNES,S.C. Chung Ching Wah,71409
Beau Bassin,ROCHES BRUNES,S.K.Chady,71409
Beau Bassin,ROCHES BRUNES,Y.Forget,71409
Beau Bassin,ROCHES BRUNES,Sevremont (part),71519
Beau Bassin,ROCHES BRUNES,Dupont (north side),71519
Beau Bassin,ROCHES BRUNES,Ravi Shankar ( one side),71519
Beau Bassin,ROCHES BRUNES,Pepin (small part-one side),71519
Beau Bassin,SAINT MARTIN,SAINT MARTIN,90705
Beau Bassin,VERGER BISSAMBAR,Part of R.Rivet,71410
Beau Bassin,VERGER BISSAMBAR,Verger Bissambar Lane,71410
Beau Bassin,VERGER BISSAMBAR,P.Boodhram,71410
Beau Bassin,VERGER BISSAMBAR,Imp Bharati,71410
Beau Bassin,VERGER BISSAMBAR,S.M.Chellumbrum,71410
Beau Bassin,VERGER BISSAMBAR,School lane,71410
Beau Bassin,VUILLEMIN,Dupont (north side),71519
Beau Bassin,VUILLEMIN,Dr Pepin (from Arrighi to Randabel,71519
Beau Bassin,VUILLEMIN,Arrighi,71519
Beau Bassin,VUILLEMIN,D.Khodabacus,71519
Beau Bassin,VUILLEMIN,M.Vishnu Temple,71519
Beau Bassin,VUILLEMIN,A.N. Solim,71519
Beau Bassin,VUILLEMIN,Imp J.Koenig,71519
Beau Bassin,VUILLEMIN,Hossenally Street,71519
Beau Bassin,VUILLEMIN,Donat Lane,71519
Beau Bassin,VUILLEMIN,Randabel (west) ,71519
Beau Bassin,VUILLEMIN,Ravi Shankar ( west side),71519
Beau Bassin,VUILLEMIN,Vuillemin Street,71519
Vacoas / Floreal,Allee Brillant ,,74101
Vacoas / Floreal,Allee Brillant,,73401
Vacoas / Floreal,Angus,,73402
Vacoas / Floreal,Beard,,73103
Vacoas / Floreal,Berthaud,,74102
Vacoas / Floreal,Bonne Terre,,73304
Vacoas / Floreal,Camp Belin,,73105
Vacoas / Floreal,Camp Mapou,,73106
Vacoas / Floreal,Camp Roches,,73107
Vacoas / Floreal,Carreau Lalianne,,73108
Vacoas / Floreal,Cite EDC,,74103
Vacoas / Floreal,Cite Henriette,,73109
Vacoas / Floreal,Cite La Caverne,,73310
Vacoas / Floreal,Cite Loiseau,,74104
Vacoas / Floreal,Cite Mangalkhan,,74105
Vacoas / Floreal,Clairfonds No.1,,73411
Vacoas / Floreal,Clairfonds No.2,,73412
Vacoas / Floreal,Clairfonds No.3,,73413
Vacoas / Floreal,De Burg Edwards,,74106
Vacoas / Floreal,Diolle,,73114
Vacoas / Floreal,E.Anquetil,,73215
Vacoas / Floreal,Glen Park,,73116
Vacoas / Floreal,Glen Park NHDC,,73117
Vacoas / Floreal,Grannum,,73418
Vacoas / Floreal,Gymkhana,,73419
Vacoas / Floreal,Henrietta,,73120
Vacoas / Floreal,Hollyrood No.1,,73221
Vacoas / Floreal,Hollyrood No.2,,73222
Vacoas / Floreal,Jackson,,73423
Vacoas / Floreal,John Kennedy,,74107
Vacoas / Floreal,King George V,,74108
Vacoas / Floreal,La Caverne No.1,,73324
Vacoas / Floreal,La Caverne No.2,,73325
Vacoas / Floreal,La Marie,,73126
Vacoas / Floreal,La Vanille,,73227
Vacoas / Floreal,Ligne Berthaud,,73328
Vacoas / Floreal,Modern,,73329
Vacoas / Floreal,Mon Desir,,73330
Vacoas / Floreal,Morc Fleuriot,,73431
Vacoas / Floreal,Morc GIDC,,74109
Vacoas / Floreal,Morc Medine,,73132
Vacoas / Floreal,Morc Munbodh,,73233
Vacoas / Floreal,Morc Peerun,,73234
Vacoas / Floreal,Morc Pousson,,73135
Vacoas / Floreal,Morc Sauba,,73436
Vacoas / Floreal,Morc Seetaram,,73137
Vacoas / Floreal,Queen Mary,,74110
Vacoas / Floreal,Quinze Cantons No.1,,73238
Vacoas / Floreal,Quinze Cantons No.2,,73239
Vacoas / Floreal,Reunion,,73240
Vacoas / Floreal,Riverwalk,,73441
Vacoas / Floreal,Riviere Seche,,74111
Vacoas / Floreal,Sadally,,73242
Vacoas / Floreal,Simonet,,74112
Vacoas / Floreal,SMF QTRS,,73443
Vacoas / Floreal,Solferino No. 1,,73344
Vacoas / Floreal,Solferino No. 2,,73345
Vacoas / Floreal,Solferino No. 3,,73346
Vacoas / Floreal,Solferino No. 4,,73347
Vacoas / Floreal,Solferino No. 5,,73348
Vacoas / Floreal,St Paul,,73449
Vacoas / Floreal,Thompson,,73250
Vacoas / Floreal,Trait dUnion,,73451
Vacoas / Floreal,Tres Bon No. 1,,73252
Vacoas / Floreal,Tres Bon No. 2,,73253
Vacoas / Floreal,Tres Bon No. 3,,73254
Vacoas / Floreal,Tres Bon No. 4,,73255
Vacoas / Floreal,Vingta No. 1,,73356
Vacoas / Floreal,Vingta No. 2,,73357
Vacoas / Floreal,Vingta No. 3,,73358
Vacoas / Floreal,Visitation,,73359
Trou aux Biches,Cite EDC Pere Laval,,22301
Trou aux Biches,Morc Asviva,,22302
Trou aux Biches,Morc Bassa,,22303
Trou aux Biches,Morc Choisy ,,22304
Trou aux Biches,Morc Elaya,,22305
Trou aux Biches,Morc Future,,22306
Trou aux Biches,Morc Hossen,,22307
Trou aux Biches,Morc Jhuboo,,22308
Trou aux Biches,Morc Mascareign,,22309
Trou aux Biches,Morc Moosary,,22310
Trou aux Biches,Morc Papin,,22311
Trou aux Biches,Morc Ramdewar,,22312
Trou aux Biches,Morc Ramdhany,,22313
Trou aux Biches,Morc Residence,,22314
Trou aux Biches,Morc Sagitaire,,22315
Trou aux Biches,Morc Souvenir,,22316
Trou aux Biches,Morc Tobago,,22317
Trou aux Biches,Morc Trio,,22318
Trou aux Biches,Morc VRS Choisy,,22319
Trou aux Biches,Residence Le Flibustier,,22320
Trou aux Biches,Trou aux Biches I,,22321
Trou aux Biches,Trou aux Biches II,,22322
Trois Boutiques,Beau Fonds,,52001
Trois Boutiques,Carreau Esnouf,,52002
Trois Boutiques,Carreau La Paille,,52003
Trois Boutiques,Cite Ouvrière,,52004
Trois Boutiques,Cite Trois Boutiques,,52005
Trois Boutiques,Malakoff,,52006
Trois Boutiques,Morc Pitchen,,52009
Trois Boutiques,Morc. Aspirale,,52007
Trois Boutiques,Morc. Les Palmiers,,52008
Trois Boutiques,Plein Bois,,52010
Trois Boutiques,Trois Boutiques,,52011
Trois Boutiques,Union Vale,,52012
Trois Boutiques,Virginia,,52013
Trou D'Eau Douce,Beau Rivage,,42201
Trou D'Eau Douce,Camp Nadal,,42202
Trou D'Eau Douce,Camp Nowbuth,,42203
Trou D'Eau Douce,Camp Toorab,,42204
Trou D'Eau Douce,Debarcadere,,42205
Trou D'Eau Douce,Desperoux,,42206
Trou D'Eau Douce,La Pelouse,,42207
Trou D'Eau Douce,Le Maho,,42208
Trou D'Eau Douce,Montee Bastille,,42209
Trou D'Eau Douce,Palmar Beach,,42210
Trou D'Eau Douce,Sept Croisees(inc Montaigu),,42211
Trou D'Eau Douce,Touessrock/Casuarina,,42212
Trou D'Eau Douce,Victoria,,42213
Tombeau Bay,Auberge,,21701
Tombeau Bay,Bay Village,,21702
Tombeau Bay,Cite Florida,,21703
Tombeau Bay,Cite Illois,,21704
Tombeau Bay,Cite La Chaux/State Land,,21705
Tombeau Bay,Docker's land,,21706
Tombeau Bay,Elizabethville,,21707
Tombeau Bay,Industrial Zone,,21708
Tombeau Bay,Le Goulet (Royal Rd),,21709
Tombeau Bay,Morc Beau Rivage,,21710
Tombeau Bay,Morc Boucan,,21711
Tombeau Bay,Morc Concorde,,21712
Tombeau Bay,Morc Coprim,,21713
Tombeau Bay,Morc Dassagne,,21714
Tombeau Bay,Morc Filature,,21715
Tombeau Bay,Morc Fong Sing,,21716
Tombeau Bay,Morc Illois,,21717
Tombeau Bay,Morc La Cocheyle,,21718
Tombeau Bay,Morc Le Verger,,21719
Tombeau Bay,Morc Madhoo,,21720
Tombeau Bay,Morc Mignot,,21721
Tombeau Bay,Morc Rouillard,,21722
Tombeau Bay,Morc Ruhomatally,,21723
Tombeau Bay,Morc Senestra,,21724
Tombeau Bay,Morc Swan,,21725
Tombeau Bay,Morc Zenith,,21726
Tombeau Bay,N.H.D.C,,21727
Tombeau Bay,Paille en Queue,,21728
Tombeau Bay,Pont Bruniquel,,21729
Tombeau Bay,Residence St Malo,,21730
Tombeau Bay,Riche Terre,,21731
Tombeau Bay,St Malo,,21732
Tombeau Bay,Tombeau Bay (Royal Rd),,21733
Tombeau Bay,Tresor,,21734
Tombeau Bay,Village les cocotiers,,21735
Tyack,CITE TYACK,,61801
Tyack,LOWER TYACK,,61802
Tyack,MORC BLUE PRINT,,61803
Tyack,NHDC TYACK,,Â 61804
Tyack,UPPER TYACK,,61805
Triolet,Cinema Casse,,21501
Triolet,Cite EDC,,21502
Triolet,Huitieme Mile,,21503
Triolet,Neuvieme Mile,,21504
Triolet,NHDC (Solitude),,21505
Triolet,Septieme Mile,,21506
Triolet,Solitude,,21507
Triolet,Terminus,,21508
Triolet,Trois Boutiques,,21509
The Vale,Lower Vale,,31301
The Vale,Upper Vale,,31302
Tamarin,Barachois,,90901
Tamarin,Cap Dal,,90902
Tamarin,Cite EDC,,90903
Tamarin,Cite Padco,,90904
Tamarin,Domaine Mont Calme,,90905
Tamarin,La Mivoie,,90906
Tamarin,La Tourelle,,90907
Tamarin,Morc Black Rock,,90908
Tamarin,Morc Carlos,,90910
Tamarin,Morc Corail,,90911
Tamarin,Morc Investors,,90912
Tamarin,Morc Le Domain,,90913
Tamarin,Morc Les Alizees,,90914
Tamarin,Morc Les Salines,,90915
Tamarin,Morc Salt Pan,,90916
Tamarin,Morc. La Falaise,,90917
Tamarin,Morc. Mont Calme,,90909
Tamarin,Morc. St. Benoit,,90918
Tamarin,Morc. Verojan,,90919
Tamarin,NHDC,,90920
Tamarin,Tamarin,,90921
Tamarin,Tamarin Golf,,90922
Terre Rouge,Bois Marchand,,21401
Terre Rouge,Bois Pignolet,,21402
Terre Rouge,C.E.B Sq.,,21404
Terre Rouge,Camp La Boue,,21403
Terre Rouge,Cite Bois Marchand,,21405
Terre Rouge,Mamzelle Laure,,21406
Terre Rouge,Morc Bussawon,,21407
Terre Rouge,Morc Peerun,,21410
Terre Rouge,Morc Soobratty,,21413
Terre Rouge,Morc. Cathan,,21408
Terre Rouge,Morc. Green Park,,21409
Terre Rouge,Morc. Ragoobar,,21412
Terre Rouge,Morc. Tara,,21414
Terre Rouge,Morc.Poonith,,21411
Terre Rouge,St Joseph,,21415
Terre Rouge,Terre Rouge,,21416
Surinam,African Town squatters,,60901
Surinam,Balance,,60902
Surinam,CEMETARY Squatters,,60903
Surinam,Cite de Dieu Squatters,,60904
Surinam,Cite EDC 1 Surinam,,60905
Surinam,Cite EDC 2 Surinam,,60906
Surinam,Coastal/mandir,,60907
Surinam,Katamaraz,,60908
Surinam,Martiniere,,60909
Surinam,Morc Dhunputh,,60910
Surinam,Morc DIDI,,60911
Surinam,Morc Gobin,,60912
Surinam,NHDC Filao,,60913
Surinam,Pomponette,,60914
Surinam,Riambel,,60915
Surinam,Rochester/Mosque,,60916
Surinam,Saint Louis,,60917
Surinam,Sept Croisees,,60918
Surinam,Trois Bras,,60919
Souillac,Cite Boodhoo,,60801
Souillac,Cite E.D.C Chaline,,60802
Souillac,Cite E.D.C Pitot,,60803
Souillac,Cite Gris Gris,,60804
Souillac,Cite Texamon,,60805
Souillac,Lady Barkly,,60806
Souillac,Morc Brise de Mer,,60807
Souillac,Morc GRIS GRIS,,60808
Souillac,NHDC Brise De Mer,,60809
Souillac,Souillac,,60810
Souillac,Terracine,,60811
Souillac,VRS 1 souillac,,60812
Souillac,VRS 2 souillac,,60813
Sebastopol,Cent Gaulettes,,42101
Sebastopol,Cite Sebastopol,,42102
Sebastopol,Clavet,,42103
Sebastopol,Etoile,,42104
Sebastopol,Lesur,,42105
Sebastopol,Pellegrin,,42106
Sebastopol,Sebastopol,,42107
Saint Pierre,Camp Auguste,,81401
Saint Pierre,Chantenay, ,81429
Saint Pierre,Circonstance,,81402
Saint Pierre,Cite Cote D'Or,,81403
Saint Pierre,Cite EDC Cirsconstance, ,81427
Saint Pierre,Cite SILWF L'Agrement, ,81425
Saint Pierre,Cite St Catherine L'Agrement, ,81426
Saint Pierre,Cote d'Or VRS 1,,81404
Saint Pierre,Helvetia,,81405
Saint Pierre,Industrial Zone-Old Post Office,,81406
Saint Pierre,Kendra,,81407
Saint Pierre,L'Agrement,,81408
Saint Pierre,Les Rives de Courchamps, ,81430
Saint Pierre,Mont Fleuri,,81409
Saint Pierre,Morc Frangipanne Phase 2,,81410
Saint Pierre,Morc Frangipanne Phase 3,,81411
Saint Pierre,Morc MDA circonstance,,81412
Saint Pierre,Morc Merrytown,,81413
Saint Pierre,Morc Mont Desser Alma L'Agrement,,81424
Saint Pierre,Morc Raffray,,81414
Saint Pierre,Morc Traffic Centre,,81415
Saint Pierre,Morc VRS 1,,81416
Saint Pierre,Petit Verger,,81417
Saint Pierre,Roselyn Cottage,,81418
Saint Pierre,Rte Bois Cheri,,81419
Saint Pierre,SAINT PIERRE 114+162,,81420
Saint Pierre,Sites and Services,,81421
Saint Pierre,Tamil Temple L'Agrement, ,81428
Saint Pierre,Traffic Commercial centre,,81422
Saint Pierre,VIGNOL NHDC,,81423
St Hubert,Beau Site,,51901
St Hubert,Camp Filbert,,51902
St Hubert,Camp Florine,,51903
St Hubert,Camp Jardin,,51904
St Hubert,Camp Ramphul,,51905
St Hubert,Cent Gaulettes,,51906
St Hubert,Cite CHA,,51907
St Hubert,Cite St Hilaire,,51908
St Hubert,Hydro Power Station,,51909
St Hubert,Le Val Nature Park,,51910
St Hubert,Morc Dussoye,,51911
St Hubert,Morc Henry,,51912
St Hubert,Riche en Eau,,51913
St Hubert,St Hilaire,,51914
St Hubert,St Hubert,,51915
St Hubert,Ste Madeleine,,51916
St Hubert,Ste Philomene,,51917
Saint Julien Village,Rich Fund,,41902
Saint Julien Village,Saint Julien Village,,41901
Saint Julien Village,Union Flacq,,41903
Rose Belle,Balisson,,52101
Rose Belle,Baramia,,51802
Rose Belle,Camp Bouvet,,51803
Rose Belle,Capitol,,51804
Rose Belle,Chakla,,51805
Rose Belle,Chapel,,51806
Rose Belle,Cite Balisson (SILWF),,52107
Rose Belle,Cite EDC,,51808
Rose Belle,Cite Padco,,52109
Rose Belle,Gebert,,51810
Rose Belle,Le Vieux Moulin,,51812
Rose Belle,Letord,,51811
Rose Belle,Madame Lolo,,51813
Rose Belle,Marie Jeannie,,51814
Rose Belle,Mon Rose 1,,51816
Rose Belle,Mon Rose 2,,51817
Rose Belle,Mongelard,,51815
Rose Belle,Morc Bakory,,51818
Rose Belle,Morc Boolaky,,51819
Rose Belle,Morc Brito,,51820
Rose Belle,Morc Domaine,,51821
Rose Belle,Morc Jac,,51822
Rose Belle,Morc Orchidee,,51823
Rose Belle,Morc Rosiere,,51824
Rose Belle,Morc S.I.T,,51825
Rose Belle,Mosque Rd,,51826
Rose Belle,Railway,,51827
Rose Belle,Res Marc Chicose,,51828
Rose Belle,Rose Belle,,51829
Rose- Hill,ARAB TOWN,,71301
Rose- Hill,ARCADES REETOO,,71302
Rose- Hill,BEAU SEJOUR 3,Boundary (southern side) Rail to Murray,72101
Rose- Hill,BEAU SEJOUR 3,Cassidy Ave,72101
Rose- Hill,BEAU SEJOUR 3,Cretin Ave,72101
Rose- Hill,BEAU SEJOUR 3,Hassen Sakir Lane,72101
Rose- Hill,BEAU SEJOUR 3,Lees Ave ,72101
Rose- Hill,BEAU SEJOUR 3,Murray east side (Boundary to Antelme),72101
Rose- Hill,BEAU SEJOUR 3,Nuckchady Lane,72101
Rose- Hill,BEAU SEJOUR 3,Ollier (both sides) from Rail to Murray,72101
Rose- Hill,BEAU SEJOUR 3,Pasteur Ave,72101
Rose- Hill,BEAU SEJOUR 3,Rail from Ollier to Boundary,72101
Rose- Hill,BEAU SEJOUR 3,St Gerant Lane,72101
Rose- Hill,BEAU SEJOUR 4,Boundary southern side (Hitchcock to Murray),72102
Rose- Hill,BEAU SEJOUR 4,Cambridge Lane,72102
Rose- Hill,BEAU SEJOUR 4,Cirne  (Hammarsjold) Lane,72102
Rose- Hill,BEAU SEJOUR 4,Dr Ross Ave from Ollier to Boundary,72102
Rose- Hill,BEAU SEJOUR 4,Hitchick east sioe from Ollier to Boundary,72102
Rose- Hill,BEAU SEJOUR 4,Humbert Lane,72102
Rose- Hill,BEAU SEJOUR 4,Le Conte de Lisle Ave Ollier to Boundary,72102
Rose- Hill,BEAU SEJOUR 4,Murray western side  (Boundary to Antelme),72102
Rose- Hill,BEAU SEJOUR 4,Muslun Lane,72102
Rose- Hill,BEAU SEJOUR 4,Ollier from Hitchcockn to Murray (both sides) + Lanes,72102
Rose- Hill,BEAU SEJOUR 4,Oxford Lane,72102
Rose- Hill,BEAU SEJOUR 4,Sauba Lane,72102
Rose- Hill,BEAU SEJOUR 5,St Anne Lane,72301
Rose- Hill,BEAU SEJOUR 5,Stanley Ave (both sides) from Ollier to Boundady,72301
Rose- Hill,BEAU SEJOUR 5,Boundary (southern side) from Hitchcock to Stanley,72301
Rose- Hill,BEAU SEJOUR 5,F.Nightingale Ave,72301
Rose- Hill,BEAU SEJOUR 5,Hitchcock west side from Ollier to Boundary,72301
Rose- Hill,BEAU SEJOUR 5,Muslun Lane No 1,72301
Rose- Hill,BEAU SEJOUR 5,Ollier from Stanley to Hitchcock,72301
Rose- Hill,BELLE ROSE 6 CORIOLIS ,Eden colledge (girls) (walk 6),72106
Rose- Hill,BELLE ROSE 6 CORIOLIS (walk 5),Boundary Ave southern side from River to Railway,72106
Rose- Hill,BELLE ROSE 6 CORIOLIS (walk 5),Coriolis (whole) up to last house on rail,72106
Rose- Hill,BELLE ROSE 6 CORIOLIS (walk 5),Imp Boundary ,72106
Rose- Hill,BELLE ROSE 6 CORIOLIS (walk 5),L Koenig Ave ,72106
Rose- Hill,BELLE ROSE 7,A Chady Lane,72107
Rose- Hill,BELLE ROSE 7,Auckloo Lane,72107
Rose- Hill,BELLE ROSE 7,Coodien Lane,72107
Rose- Hill,BELLE ROSE 7,Dr Castel Ave,72107
Rose- Hill,BELLE ROSE 7,Imp Cheddy,72107
Rose- Hill,BELLE ROSE 7,Leckning Ave,72107
Rose- Hill,BELLE ROSE 7,Mareemootoo Ave,72107
Rose- Hill,BELLE ROSE 7,Ollier (northern side) from Royal road to Rail + lanes,72107
Rose- Hill,BELLE ROSE 7,Royal road Coriolis to Ollier,72107
Rose- Hill,BELLE ROSE 7,Van Nestor (Imp Georges) Lane,72107
Rose- Hill,BELLE ROSE 8,Ollier Ave from Royal road to Rail (southern side),72108
Rose- Hill,BELLE ROSE 8,Beau Sejour Ave,72108
Rose- Hill,BELLE ROSE 8,La Hausse Ave,72108
Rose- Hill,BELLE ROSE 8,G.Ythier Ave from Ollier to Mallefille,72108
Rose- Hill,BELLE ROSE 8,Mallefille Ave (Royal road to Laperouse Ave),72108
Rose- Hill,BELLE ROSE 8,Ythier Ave,72108
Rose- Hill,BELLE ROSE 8,La Perouse Ave (both sides),72108
Rose- Hill,BELLE ROSE 8,Madhoo Ave ,72108
Rose- Hill,BELLE ROSE 8,R Modun Ave,72108
Rose- Hill,BELLE ROSE 8,Kooraram Ave,72108
Rose- Hill,BELLE ROSE 8,Naz Ave from Beau Sejour Ave to Lapeyrouse Ave,72108
Rose- Hill,BELLE ROSE 8,Ghoorun Lane ,72108
Rose- Hill,BELLE ROSE 8,Wilson Ave  (Colville to La Perouse ) both sides,72108
Rose- Hill,BELLE ROSE 8,Wilson Ave (northern side) Royal road up to Colville,72108
Rose- Hill,BELLE ROSE 8,SSS Chaperon,72108
Rose- Hill,BELLE ROSE 8,Riverside Hotel,72108
Rose- Hill,BELLE ROSE 8,Royal road (both sides) from Ollier to Wilson,72108
Rose- Hill,BELLE ROSE 9,Wilson Ave south side Royal road to Colville Ave,72204
Rose- Hill,BELLE ROSE 9,De Caen Ave,72204
Rose- Hill,BELLE ROSE 9,Royal road from Wilson Ave to Belle Rose (Forget) Ave,72204
Rose- Hill,BELLE ROSE 9,Ganga Lane,72204
Rose- Hill,BELLE ROSE 9,Maroussem Lane,72204
Rose- Hill,BELLE ROSE 9,Hossenally Lane,72204
Rose- Hill,BELLE ROSE 9,MSC Building,72204
Rose- Hill,BELLE ROSE 9,Islamic College,72204
Rose- Hill,BELLE ROSE 9,Quality Beverages,72204
Rose- Hill,BELLE ROSE 9,Colville East Side( no 47 to 50),72204
Rose- Hill,BELLE ROSE 9,Colville west Side( no 43 to 45) ,72109
Rose- Hill,CAMP LEVIEUX 1,Alphonse Lane,71203
Rose- Hill,CAMP LEVIEUX 1,Barbier Ave,71203
Rose- Hill,CAMP LEVIEUX 1,Barbier Lane,71203
Rose- Hill,CAMP LEVIEUX 1,Berthaud Ave (west side)  C.D.Garde Ave to Ratsitatane Ave,71203
Rose- Hill,CAMP LEVIEUX 1,Canal Ave,71203
Rose- Hill,CAMP LEVIEUX 1,Cretin Lane,71203
Rose- Hill,CAMP LEVIEUX 1,Cretin Ave (north side) from  Berthaud Ave to Rue Canal ,71203
Rose- Hill,CAMP LEVIEUX 1,D'Argent Ave,71203
Rose- Hill,CAMP LEVIEUX 1,Dr Piarroux St,71203
Rose- Hill,CAMP LEVIEUX 1,Filao,71203
Rose- Hill,CAMP LEVIEUX 1,Freddy,71203
Rose- Hill,CAMP LEVIEUX 1,Impasse Barbier,71203
Rose- Hill,CAMP LEVIEUX 1,Imp Longane,71203
Rose- Hill,CAMP LEVIEUX 1,Imp Nabee,71203
Rose- Hill,CAMP LEVIEUX 1,Irene Street,71203
Rose- Hill,CAMP LEVIEUX 1,Junction Lane,71203
Rose- Hill,CAMP LEVIEUX 1,La Mare Ave,71203
Rose- Hill,CAMP LEVIEUX 1,Longane,71203
Rose- Hill,CAMP LEVIEUX 1,Madame,71203
Rose- Hill,CAMP LEVIEUX 1,Madras,71203
Rose- Hill,CAMP LEVIEUX 1,Magellan,71203
Rose- Hill,CAMP LEVIEUX 1,Mamzelle,71203
Rose- Hill,CAMP LEVIEUX 1,Mariamen Temple,71203
Rose- Hill,CAMP LEVIEUX 1,Monsieur,71203
Rose- Hill,CAMP LEVIEUX 1,Nabee  Ave,71203
Rose- Hill,CAMP LEVIEUX 1,Nubee  Ave,71203
Rose- Hill,CAMP LEVIEUX 1,Petit Montagne Ave,71203
Rose- Hill,CAMP LEVIEUX 1,Prince Charles Avenue,71203
Rose- Hill,CAMP LEVIEUX 1,Ratsitatane Ave (south side) from Berthaud Ave  to Rue Canal,71203
Rose- Hill,CAMP LEVIEUX 1,Surcouf Ave,71203
Rose- Hill,CAMP LEVIEUX 1,Tamarin Lane,71203
Rose- Hill,CAMP LEVIEUX 2,A.L.Suddoo,71204
Rose- Hill,CAMP LEVIEUX 2,Assembly Ave,71204
Rose- Hill,CAMP LEVIEUX 2,Assembly Lane,71204
Rose- Hill,CAMP LEVIEUX 2,Berthaud from C.D.Garde to Cretin (west side only),71204
Rose- Hill,CAMP LEVIEUX 2,Coombes,71204
Rose- Hill,CAMP LEVIEUX 2,C.D.Garde (north side only) from Berthaud  to Canal,71204
Rose- Hill,CAMP LEVIEUX 2,Cretin (south side only) from Berthaud to Canal ,71204
Rose- Hill,CAMP LEVIEUX 2,Cretin lane,71204
Rose- Hill,CAMP LEVIEUX 2,E.Laval,71204
Rose- Hill,CAMP LEVIEUX 2,E.Laval lane,71204
Rose- Hill,CAMP LEVIEUX 2,E.Laval lane 1,71204
Rose- Hill,CAMP LEVIEUX 2,Gaya Lane,71204
Rose- Hill,CAMP LEVIEUX 2,Houddoul,71204
Rose- Hill,CAMP LEVIEUX 2,Imp Cretin,71204
Rose- Hill,CAMP LEVIEUX 2,Imp Takoor,71204
Rose- Hill,CAMP LEVIEUX 2,Malroux,71204
Rose- Hill,CAMP LEVIEUX 2,Perroud,71204
Rose- Hill,CAMP LEVIEUX 2,Petit,71204
Rose- Hill,CAMP LEVIEUX 2,Ravinale,71204
Rose- Hill,CAMP LEVIEUX 2,Sirius,71204
Rose- Hill,CAMP LEVIEUX 2,Surcouf,71204
Rose- Hill,CHINESE EMBASY,,72204
Rose- Hill,CITE CORP DE GARDE,,71205
Rose- Hill,ESPACE CONCORDE (C.levieux),,71207
Rose- Hill,FLAT ABDOOLAH,,71308
Rose- Hill,FLAT BADAMIERS,,71309
Rose- Hill,FLAT BHUNJUN (village de la montagne),,71210
Rose- Hill,FLAT HOLLYWOOD,,71311
Rose- Hill,FLAT MONMARTRE,,71312
Rose- Hill,FLAT PEM,,71313
Rose- Hill,FLAT POUPINEL DE VALENCE,,71314
Rose- Hill,FLAT ROBINSON,,71315
Rose- Hill,FLAT ROCHES BRUNES,,71216
Rose- Hill,GALERIE ATCHIA,,71317
Rose- Hill,GALERIE EVERSHINE,,71318
Rose- Hill,GALERIE ROYALE,,71319
Rose- Hill,GOVINDEN COURT,,71320
Rose- Hill,HEAVEN HEIGHTS,,71321
Rose- Hill,MANDARIN COURT,,71322
Rose- Hill,MARKET ROSE HILL,,71323
Rose- Hill,MONT ROYAL,,71324
Rose- Hill,MORC  GAYA,,71225
Rose- Hill,MORC AH FOUYE,,71126
Rose- Hill,MORC BALGOBIN,,71327
Rose- Hill,MORC BERTHAUD,,71128
Rose- Hill,MORC Bholah,,71129
Rose- Hill,MORC CHADY,,71230
Rose- Hill,MORC GOPAL,,71231
Rose- Hill,MORC NARAIN (terrain),,71132
Rose- Hill,MORC NOUVELLE VILLE,,71233
Rose- Hill,MORC SEEBURN,,71234
Rose- Hill,MORC SOOKIA,,71135
Rose- Hill,MORC ST ANDREWS,,71336
Rose- Hill,MORCELLEMENT LARCHER,,71337
Rose- Hill,MORCELLEMENT NARAIN,,71238
Rose- Hill,MORCELLEMENT ROGERS,,71339
Rose- Hill,N.P.F BUILDING,,71340
Rose- Hill,NHDC C LEVIEUX -GERANIUM),,71241
Rose- Hill,NHDC C LEVIEUX-BEGONIA ),,71242
Rose- Hill,NHDC C LEVIEUX-CHRYSANTEME ),,71243
Rose- Hill,NHDC C LEVIEUX-DALHIA ),,71244
Rose- Hill,NHDC C LEVIEUX-EGLANTINE ),,71245
Rose- Hill,NHDC C LEVIEUX-FLAMBOYANT ),,71246
Rose- Hill,PLACE MARGEOT,,71347
Rose- Hill,PLAISANCE 1,Auffray Avenue,71348
Rose- Hill,PLAISANCE 1,Churchill Avenue,71348
Rose- Hill,PLAISANCE 1,De Plevitz Avenue (from Hugnin to Allaman),71348
Rose- Hill,PLAISANCE 1,Fleuriot Avenue,71348
Rose- Hill,PLAISANCE 1,Hajee Allaman St (east side from R Brunes Ave to Pigeot),71348
Rose- Hill,PLAISANCE 1,Hugnin west side from R Brunes to Pigeot),71348
Rose- Hill,PLAISANCE 1,Joseph G. Avenue,71348
Rose- Hill,PLAISANCE 1,Pigeot Avenue ( north side from Allaman to Hugnin),71348
Rose- Hill,PLAISANCE 1,Roches Brunes Avenue (southern side from Hugnin to H Allaman),71348
Rose- Hill,PLAISANCE 1,St Louis Avenue (from  R Brunes Ave to Pigeot Ave),71348
Rose- Hill,PLAISANCE 1,Tranquille Avenue,71348
Rose- Hill,PLAISANCE 1,Vincent Avenue (from De Plevitz to Pigeot),71348
Rose- Hill,PLAISANCE 2,Allaman St ( East) from Clemence to Ratsitatane,71349
Rose- Hill,PLAISANCE 2,Ratsitanane St ( north side) from Hugnin to Allaman,71349
Rose- Hill,PLAISANCE 2,Hugnin (west) from Pigeot to Ratsitatane,71349
Rose- Hill,PLAISANCE 2,Pigeot Avenue (southern side ) from Hugnin to Beau Bois),71349
Rose- Hill,PLAISANCE 2,Beau Bois Ave( East) from Marie Clemence to Pigeot,71349
Rose- Hill,PLAISANCE 2,Sister Clemence (south)  Allaman to Beau Bois,71349
Rose- Hill,PLAISANCE 2,L'Anglois Avenue,71349
Rose- Hill,PLAISANCE 2,De Chazal Avenue,71349
Rose- Hill,PLAISANCE 2,Sister Clemence Ave from  Hugnin to Beau Bois(both sides),71349
Rose- Hill,PLAISANCE 2,Richard Avenue,71349
Rose- Hill,PLAISANCE 2,Giroday Avenue ( from Hugnin to Beau Bois) both sides,71349
Rose- Hill,PLAISANCE 2,St Louis Ave from Pigeot to Ratsitatane,71349
Rose- Hill,PLAISANCE 2,Vincent Avenue (from Pigeot to Marie Clemence),71349
Rose- Hill,PLAISANCE H.E,Allaman (East) from Clemence to Piegot,71350
Rose- Hill,PLAISANCE H.E,Beau Bois Ave (West) from Marie Clemence to Pigeot,71350
Rose- Hill,PLAISANCE H.E,Djibao Street,71350
Rose- Hill,PLAISANCE H.E,Giroday from Beau Bois to Allaman,71350
Rose- Hill,PLAISANCE H.E,Lewis Street,71350
Rose- Hill,PLAISANCE H.E,M.G.R Emmanuel,71350
Rose- Hill,PLAISANCE H.E,Piegot Avenue (southern side from Beau Bois  to Allaman),71350
Rose- Hill,PLAISANCE H.E,Sister Clemence (north) from Beau Bois to Allaman,71350
Rose- Hill,PLAISANCE H.E,Vencatasamy Avenue,71350
Rose- Hill,QUEEN .COURTS ,,71352
Rose- Hill,QUEEN ELIZABETH COLLEGE,,71351
Rose- Hill,RENOWN BUILDING ,,71353
Rose- Hill,RESIDENCE CLOS VERGER ,,71354
Rose- Hill,RESIDENCE LA CONCORDE (NHDC),,71255
Rose- Hill,RESIDENCE MALARTIC,,71356
Rose- Hill,ROCHE BRUNES/ PLAISANCE,Allaman (west) from Ratsitatane to Roche Brunes Ave,71254
Rose- Hill,ROCHE BRUNES/ PLAISANCE,Berthe Street,71254
Rose- Hill,ROCHE BRUNES/ PLAISANCE,Bois Noir Street,71254
Rose- Hill,ROCHE BRUNES/ PLAISANCE,De Plevitz Ave from La Reine to Allaman,71254
Rose- Hill,ROCHE BRUNES/ PLAISANCE,Donald.F St,71254
Rose- Hill,ROCHE BRUNES/ PLAISANCE,Dr. N. Luckeenarain Ave (Bois Noir),71254
Rose- Hill,ROCHE BRUNES/ PLAISANCE,Emmanuel E-Cotte Avenue,71254
Rose- Hill,ROCHE BRUNES/ PLAISANCE,Giroday Avenue from La Reine to Allaman,71254
Rose- Hill,ROCHE BRUNES/ PLAISANCE,I. M. Kalla Ave (Berthe),71254
Rose- Hill,ROCHE BRUNES/ PLAISANCE,M. Speville Avenue,71254
Rose- Hill,ROCHE BRUNES/ PLAISANCE,Maillard Avenue,71254
Rose- Hill,ROCHE BRUNES/ PLAISANCE,Mariamen Kovil Ave (Stafford Mayer),71254
Rose- Hill,ROCHE BRUNES/ PLAISANCE,Pigeot Avenue from La Reine to Allaman,71254
Rose- Hill,ROCHE BRUNES/ PLAISANCE,Ratsitatane (north) from La Reine to Allaman,71254
Rose- Hill,ROCHE BRUNES/ PLAISANCE,Roches Brunes Ave (South) from La Reine to Allaman,71254
Rose- Hill,ROCHE BRUNES/ PLAISANCE,Sister Clemence Ave from La Reine to Allaman,71254
Rose- Hill,ROCHE BRUNES/ PLAISANCE,Ste Therese Avenue,71254
Rose- Hill,ROCHE BRUNES/ PLAISANCE,Strafford Mayer Street,71254
Rose- Hill,ROCHE BRUNES/ PLAISANCE 1,De Plevitz Avenue (from  La Reine St to Jhuboo St),71258
Rose- Hill,ROCHE BRUNES/ PLAISANCE 1,Dr. S. Jhuboo Street (whole),71258
Rose- Hill,ROCHE BRUNES/ PLAISANCE 1,Giroday Avenue (from  La Reine St to Jhuboo St),71258
Rose- Hill,ROCHE BRUNES/ PLAISANCE 1,Idrice Goomany St,71258
Rose- Hill,ROCHE BRUNES/ PLAISANCE 1,La Reine St (whole),71258
Rose- Hill,ROCHE BRUNES/ PLAISANCE 1,Martin Luther King Street,71258
Rose- Hill,ROCHE BRUNES/ PLAISANCE 1,Pigeot Avenue (from  La Reine St to Jhuboo St),71258
Rose- Hill,ROCHE BRUNES/ PLAISANCE 1,Ratsitatane (north) from La Reine to Jhuboo,71258
Rose- Hill,ROCHE BRUNES/ PLAISANCE 1,Rev Pere Dufay Street,71258
Rose- Hill,ROCHE BRUNES/ PLAISANCE 1,Roches Brunes Ave (South) from La Reine to Jhuboo,71258
Rose- Hill,ROCHE BRUNES/ PLAISANCE 1,Sister Clemence Avenue((from  La Reine St to Jhuboo St),71258
Rose- Hill,ROCHE BRUNES/ PLAISANCE 2,De Plevitz Avenue (from Jhuboo to Mere Theresa),71259
Rose- Hill,ROCHE BRUNES/ PLAISANCE 2,Fareed Muttur Street,71259
Rose- Hill,ROCHE BRUNES/ PLAISANCE 2,Giroday Avenue (from Jhuboo to Franchette),71259
Rose- Hill,ROCHE BRUNES/ PLAISANCE 2,J.Franchette St (Limit VIII),71259
Rose- Hill,ROCHE BRUNES/ PLAISANCE 2,Maxime  Remy St ( Limit VI),71259
Rose- Hill,ROCHE BRUNES/ PLAISANCE 2,Mere Theresa St (Limit VII),71259
Rose- Hill,ROCHE BRUNES/ PLAISANCE 2,Ratsitatane (north) from Jhuboo to Concorde,71259
Rose- Hill,ROCHE BRUNES/ PLAISANCE 2,Roches Brunes Ave (south) from Jhuboo to Concorde,71259
Rose- Hill,ROCHE BRUNES/ PLAISANCE 2,Rue de la concorde (eastern side),71259
Rose- Hill,ROCHE BRUNES/ PLAISANCE 2,Sister Clemence Avenue  (from Jhuboo to Fanchette),71259
Rose- Hill,ROSE HILL CENTRE 1,A. Gelle,71360
Rose- Hill,ROSE HILL CENTRE 1,Abbe Harel,71360
Rose- Hill,ROSE HILL CENTRE 1,Ambrose Avenue (north),71360
Rose- Hill,ROSE HILL CENTRE 1,Andre Glover,71360
Rose- Hill,ROSE HILL CENTRE 1,B. Blackburn,71360
Rose- Hill,ROSE HILL CENTRE 1,Barbeau,71360
Rose- Hill,ROSE HILL CENTRE 1,C. David,71360
Rose- Hill,ROSE HILL CENTRE 1,Celestin Lane,71360
Rose- Hill,ROSE HILL CENTRE 1,Dr Raoul Felix,71360
Rose- Hill,ROSE HILL CENTRE 1,Ernest,71360
Rose- Hill,ROSE HILL CENTRE 1,Farquhar,71360
Rose- Hill,ROSE HILL CENTRE 1,G.Bowen,71360
Saint Julien d'Hotman,Camp Thorel,,80101
Saint Julien d'Hotman,Saint Julien d'Hotman,,80102
Rose- Hill,ROSE HILL CENTRE 1,Hugnin (east) from Ambrose to P.Laval,71360
Rose- Hill,ROSE HILL CENTRE 1,Imp Milien,71360
Rose- Hill,ROSE HILL CENTRE 1,L Regis ,71360
Rose- Hill,ROSE HILL CENTRE 1,La Martine,71360
Rose- Hill,ROSE HILL CENTRE 1,Milton,71360
Rose- Hill,ROSE HILL CENTRE 1,Pere Laval Street (south),71360
Rose- Hill,ROSE HILL CENTRE 1,Raymond Peril,71360
Rose- Hill,ROSE HILL CENTRE 1,Royal Rd (west) from Pere Laval to Ambrose,71360
Rose- Hill,ROSE HILL CENTRE 1,Sir Edgar Laurent ,71360
Rose- Hill,ROSE HILL CENTRE 1,Wellington,71360
Rose- Hill,ROSE HILL CENTRE 1,Willoughby ,71360
Rose- Hill,ROSE HILL CENTRE 2,Thomy Rousset,71361
Rose- Hill,ROSE HILL CENTRE 2,Ambrose Avenue (south),71361
Rose- Hill,ROSE HILL CENTRE 2,Ambrose Lane,71361
Rose- Hill,ROSE HILL CENTRE 2,C. Antelme  (north),71361
Rose- Hill,ROSE HILL CENTRE 2,Captan Bruce,71361
Rose- Hill,ROSE HILL CENTRE 2,E. Serret,71361
Rose- Hill,ROSE HILL CENTRE 2,Edison,71361
Rose- Hill,ROSE HILL CENTRE 2,Gordon,71361
Rose- Hill,ROSE HILL CENTRE 2,Hugnin (east) from Ambrose to C. Antelme,71361
Rose- Hill,ROSE HILL CENTRE 2,Joseph Riviere,71361
Rose- Hill,ROSE HILL CENTRE 2,L. L'Hoste,71361
Rose- Hill,ROSE HILL CENTRE 2,Leguen,71361
Rose- Hill,ROSE HILL CENTRE 2,Royal Rd (west) from C.Antelme  to Ambrose,71361
Rose- Hill,ROSE HILL CENTRE 2,Seide Gelle,71361
Rose- Hill,ROSE HILL CENTRE 2,St Joseph Lane,71361
Rose- Hill,ROSE HILL CENTRE 3,C. Antelme  (south),71362
Rose- Hill,ROSE HILL CENTRE 3,Dr Maurice Cure(north),71362
Rose- Hill,ROSE HILL CENTRE 3,Dr. de Chazal Antelme to Cure,71362
Rose- Hill,ROSE HILL CENTRE 3,Dumas ,71362
Rose- Hill,ROSE HILL CENTRE 3,Inkerman(royal to Cure),71362
Rose- Hill,ROSE HILL CENTRE 3,Boodhun from Cure to Inkerman,71362
Rose- Hill,ROSE HILL CENTRE 3,L.L'Homme from Cure to Inkerman,71362
Rodrigues - Mont Lubin,Bassin Gallard,,R3201
Rodrigues - Mont Lubin,Bati Madame,,R3202
Rodrigues - Mont Lubin,Bigarade,,R2203
Rodrigues - Mont Lubin,Camp Baptiste,,R5204
Rodrigues - Mont Lubin,Camp Paul or Canne paul,,R3205
Rodrigues - Mont Lubin,Champs,,R5206
Rodrigues - Mont Lubin,Chateau D'Eau,,R6207
Rodrigues - Mont Lubin,Citron Donis,,R2208
Rodrigues - Mont Lubin,Citron Donis,,R3208
Rodrigues - Mont Lubin,Citronelle,,R5209
Rodrigues - Mont Lubin,Dans Bebe,,R5210
Rodrigues - Mont Lubin,Dans Begue,,R3211
Rodrigues - Mont Lubin,Deux Goyaves,,R5212
Rodrigues - Mont Lubin,Eau Claire,,R3213
Rodrigues - Mont Lubin,Eau Vannee,,R3214
Rodrigues - Mont Lubin,Lataniers,,R3215
Rodrigues - Mont Lubin,Malabar,,R5216
Rodrigues - Mont Lubin,Malabar,,R4216
Rodrigues - Mont Lubin,Malartic,,R4217
Rodrigues - Mont Lubin,Malartic,,R3217
Rodrigues - Mont Lubin,Mon Plaisir,,R3222
Rodrigues - Mont Lubin,Mont Lubin,,R5218
Rodrigues - Mont Lubin,Mont Lubin,,R3218
Rodrigues - Mont Lubin,Montagne Goyaves,,R6219
Rodrigues - Mont Lubin,Montagne Goyaves,,R5219
Rodrigues - Mont Lubin,Montagne Limon,,R3220
Rodrigues - Mont Lubin,Montagne Persil,,R5221
Rodrigues - Mont Lubin,Oranges,,R5223
Rodrigues - Mont Lubin,Oranges,,R6223
Rodrigues - Mont Lubin,Pas Gerome,,R3224
Rodrigues - Mont Lubin,Pavillon,,R3225
Rodrigues - Mont Lubin,Petit Gabriel,,R2226
Rodrigues - Mont Lubin,Petit Gabriel,,R3226
Rodrigues - Mont Lubin,Petit Gabriel,,R4226
Rodrigues - Mont Lubin,Pompee,,R3227
Rodrigues - Mont Lubin,Saint Famille,,R3228
Rodrigues - Mont Lubin,Saint Gabriel,,R3229
Rodrigues - Mont Lubin,Sygangue,,R5230
Rodrigues - Mont Lubin,Vainqueur,,R5231
Rodrigues - Mont Lubin,Vainqueur,,R6231
Rose- Hill,ROSE HILL CENTRE 3,Mamet,71362
Rose- Hill,ROSE HILL CENTRE 3,Notre Dame De Lourdes,71362
Rose- Hill,ROSE HILL CENTRE 3,Royal Rd (west side) from Round About to Antelme,71362
Rose- Hill,ROSE HILL CENTRE 3,Singery from Cure to Antelme,71362
Rose- Hill,ROSE HILL CENTRE 3,Remono from Cure to Inkerman,71362
Rose- Hill,ROSE HILL CENTRE 3,Sir Charles Lees,71362
Rose- Hill,ROSE HILL CENTRE 3,Sonnee Mosque,71362
Rose- Hill,ROSE HILL CENTRE 3,Thierry,71362
Rose- Hill,ROSE HILL CENTRE 4,De Singery from Cure to Inkerman,71363
Rose- Hill,ROSE HILL CENTRE 4,Dr. de Chazal from Inkerman to Cure,71363
Rose- Hill,ROSE HILL CENTRE 4,Dr Lorens,71363
Rose- Hill,ROSE HILL CENTRE 4,Dr Maurice Cure(south),71363
Rose- Hill,ROSE HILL CENTRE 4,E.Pellereau,71363
Rose- Hill,ROSE HILL CENTRE 4,Gladstone (north side),71363
Rose- Hill,ROSE HILL CENTRE 4,Inkerman (Hugnin to Cure),71363
Rose- Hill,ROSE HILL CENTRE 4,L.L'Homme (gladstone to Cure),71363
Rose- Hill,ROSE HILL CENTRE 4,Labourdonnais (gladstone to Cure),71363
Rose- Hill,ROSE HILL CENTRE 4,Laplace (gladstone to inkerman),71363
Rose- Hill,ROSE HILL CENTRE 4,Mallac (gladstone to p o wales),71363
Rose- Hill,ROSE HILL CENTRE 4,Prince of Wales,71363
Rose- Hill,ROSE HILL CENTRE 4,R. Boodhun,71363
Rose- Hill,ROSE HILL CENTRE 4,S. Soopramanien from Hugnin to Cure,71363
Rose- Hill,ROSE HILL CENTRE 4,Sholay (gladstone to p o wales),71363
Rose- Hill,ROSE HILL CENTRE 5,Anquetil,71364
Rose- Hill,ROSE HILL CENTRE 5,Atchia,71364
Rose- Hill,ROSE HILL CENTRE 5,Beaugeard,71364
Rose- Hill,ROSE HILL CENTRE 5,Blondeau,71364
Rose- Hill,ROSE HILL CENTRE 5,Boundary North (Hugnin to Laboudonnais),71364
Rose- Hill,ROSE HILL CENTRE 5,Dr Bour,71364
Rose- Hill,ROSE HILL CENTRE 5,Gladstone (south side) Hugnin to labourdonnais,71364
Rose- Hill,ROSE HILL CENTRE 5,Hugnin (east side) boundary-gladstone,71364
Rose- Hill,ROSE HILL CENTRE 5,Labourdonnais(west) gladstone to boundary,71364
Rose- Hill,ROSE HILL CENTRE 5,Laplace (gladstone to Hurdowar),71364
Rose- Hill,ROSE HILL CENTRE 5,Mallac (gladstone to Blondeau),71364
Rose- Hill,ROSE HILL CENTRE 5,P. Camille,71364
Rose- Hill,ROSE HILL CENTRE 5,P. Neyrolles,71364
Rose- Hill,ROSE HILL CENTRE 5,Pere Jean de Roton (Hugnin to Labourdonnais),71364
Rose- Hill,ROSE HILL CENTRE 5,Promenade R.Armand,71364
Rose- Hill,ROSE HILL CENTRE 5,R. Hurdowar (Hugnin to labourdonnais),71364
Rose- Hill,ROSE HILL CENTRE 5,S. Balgobin (up to labourdonnais),71364
Rose- Hill,ROSE HILL CENTRE 5,S.Dhanjee (Hugnin to Labourdonnais),71364
Rose- Hill,ROSE HILL CENTRE 5,Sholay (gladstone Blondeau),71364
Rose- Hill,ROSE HILL CENTRE 5,Stevenson,71364
Rose- Hill,ROSE HILL CENTRE 6,Balgobin,71365
Rose- Hill,ROSE HILL CENTRE 6,Boundary North (Promenade to Laboudonnais),71365
Rose- Hill,ROSE HILL CENTRE 6,Gladstone (south side) Cure  to labourdonnais,71365
Rose- Hill,ROSE HILL CENTRE 6,J.C.D'Avoine,71365
Rose- Hill,ROSE HILL CENTRE 6,Labourdonnais (east) gladstone to boundary,71365
Rose- Hill,ROSE HILL CENTRE 6,Leoville L'Homme (gladstone to hurdowar),71365
Rose- Hill,ROSE HILL CENTRE 6,Malaval ,71365
Rose- Hill,ROSE HILL CENTRE 6,Pasteur Badaux,71365
Rose- Hill,ROSE HILL CENTRE 6,Pere Jean de Roton (Promenade to Labourdonnais),71365
Rose- Hill,ROSE HILL CENTRE 6,Promenade Roland Armand,71365
Rose- Hill,ROSE HILL CENTRE 6,R. Hurdowar (Promenade to labourdonnais),71365
Rose- Hill,ROSE HILL CENTRE 6,Remono (bus stop to Dhanjee),71365
Rose- Hill,ROSE HILL CENTRE 6,S. Balgobin (D Taylor to labourdonnais),71365
Rose- Hill,ROSE HILL CENTRE 6,S.Dhanjee (Remono  to Labourdonnais),71365
Rose- Hill,ROSE HILL CENTRE 7,Boundary  (north side) D Taylor to river,71366
Rose- Hill,ROSE HILL CENTRE 7,District Court,71366
Rose- Hill,ROSE HILL CENTRE 7,Duncan Taylor St,71366
Rose- Hill,ROSE HILL CENTRE 7,E. Francois,71366
Rose- Hill,ROSE HILL CENTRE 7,Elias,71366
Rose- Hill,ROSE HILL CENTRE 7,Health  Centre,71366
Rose- Hill,ROSE HILL CENTRE 7,Moka Rd ( J.Nyerere),71366
Rose- Hill,ROSE HILL CENTRE 7,Police Hqtrs,71366
Rose- Hill,ROSE HILL CENTRE 7,Royal Road from Boundary to Round About,71366
Rose- Hill,ROSE HILL CENTRE 7,Sir Virgil Naz,71366
Rose- Hill,ROSE HILL CENTRE 7,Telephone Exchange,71366
Rose- Hill,ROSE HILL CENTRE 7,Vandermersh (east) from round about to CEB,71366
Rose- Hill,ROSE HILL CENTRE 8,Impasse Louis Couacaud,71367
Rose- Hill,ROSE HILL CENTRE 8,Impasse St Ignace,71367
Rose- Hill,ROSE HILL CENTRE 8,Kennedy ,71367
Rose- Hill,ROSE HILL CENTRE 8,Malartic ( Southern Part),71367
Rose- Hill,ROSE HILL CENTRE 8,Poupinel De Valence,71367
Rose- Hill,ROSE HILL CENTRE 8,R. Rochecouste,71367
Rose- Hill,ROSE HILL CENTRE 8,Royal Rd East side from Malartic to Post Office,71367
Rose- Hill,ROSE HILL CENTRE 8,Roux St,71367
Rose- Hill,ROSE HILL CENTRE 8,S. Telemaque,71367
Rose- Hill,ROSE HILL CENTRE 8,Selmour  Ahnee,71367
Rose- Hill,ROSE HILL CENTRE 8,Vandermersch (Malartic to S Ahnee),71367
Rose- Hill,ROSE HILL CENTRE 9,C.D.Gaulle,71368
Rose- Hill,ROSE HILL CENTRE 9,De Caen,71368
Rose- Hill,ROSE HILL CENTRE 9,Dr E. Ythier,71368
Rose- Hill,ROSE HILL CENTRE 9,Dr Etienne,71368
Rose- Hill,ROSE HILL CENTRE 9,G.Pitot,71368
Rose- Hill,ROSE HILL CENTRE 9,G.Soobhan,71368
Rose- Hill,ROSE HILL CENTRE 9,Guy Blackburn ,71368
Rose- Hill,ROSE HILL CENTRE 9,Impasse A. Loumeau,71368
Rose- Hill,ROSE HILL CENTRE 9,Larche Lane,71368
Rose- Hill,ROSE HILL CENTRE 9,Larche st,71368
Rose- Hill,ROSE HILL CENTRE 9,Malartic North Side,71368
Rose- Hill,ROSE HILL CENTRE 9,Promenade Roland Armand,71368
Rose- Hill,ROSE HILL CENTRE 9,Rev Lebrun southern side,71368
Rose- Hill,ROSE HILL CENTRE 9,Royal Malartic to Rev Lebrun,71368
Rose- Hill,ROSE HILL CENTRE 9,Suzor,71368
Rose- Hill,ROSE HILL CENTRE 9,Swami Sivananda Road,71368
Rose- Hill,STANLEY 1,A.M.Sookia,71170
Rose- Hill,STANLEY 1,Antelme Lane 1,71170
Rose- Hill,STANLEY 1,Antelme Lane 2,71170
Rose- Hill,STANLEY 1,Berthaud (east side only) from Ratsitatane to St Anne,71170
Rose- Hill,STANLEY 1,Bradshaw Ave,71170
Rose- Hill,STANLEY 1,C.Antelme from Hugnin to Irlen,71170
Rose- Hill,STANLEY 1,Hugnin from Ratsitatane to St Anne (west side only),71170
Rose- Hill,STANLEY 1,Iqbal Lane,71170
Rose- Hill,STANLEY 1,Jadoo (seeneevassen),71170
Rose- Hill,STANLEY 1,M.Lacoste,71170
Rose- Hill,STANLEY 1,Mariamen Temple,71170
Rose- Hill,STANLEY 1,Mnanacourt,71170
Rose- Hill,STANLEY 1,N.Irlen,71170
Rose- Hill,STANLEY 1,Panchoo Lane,71170
Rose- Hill,STANLEY 1,R.Rivet Lane,71170
Rose- Hill,STANLEY 1,Ratsitatane Lane,71170
Rodrigues - Port Mathurin,Acacia Hauteur,,R4101
Rodrigues - Port Mathurin,Accacia Grand Bois,,R4102
Rodrigues - Port Mathurin,Allee Tamarin,,R4103
Rodrigues - Port Mathurin,Anse Aux Anglais,,R5104
Rodrigues - Port Mathurin,Baie aux Huitres,,R4105
Rodrigues - Port Mathurin,Baie Diamant,,R4106
Rodrigues - Port Mathurin,Baie Lascars,,R5107
Rodrigues - Port Mathurin,Baladirou,,R5108
Rodrigues - Port Mathurin,Baladirou,,R6108
Rodrigues - Port Mathurin,Camp Du Roi,,R4109
Rodrigues - Port Mathurin,Camp Du Roi,,R5109
Rodrigues - Port Mathurin,Caverne Provert,,R5110
Rodrigues - Port Mathurin,Creve Coeur,,R5111
Rodrigues - Port Mathurin,Fond Accacia,,R4112
Rodrigues - Port Mathurin,Fond La Digue,,R5113
Rodrigues - Port Mathurin,Grand Baie,,R5114
Rodrigues - Port Mathurin,Jardin Mamzelle,,R4115
Rodrigues - Port Mathurin,Jentac,,R5116
Rodrigues - Port Mathurin,L'Union,,R4119
Rodrigues - Port Mathurin,La Bonte,,R4117
Rodrigues - Port Mathurin,Le Chou,,R4118
Rodrigues - Port Mathurin,Montagne Charlot,,R4120
Rodrigues - Port Mathurin,Montagne Charlot,,R5120
Rodrigues - Port Mathurin,Montagne Cimetiere,,R4121
Rodrigues - Port Mathurin,Montagne Fanal,,R5122
Rodrigues - Port Mathurin,Pointe L'Herbe/Accacia,,R4124
Rodrigues - Port Mathurin,Pointe la Guele,,R4123
Rodrigues - Port Mathurin,Pointe Monnier,,R4125
Rodrigues - Port Mathurin,Port Mathurin,,R5126
Rodrigues - Port Mathurin,Roseaux,,R5127
Rodrigues - Port Mathurin,Solitude,,R5128
Rodrigues - Port Mathurin,Soupir,,R4129
Rodrigues - Port Mathurin,Soupir,,R5129
Rodrigues - Port Mathurin,Terre Rouge,,R5130
Rodrigues - Port Mathurin,Vangar,,R5131
Rose- Hill,STANLEY 1,RATSITATANE (south side only) from Hugnin to Berthaud,71170
Rose- Hill,STANLEY 1,Roopun lane,71170
Rose- Hill,STANLEY 1,School lane,71170
Rose- Hill,STANLEY 1,St Anne (north side only) from Berthaud to Hugnin,71170
Rose- Hill,STANLEY 1,Thakoor,71170
Rose- Hill,STANLEY 1,Toureau 3,71170
Rose- Hill,STANLEY 1,Venkatasamy Lane,71170
Rose- Hill,STANLEY 2,Barossy Lane,71171
Rose- Hill,STANLEY 2,Berthaud (east side) from C.D.Garde to St Anne,71171
Rose- Hill,STANLEY 2,Chady Lane,71171
Rose- Hill,STANLEY 2,Corp D.Garde (north side only) Berthaud  to Hugnin,71171
Rose- Hill,STANLEY 2,Goyaviers Ave,71171
Rose- Hill,STANLEY 2,D Amen Temple Rd (Pagoda),71171
Rose- Hill,STANLEY 2,Gajadhur Ave,71171
Rose- Hill,STANLEY 2,Hugnin (west side ) from C.D.Garde  to St Anne,71171
Rose- Hill,STANLEY 2,Jinnah Ave from St Anne to C.D.Garde,71171
Rose- Hill,STANLEY 2,M.Gandhi Ave  from St Anne to C.D.Garde,71171
Rose- Hill,STANLEY 2,Mathuvirin St,71171
Rose- Hill,STANLEY 2,Panchoo Rd from St Anne to C.D.Garde,71171
Rose- Hill,STANLEY 2,Pillay Lane,71171
Rose- Hill,STANLEY 2,Queen St,71171
Rose- Hill,STANLEY 2,Rosiers Lane,71171
Rose- Hill,STANLEY 2,St Anne Rd ( south part) from Berthaud to Hugnin,71171
Rose- Hill,STANLEY 2,Tagore Lane,71171
Rose- Hill,STANLEY 2,Tamariniers Ave,71171
Rose- Hill,STANLEY 2,Tirvengadum,71171
Rose- Hill,TEFLES HOUSING ESTATE,Bach lane,71176
Rose- Hill,TEFLES HOUSING ESTATE,Berlioz lane,71176
Rose- Hill,TEFLES HOUSING ESTATE, Berthaud from C.D Garde to G Rozemont,71176
Rose- Hill,TEFLES HOUSING ESTATE,Berthaud,71176
Rose- Hill,TEFLES HOUSING ESTATE,Chopin Lane,71176
Rose- Hill,TEFLES HOUSING ESTATE, Cocotiers lane,71176
Rose- Hill,TEFLES HOUSING ESTATE,C.D.Garde (south side) Morc Bholah to Jinnah,71176
Rose- Hill,TEFLES HOUSING ESTATE,Guy Rozemonmt (north part) from Jinnah to Monc Bholah,71176
Rose- Hill,TEFLES HOUSING ESTATE,Haendel lane,71176
Rose- Hill,TEFLES HOUSING ESTATE, Jinnah Ave (west) from C.D Garde to G. Rozemont,71176
Rose- Hill,TEFLES HOUSING ESTATE,M.A Dinnah Lane,71176
Rose- Hill,TEFLES HOUSING ESTATE,Mozart Lane,71176
Rose- Hill,TEFLES HOUSING ESTATE,Palmier Lane,71176
Rose- Hill,TEFLES HOUSING ESTATE,Schubert Lane,71176
Rose- Hill,TEFLES HOUSING ESTATE,Schuman Lane,71176
Rose- Hill,TEFLES HOUSING ESTATE,Soudun Lane,71176
Rose- Hill,TREFLES 1, Boundary (north side ) from Panchoo  to Hugnin,71173
Rose- Hill,TREFLES 1, C.D.Garde (southern side ) Panchoo  to Hugnin,71173
Rose- Hill,TREFLES 1, Manilall  (east side) from Panchoo  to Hugnin,71173
Rose- Hill,TREFLES 1,Dr Ferriere Avenue,71173
Rose- Hill,TREFLES 1,Dr Nooraya Street ,71173
Rose- Hill,TREFLES 1,Ferriere Lane,71173
Rose- Hill,TREFLES 1,Hugnin  (west side ) from C.D.Garde  to Boundary,71173
Rose- Hill,TREFLES 1,Imp Chasteauneuf,71173
Rose- Hill,TREFLES 1,Manilall from Hugnin to Panchoo (Stanley Ave),71173
Rose- Hill,TREFLES 1,Pagoda Avenue from C D Gardes to Rozemont,71173
Rose- Hill,TREFLES 1,Panchoo (East side ) from Boundary to C.D.Garde,71173
Rose- Hill,TREFLES 1,Panchoo Lane B,71173
Rose- Hill,TREFLES 1,R.E Hart,71173
Rose- Hill,TREFLES 1,Sawmy (from Ferriere to Panchoo),71173
Rose- Hill,TREFLES 2,Boundary (south side ) from Panchoo to Winners,71174
Rose- Hill,TREFLES 2, C.D.Garde (south side ) Panchoo  to Jinnah  ,71174
Rose- Hill,TREFLES 2, Sawmy Ave from M.gandhi Ave to Jinnah Ave,71174
Rose- Hill,TREFLES 2,Ameerally Lane,71174
Roches Noires,Azuri Complex,,31201
Roches Noires,Branch Rd,,31207
Roches Noires,Coastal Side,,31202
Roches Noires,Domaine du levant,,31203
Roches Noires,Haute Rive,,31204
Roches Noires,Lambic,,31205
Roches Noires,Roches Noires Village,,31206
Roches Noires,Sidine,,31208
Rodrigues - Grand Montagne,Anse Ally/Fumier,,R6401
Rodrigues - Grand Montagne,Anse Enfer,,R3402
Rodrigues - Grand Montagne,Anse Femie,,R6403
Rodrigues - Grand Montagne,Bassin Banane,,R6404
Rodrigues - Grand Montagne,Batatrand,,R6405
Rodrigues - Grand Montagne,Bel Air,,R6406
Rodrigues - Grand Montagne,Brulé ,,R6407
Rodrigues - Grand Montagne,Carrefour,,R3408
Rodrigues - Grand Montagne,Cascade Victoire,,R3409
Rodrigues - Grand Montagne,Coromandel,,R6410
Rodrigues - Grand Montagne,Dans Azie,,R6411
Rodrigues - Grand Montagne,Decide,,R6412
Rodrigues - Grand Montagne,Grande Montagne,,R6413
Rodrigues - Grand Montagne,Graviers,,R6414
Rodrigues - Grand Montagne,Grenade,,R6415
Rodrigues - Grand Montagne,Montagne Bois Noir,,R3416
Rodrigues - Grand Montagne,Montagne Cabri Est,,R6417
Rodrigues - Grand Montagne,Montagne Cherie,,R3418
Rodrigues - Grand Montagne,Montagne Longue,,R6419
Rodrigues - Grand Montagne,Montagne Malgache,,R3420
Rodrigues - Grand Montagne,Montagne Piquant,,R6421
Rodrigues - Grand Montagne,Montagne Ursule,,R6422
Rodrigues - Grand Montagne,Mourouk,,R3423
Rodrigues - Grand Montagne,Nassola,,R3424
Rodrigues - Grand Montagne,Nassola,,R6424
Rodrigues - Grand Montagne,Nouvelle Decouverte,,R6425
Rodrigues - Grand Montagne,Palissade Ternel,,R3426
Rodrigues - Grand Montagne,Palissade Ternel,,R6426
Rodrigues - Grand Montagne,Patate Theophile,,R6427
Rodrigues - Grand Montagne,Pate Reynieux,,R6428
Rodrigues - Grand Montagne,Petit Brule,,R6429
Rodrigues - Grand Montagne,Petits Graviers,,R6430
Rodrigues - Grand Montagne,Pointe Cotton,,R6431
Rodrigues - Grand Montagne,Port Sud Est,,R3432
Rodrigues - Grand Montagne,Riviere Banane,,R6433
Rodrigues - Grand Montagne,Roche Bon Dieu,,R6434
Rodrigues - Grand Montagne,Saint D'Or,,R6435
Rodrigues - Grand Montagne,Saponnaire,,R6436
Rodrigues - Grand Montagne,Source Tigomme,,R6437
Rodrigues - Grand Montagne,St Francois,,R6438
Rodrigues - Grand Montagne,Tambes,,R3439
Rodrigues - Grand Montagne,Tambes,,R6439
Rodrigues - Grand Montagne,Trefles,,R6440
Rodrigues - Grand Montagne,Trois Soleils,,R6441
Rose- Hill,TREFLES 2,Berthaud from Rozemont to boundary lane,71174
Rose- Hill,TREFLES 2,Bougainvilles Ave,71174
Rose- Hill,TREFLES 2,Bradshaw St,71174
Rose- Hill,TREFLES 2,Crystal lane,71174
Rose- Hill,TREFLES 2,Crystal Lane,71174
Rose- Hill,TREFLES 2,Dr Jeetoo Ave,71174
Rose- Hill,TREFLES 2,Dr M. Cure St,71174
Rose- Hill,TREFLES 2,Dr Manilall Lane,71174
Rose- Hill,TREFLES 2,E.Anquetil St,71174
Rose- Hill,TREFLES 2,Galaxy lane,71174
Rose- Hill,TREFLES 2,Gaya Lane,71174
Rose- Hill,TREFLES 2,Hirondelle Lane,71174
Rose- Hill,TREFLES 2,Imp Jeetoo,71174
Rose- Hill,TREFLES 2,Jeetoo lane,71174
Rose- Hill,TREFLES 2,Jinnah (East) from C.D.Garde to Rozemont,71174
Rose- Hill,TREFLES 2,Le Beau Lane,71174
Rose- Hill,TREFLES 2,M.Gandhi St,71174
Rose- Hill,TREFLES 2,Mahatma Gandhi Ave,71174
Rose- Hill,TREFLES 2,Mahatma Gandhi Lane,71174
Rose- Hill,TREFLES 2,Marguerite -part,71174
Rose- Hill,TREFLES 2,Panchoo Lane A,71174
Rose- Hill,TREFLES 2,Panchoo one side  from Boundary to C.D.Garde,71174
Rose- Hill,TREFLES 2,R.Seeneevassen St,71174
Rose- Hill,TREFLES 2,Rozemont (south) Jeetoo to Berthaud ,71174
Rose- Hill,TREFLES 3,Boundary from Berthaud to Winners ( north side only),71175
Rose- Hill,TREFLES 3,Cactus Ave,71175
Rose- Hill,TREFLES 3,Orchides Ave,71175
Rose- Hill,TREFLES 3, Aquarelle lane,71175
Rose- Hill,TREFLES 3, Berthaud from Boundary to Boundary lane,71175
Rose- Hill,TREFLES 3, Blue lane ,71175
Rose- Hill,TREFLES 3, Boundary lane ,71175
Rose- Hill,TREFLES 3, Canda (conal) part,71175
Rose- Hill,TREFLES 3,Fleur de Lys,71175
Rose- Hill,TREFLES 3, Geranuim,71175
Rose- Hill,TREFLES 3,Glaeil,71175
Rose- Hill,TREFLES 3,Green Lane,71175
Rose- Hill,TREFLES 3, Marguerite-part,71175
Rose- Hill,TREFLES 3, Pillay lane,71175
Roche Terre,Calasse,,32001
Roche Terre,Roche Terre,,32002
Rodrigues - La Ferme,Anse Goeland,,R1301
Rodrigues - La Ferme,Anse Nicholas/pointe Nicholas,,R1302
Rodrigues - La Ferme,Baie Du Nord,,R1303
Rodrigues - La Ferme,Baie Malgache,,R2304
Rodrigues - La Ferme,Baie Malgache,,R4304
Rodrigues - La Ferme,Baie Topaze,,R1305
Rodrigues - La Ferme,Bassin Boeuf,,R1306
Rodrigues - La Ferme,Camp Pintade,,R1307
Rodrigues - La Ferme,Cascade Jean Louis /Cite,,R1308
Rodrigues - La Ferme,Chateau de Fleurs,,R1309
Rodrigues - La Ferme,Citadelle,,R2310
Rodrigues - La Ferme,Citrons ,,R2311
Rodrigues - La Ferme,Corail,,R1312
Rodrigues - La Ferme,Dans Samy,,R2313
Rodrigues - La Ferme,Dans Samy,,R4313
Rodrigues - La Ferme,Deux Montagnes,,R2314
Rodrigues - La Ferme,Eau Verte,,R1315
Rodrigues - La Ferme,Grand La Fouche (Corail),,R1316
Rodrigues - La Ferme,Grand La Fouche (Corail),,R2316
Rodrigues - La Ferme,Grand La Fouche (Mangue),,R1317
Rodrigues - La Ferme,La Ferme,,R1318
Rodrigues - La Ferme,La Ferme/Terre Borne,,R1319
Rodrigues - La Ferme,Les Salines/P Corail Airport,,R1320
Rodrigues - La Ferme,Limon,,R1321
Rodrigues - La Ferme,Mangues,,R1322
Rodrigues - La Ferme,Mangues,,R2322
Rodrigues - La Ferme,Manique,,R1323
Rodrigues - La Ferme,Marechal/Eau Douce,,R2324
Rodrigues - La Ferme,Mont Cabris,,R2325
Rodrigues - La Ferme,Montagne Croupier,,R1326
Rodrigues - La Ferme,Montagne Du Sable,,R1327
Rodrigues - La Ferme,Montagne Plate,,R1328
Rodrigues - La Ferme,Montagne Tonnerre,,R4329
Rodrigues - La Ferme,Papayes,,R2330
Rodrigues - La Ferme,Piments,,R1331
Rodrigues - La Ferme,Pistache/plateau Bois Nois,,R1332
Rodrigues - La Ferme,plaine Feyane/P Coral,,R1333
Rodrigues - La Ferme,Plaine Maho/mt plate,,R1334
Rodrigues - La Ferme,Pointe/palmiste/mapou,,R1335
Rodrigues - La Ferme,Quatre Vents,,R4336
Rodrigues - La Ferme,Quatre Vents,,R2336
Rodrigues - La Ferme,Reposoir/ La Boucherie,,R1337
Riviere du Rempart,Amaury,,31401
Riviere du Rempart,Antoinette,,30102
Riviere du Rempart,B.V.Maurel (Amitie) part of,,30101
Riviere du Rempart,Barlow,,30103
Riviere du Rempart,Belle Vue Maurel,,30104
Riviere du Rempart,Bois Jacquot,,31402
Riviere du Rempart,Bois Mourand,,31403
Riviere du Rempart,Cite C.H.A,,31101
Riviere du Rempart,Cite EDC,,31102
Riviere du Rempart,Coquinbourg,,31103
Riviere du Rempart,Desjardins,,30105
Riviere du Rempart,Haute Rive,,31104
Riviere du Rempart,La Clemence,,31105
Riviere du Rempart,Maurel,,31106
Riviere du Rempart,Mon Loisir,,30107
Riviere du Rempart,Mon. Allybocus,,30106
Riviere du Rempart,Morc Beauclimat,,31404
Riviere du Rempart,Mosque Lane,,31107
Riviere du Rempart,Panchvati,,31108
Riviere du Rempart,Pave,,31109
Riviere du Rempart,Phoolia Nagar,,30108
Riviere du Rempart,Plaines des Roches (Lower),,31902
Riviere du Rempart,Plaines des Roches (Upper),,31903
Riviere du Rempart,Plaines des Roches Aubin,,31901
Riviere du Rempart,Plaines des Roches Seneck,,31904
Riviere du Rempart,Pte des Lascars,,31110
Riviere du Rempart,Railway Lane,,31111
Riviere du Rempart,Railway Line,,31112
Riviere du Rempart,Riverside,,31113
Riviere du Rempart,Riviere du Rempart,,31114
Riviere du Rempart,Schoenfield,,31115
Riviere du Rempart,Temple,,31116
Rodrigues - Riviere Coco,Anse Baleine,,R2501
Rodrigues - Riviere Coco,Anse Quitor (Corail),,R1502
Rodrigues - Riviere Coco,Anse Raffin,,R2503
Rodrigues - Riviere Coco,Bengelique/St Marie,,R1504
Rodrigues - Riviere Coco,Cascade Jean Louis*,,R1505
Rodrigues - Riviere Coco,Cite Patate,,R1506
Rodrigues - Riviere Coco,Corail vangassaille,,R1508
Rodrigues - Riviere Coco,Corail  Petite Butte,,R1507
Rodrigues - Riviere Coco,Grand La Fouche Corail*,,R1509
Rodrigues - Riviere Coco,Grande Var,,R2510
Rodrigues - Riviere Coco,Ile Michel,,R2511
Rodrigues - Riviere Coco,Parc Tortue,,R3512
Rodrigues - Riviere Coco,Petite Butte,,R2513
Rodrigues - Riviere Coco,Petite Butte,,R1513
Rodrigues - Riviere Coco,Plaine Cite Patate,,R1515
Rodrigues - Riviere Coco,Plaine Coco,,R1514
Rodrigues - Riviere Coco,Plaine Corail,,R1516
Rodrigues - Riviere Coco,Riviere Coco,,R2517
Rodrigues - Riviere Coco,SONGES,,R3518
Rodrigues - Riviere Coco,Tamarin,,R2519
Rodrigues - Riviere Coco,Vingt Tours,,R1520
Ripailles,Ripailles,,82001
Riviere des Creoles,Camp Carol,,51601
Riviere des Creoles,Cite CHA,,51602
Riviere des Creoles,Cite Longtill,,51603
Riviere des Creoles,"Morc. Ferney, VRS",,51604
Riviere des Creoles,Pte Brocus,,51605
Riviere des Creoles,Riviere des Creoles,,51606
Riviere des Anguilles,BARRACKS,,60608
Riviere des Anguilles,BEL AIR SAINT FELIX,,60611
Riviere des Anguilles,CAMP MARTIN,,60609
Riviere des Anguilles,LA VANILLE NHDC,,60610
Riviere des Anguilles,MAISONNETTE,,60605
Riviere des Anguilles,MORC PRUD'HOMME,,60604
Riviere des Anguilles,MORC ROUNTREE(land),,60602
Riviere des Anguilles,PRUD'HOMME,,60603
Riviere des Anguilles,RAILWAY ,,60606
Riviere des Anguilles,RAILWAY SQUARE,,61802
Riviere des Anguilles,SENNEVILLE,,60601
Reduit,Martindale,,80833
Reduit,MauritIus Examination Syndicate ,,80834
Reduit,Reduit,,80835
Reduit,State House,,80836
Reduit,University of Mauritius,,80837
Riviere du Poste,Camp Rabaud,,60701
Riviere du Poste,Camp Siajee,,60702
Riviere du Poste,Riv du Poste,,60703
Riviere du Poste,Terrain Maurice,,60704
Richelieu,Allee Tamarin,,91301
Richelieu,Cite Richelieu,,91302
Richelieu,Platform,,91303
Richelieu,Richelieu,,91304
Quatre Soeurs,Deux Freres Mountain side,,52701
Quatre Soeurs,Deux Freres Seaside,,52702
Quatre Soeurs,Marie Jeanne,,52703
Quatre Soeurs,Mr Joly,,52704
Quatre Soeurs,Pointe aux Feuilles,,52705
Quatre Soeurs,Quatre Soeurs,,52706
Quatre Cocos,Belle Mare ,,41601
Quatre Cocos,Camp Marcelin,,41602
Quatre Cocos,Camp Rannoo,,41603
Quatre Cocos,Palmar,,41604
Quatre Cocos,Quatre Cocos,,41605
Providence,Cite Providence,,81601
Providence,Providence,,81602
Providence,Providencia  1,,81603
Providence,Providencia  2,,81604
Providence,Providencia  3,,81605
Quartier Militaire,Betuel,,81101
Quartier Militaire,Bonne Veine,,81102
Quartier Militaire,Cite Bonne Veine,,81103
Quartier Militaire,Cite Padco (A.Ravaton),,81104
Quartier Militaire,New Road***,,81105
Quartier Militaire,Quartier Militaire,,81106
Quartier Militaire,Vuillemin ,,81107
QUATRE BORNES, BASSIN S.E,,72502
QUATRE BORNES, BASSIN/ PALMA,Gaby lane,72501
QUATRE BORNES, BASSIN/ PALMA,Gopal Singh Lane,72501
QUATRE BORNES, BASSIN/ PALMA,Hospital Rd,72501
QUATRE BORNES, BEAU SEJOUR 1,Sir V.Naz Ave,72103
QUATRE BORNES, BEAU SEJOUR 1,G. Ithier Ave,72103
QUATRE BORNES, BEAU SEJOUR 1,Mallefille lane 1,72103
QUATRE BORNES, BEAU SEJOUR 1,Malefille lane 2,72103
QUATRE BORNES, BEAU SEJOUR 1,Sir V.Naz Ave (north) from Doyen to D'Epinay,72103
QUATRE BORNES, BEAU SEJOUR 1,Telfair Ave from Naz Ave to Mallefille,72103
QUATRE BORNES, BEAU SEJOUR 1,Draper Ave from Naz to Lapeyrouse,72103
QUATRE BORNES, BEAU SEJOUR 1,G.Ythier from Naz Ave to Malfille Ave,72103
QUATRE BORNES, BEAU SEJOUR 1,Rosy Lememe Home,72103
QUATRE BORNES, BEAU SEJOUR 1,Telfair Ave,72103
QUATRE BORNES, BEAU SEJOUR 1,Sir V.Naz Ave (north) from Lapeyrouse Ave to G.Ythier Ave,72103
QUATRE BORNES, BEAU SEJOUR 2,C.Antelme Ave from  Victoria to Hitchcock,72104
QUATRE BORNES, BEAU SEJOUR 2,Conte de Lisle Ave from Victoria to R.Ollier,72104
QUATRE BORNES, BEAU SEJOUR 2,Dr Ross Ave from Ollier to Naz,72104
QUATRE BORNES, BEAU SEJOUR 2,Gladstone Ave from Ollier to Hitchcock,72104
QUATRE BORNES, BEAU SEJOUR 2,Hitchcock Ave (east) from Victoria to R.Ollier Ave,72104
QUATRE BORNES, BEAU SEJOUR 2,Murray Ave from Naz to C. Antelme Ave,72104
QUATRE BORNES, BEAU SEJOUR 2,Naz Ave from Victoria to Hitchcock,72104
QUATRE BORNES, BEAU SEJOUR 2,Pavillon Sports Complex,72104
QUATRE BORNES, BEAU SEJOUR 2,R. Giraud Ave,72104
QUATRE BORNES, BEAU SEJOUR 2,Victoria Ave(west) from Hitchcock to Ollier Ave,72104
QUATRE BORNES, BELLE ROSE 4,Belle Rose RCA School,72208
QUATRE BORNES, BELLE ROSE 4,Broad Ave from Royal Rd to Colville Ave,72208
QUATRE BORNES, BELLE ROSE 4,Colville Ave (east) from Broad Ave to Decaen Ave,72208
QUATRE BORNES, BELLE ROSE 4,Guy Forget (B Rose Ave) from Royal to Colville,72208
QUATRE BORNES, BELLE ROSE 4,Harrow lane,72208
QUATRE BORNES, BELLE ROSE 4,Harry lane ,72208
QUATRE BORNES, BELLE ROSE 4,Jerningham Ave,72208
QUATRE BORNES, BELLE ROSE 4,Orphelinat Bon Secours,72208
QUATRE BORNES, BELLE ROSE 4,Royal Rd  from St Jean Church to Guy Forget Ave,72208
QUATRE BORNES, BELLE ROSE 4,St. Jean Church,72208
QUATRE BORNES, BELLE ROSE 4,St. Louis Ave ,72208
QUATRE BORNES, BELLE ROSE 5,Ave Belle Rose,72109
QUATRE BORNES, BELLE ROSE 5,Broad Ave from Surath Ave to Colville Ave,72109
QUATRE BORNES, BELLE ROSE 5,Colville Ave (west) from Broad Ave to Wilson Ave,72109
QUATRE BORNES, BELLE ROSE 5,De La Faye Streen,72109
QUATRE BORNES, BELLE ROSE 5,Domun lane,72109
QUATRE BORNES, BELLE ROSE 5,Doyen Ave (east) from Naz to Guy Forget,72109
QUATRE BORNES, BELLE ROSE 5,Draper Ave,72109
QUATRE BORNES, BELLE ROSE 5,Guy Forget (B Rose Ave) from Telfair Ave to Colville Ave,72109
QUATRE BORNES, BELLE ROSE 5,Guy Forget (northern side) from Telfair Ave to Doyen Ave,72109
QUATRE BORNES, BELLE ROSE 5,Mallefille Ave from Lapeyrouse Ave to Doyen Ave,72109
QUATRE BORNES, BELLE ROSE 5,St Jean Cemetary,72109
QUATRE BORNES, BELLE ROSE 5,Poivre St,72109
QUATRE BORNES, BELLE ROSE 5,Sir V.Naz Ave (south) from Lapeyrouse Ave to G.Ythier Ave,72109
QUATRE BORNES, BELLE ROSE 5,St Jean Ave (north) from Telfair Ave to St Jean Church,72109
QUATRE BORNES, BELLE ROSE 5,Telfair  Ave(east) from St Jean Ave to Guy Forget,72109
QUATRE BORNES, BELLE ROSE 5,Telfair Ave from Guy Forget to Mallefille,72109
QUATRE BORNES, BELLE ROSE 5,Wilson Ave from Lapeyrouse to Draper,72109
QUATRE BORNES, BOUNDARY,Boundary (south) from Boundary Lane to Farquhar,72310
QUATRE BORNES, BOUNDARY,Farquhar  Lane,72310
QUATRE BORNES, BOUNDARY,Farquhar Ave( east) from Boundary to Ollier,72310
QUATRE BORNES, BOUNDARY,Imp Ollier,72310
QUATRE BORNES, BOUNDARY,Ollier (north) from Stanley Ave to Farquhar,72310
QUATRE BORNES, CANDOS,Candos  Lane East,72211
QUATRE BORNES, CANDOS,Lall Bahadur Shastri (north),72211
QUATRE BORNES, CITE BASSIN,Apolonia Lane,72512
QUATRE BORNES, CITE BASSIN,Arobi Lane,72512
QUATRE BORNES, CITE BASSIN,Kumar Lane,72512
QUATRE BORNES, CITE BASSIN,Tiraka Lane,72512
QUATRE BORNES, CITE BEAU SEJOUR/Residence,Boundary (south) from R.E.Hart to Dawtall Lane,72313
QUATRE BORNES, CITE BEAU SEJOUR/Residence,Dawtall Lane (East) from Boundary to R.E.Hart Avenue,72313
QUATRE BORNES, CITE BEAU SEJOUR/Residence, R.E.Hart Avenue (north part) from Dawtall lane to Rev Lebrun,72313
QUATRE BORNES, CITE BEAU SEJOUR/Residence, Rev Lebrun (west0 from R.E.Hart to Boundary,72313
QUATRE BORNES, CITE BEAU SEJOUR/Residence,Crecelles,72313
QUATRE BORNES, CITE BEAU SEJOUR/Residence,Tourterelles,72313
QUATRE BORNES, CITE BEAU SEJOUR/Residence,Paille en queue,72313
QUATRE BORNES, CITE BEAU SEJOUR/Residence,Conde,72313
QUATRE BORNES, CITE BEAU SEJOUR/Residence,Cardinal,72313
QUATRE BORNES, CITE BEAU SEJOUR/Residence,Nelson Mandela,72313
QUATRE BORNES, CITE BEAU SEJOUR/Residence,R.E.Hart Lane,72313
QUATRE BORNES, CITE BEAU SEJOUR/Residence,Lebrun lane,72313
QUATRE BORNES, CITE CANDOS/Residence,Chaperon Ave,72314
QUATRE BORNES, CITE CANDOS/Residence,Colin Ave,72314
QUATRE BORNES, CITE CANDOS/Residence,H.Blood (south) from Kinstone to Royal Rd,72314
QUATRE BORNES, CITE CANDOS/Residence,Kingstone (east) from La Paix to  H. Blood,72314
QUATRE BORNES, CITE CANDOS/Residence,La Paix Ave from Royal Rd to Kingstone,72314
QUATRE BORNES, CITE CANDOS/Residence,Lavoipierre Ave,72314
QUATRE BORNES, CITE CANDOS/Residence,Mazery Ave,72314
QUATRE BORNES, CITE CANDOS/Residence,Royal Rd (west) from La Paix to H. Blood,72314
QUATRE BORNES, CITE KENNEDY/Residence,Concorde Ave,72515
QUATRE BORNES, CITE KENNEDY/Residence,Confiance Ave,72515
QUATRE BORNES, CITE KENNEDY/Residence,Dignite Ave,72515
QUATRE BORNES, CITE KENNEDY/Residence,Dr Iqbal Ave,72515
QUATRE BORNES, CITE KENNEDY/Residence,Dr Riviere Ave,72515
QUATRE BORNES, CITE KENNEDY/Residence,Dumas Ave,72515
QUATRE BORNES, CITE KENNEDY/Residence,Esperance  Ave,72515
QUATRE BORNES, CITE KENNEDY/Residence,Fraternite Ave (south) from Kingstone Ave to Seechurn Ave,72515
QUATRE BORNES, CITE KENNEDY/Residence,Gandhi Ave,72515
QUATRE BORNES, CITE KENNEDY/Residence,Independence Ave,72515
QUATRE BORNES, CITE KENNEDY/Residence,Kingstone Ave(west) from Fraternite Ave to La Paix Ave,72515
QUATRE BORNES, CITE KENNEDY/Residence,"L""Egalite Ave",72515
QUATRE BORNES, CITE KENNEDY/Residence,La paix Ave (north) from Kinstone Ave to Seechurn Ave,72515
QUATRE BORNES, CITE KENNEDY/Residence,L'Avenir Ave,72515
QUATRE BORNES, CITE KENNEDY/Residence,L'Union Ave,72515
QUATRE BORNES, CITE KENNEDY/Residence,Patrie Ave,72515
QUATRE BORNES, CITE KENNEDY/Residence,R.E.Hart Ave,72515
QUATRE BORNES, CITE KENNEDY/Residence,S.H.Blood Ave from Kingstone Ave to L'Esperance Ave,72515
QUATRE BORNES, CITE KENNEDY/Residence,Seechurn Ave (east) from Ave Fraternite to La paix Ave,72515
QUATRE BORNES, CITE KENNEDY/Residence,Tolerance Ave,72515
QUATRE BORNES, CITE KENNEDY/Residence,Travail Ave,72515
QUATRE BORNES, CITE PERE LAVAL,Anime Ave,72317
QUATRE BORNES, CITE PERE LAVAL,Rajkumar Ave,72317
QUATRE BORNES, CITE PERE LAVAL,G. Rozemont Ave,72317
QUATRE BORNES, CITE PERE LAVAL,Rev Lebrun Lane (east side),72317
QUATRE BORNES, CITE PERE LAVAL,Boundary (south) from Farquhar to Rev Lebrun,72317
QUATRE BORNES, CITE SAINT JEAN,Avenue des Azalees (east part) from Ave Talipots to St Jean Rd,72218
QUATRE BORNES, CITE SAINT JEAN,Ave Talipots (north) From Azalees to Tulipes,72218
QUATRE BORNES, CITE SAINT JEAN,Saint Jean Rd (south) from Tulipes to Azalees,72218
QUATRE BORNES, CITE SAINT JEAN,Avenue des Tulipes (west part) from Ave Talipots to St Jean Rd,72218
QUATRE BORNES, DREAMTON PARK,,72219
QUATRE BORNES, EBENE VIEWS (after river inc baden powell house),,72231
QUATRE BORNES, EMERALD PARK (Residence),,72222
QUATRE BORNES, EMERALD PARK CENTRE,,72262
QUATRE BORNES, JACKSON  AVE,Jasmin lane,72523
QUATRE BORNES, JACKSON  AVE,Kalimaye lane (east) from Nehru to Chemin Machine,72523
QUATRE BORNES, JACKSON  AVE,Karooa Avenue,72523
QUATRE BORNES, JACKSON  AVE,Koosseeal lane,72523
QUATRE BORNES, JACKSON  AVE,Kowlessur lane,72523
QUATRE BORNES, JACKSON  AVE,Lotus lane ,72523
QUATRE BORNES, JACKSON  AVE,Manick lane ,72523
QUATRE BORNES, JACKSON  AVE,Mere Theresa Ave,72523
QUATRE BORNES, JACKSON  AVE,Naiko lane ,72523
QUATRE BORNES, JACKSON  AVE,Nehru Rd (both sides from Kingstone to Kalimaye Rd),72523
QUATRE BORNES, JACKSON  AVE,Nehru Rd (north side from Kingstone to Western Boundary),72523
QUATRE BORNES, LA COLLINE COMMERCIAL CENTRE,,72224
QUATRE BORNES, LA FERME Ave,,72425
QUATRE BORNES, LA LOUISE,Western Boundary (east) from Nehru Rd to Northern Boundary,72326
QUATRE BORNES, LA LOUISE,Northern Boundary (south) ,72326
QUATRE BORNES, LA LOUISE,Berthaud (west) from Northern Boundary to La Croisee La Louise,72326
QUATRE BORNES, LA LOUISE,St Jean (south) from La Croisee La Louise to Bigaignon,72326
QUATRE BORNES, LA LOUISE,Wellington Ave (south) from Bigaignon to T D'Avice,72326
QUATRE BORNES, LA LOUISE,Tristan D'Avice(west) from Wellington to Cossigny,72326
QUATRE BORNES, LA LOUISE,Cossigny(north) from T.D'Avice to Candos Lane,72326
QUATRE BORNES, LA LOUISE,Candos lane (west) from Cossigny to S.S. Ramgoolam,72326
QUATRE BORNES, LA LOUISE,S.S. Ramgoolam (north) from Candos lane to Royal Rd,72326
QUATRE BORNES, LA LOUISE,Royal Rd (east) from S.S.Ramgoolam to Cossigny,72326
QUATRE BORNES, LA LOUISE,S.H.Blood (north) from Royal rd to Kingstone,72326
QUATRE BORNES, LA LOUISE,Kingstone (east) from H.Blood to Nehru,72326
QUATRE BORNES, LA LOUISE,Nehru Rd(south) from Kingstone to Western Boundary,72326
QUATRE BORNES, LA LOUISE,Nehru Rd(both sides) from Candos rd  to Western Boundary,72326
QUATRE BORNES, LA LOUISE,Pillay lane,72326
QUATRE BORNES, LA LOUISE,Liston Ave,72326
QUATRE BORNES, LA LOUISE,R.Rivet Ave ,72326
QUATRE BORNES, LA LOUISE,Beaugeard Ave,72326
QUATRE BORNES, LA LOUISE,Fraternite Ave from Kingstone to Royal Rd,72326
QUATRE BORNES, LA LOUISE,La Louise Ave,72326
QUATRE BORNES, LA LOUISE,Louis Nellan lane,72326
QUATRE BORNES, LA LOUISE,Royal Rd from H.Blood to Croisee La Louise,72326
QUATRE BORNES, LA SOURCE,Auchaybar Lane,72427
QUATRE BORNES, LA SOURCE,Bagonias lane,72427
QUATRE BORNES, LA SOURCE,Berthaud (west) from  North Boundary to Boundary Ave,72427
QUATRE BORNES, LA SOURCE,Carnation lane,72427
QUATRE BORNES, LA SOURCE,Cremation Lane (from Cremation Ave to Puspass,72427
QUATRE BORNES, LA SOURCE,Dansant Lane,72427
QUATRE BORNES, LA SOURCE,Filao Lane,72427
QUATRE BORNES, LA SOURCE,Gangama Lane ,72427
QUATRE BORNES, LA SOURCE,Gopal Lane,72427
QUATRE BORNES, LA SOURCE,Grassy Lane,72427
QUATRE BORNES, LA SOURCE,Imp. Cocotier,72427
QUATRE BORNES, LA SOURCE,Imp. Fuguier,72427
QUATRE BORNES, LA SOURCE,Imp. Hibiscus,72427
Poste de Flacq,Bras d'Eau,,41501
Poste de Flacq,Camp Accacia,,41502
Poste de Flacq,Camp Poorun,,41503
Poste de Flacq,Camp Raffia,,41504
Poste de Flacq,Choisy,,41506
Poste de Flacq,Cite Perdu,,41505
Poste de Flacq,Cremation,,41507
Poste de Flacq,Debarcadere,,41508
Poste de Flacq,Jardin,,41509
Poste de Flacq,Kashinath,,41510
Poste de Flacq,La Pointe,,41511
Poste de Flacq,La Porte,,41512
Poste de Flacq,Morc Constance,,41513
Poste de Flacq,Morc Janoo,,41514
Poste de Flacq,Morc Monet,,41515
Poste de Flacq,Morc Providence,,41516
Poste de Flacq,One and only (st Geran Hotel),,41521
Poste de Flacq,Pont Blanc,,41517
Poste de Flacq,Poste de Flacq,,41518
Poste de Flacq,Poste Lafayette,,41519
Poste de Flacq,Railway,,41520
QUATRE BORNES, LA SOURCE,Jaylall Avenue,72427
QUATRE BORNES, LA SOURCE,Kalimaye lane,72427
QUATRE BORNES, LA SOURCE,La Source Ave,72427
QUATRE BORNES, LA SOURCE,Lilloo lane,72427
QUATRE BORNES, LA SOURCE,Morc. Coombes,72427
QUATRE BORNES, LA SOURCE,Morc. Coombes,72427
QUATRE BORNES, LA SOURCE,Northern Boundary Rd(west) From Murugan to Berthaud,72427
QUATRE BORNES, LA SOURCE,Orange Lane,72427
QUATRE BORNES, LA SOURCE,Palma Rd (north) from West Boundary to Seeneevassen,72427
QUATRE BORNES, LA SOURCE,Puspass  Lane,72427
QUATRE BORNES, LA SOURCE,Puspass Ave,72427
QUATRE BORNES, LA SOURCE,Rajcoomar Ave,72427
QUATRE BORNES, LA SOURCE,Rotin lane,72427
QUATRE BORNES, LA SOURCE,Rotin lane 2,72427
QUATRE BORNES, LA SOURCE,Rotin lane 3,72427
QUATRE BORNES, LA SOURCE,S. V. Murugan Ave from Northern Boundary to Seeneevassen,72427
QUATRE BORNES, LA SOURCE,S.V.Murugan Ave(west) from Palma Rd to Northern Boundary,72427
QUATRE BORNES, LA SOURCE,Selvin Lane ,72427
QUATRE BORNES, LA SOURCE,Temple Lane( C D Garde Lane),72427
QUATRE BORNES, LA SOURCE,Western Boundary,72427
QUATRE BORNES, LE MERIT (delivery by Phoenix P.O),,72228
QUATRE BORNES, LE MERIT 2 (near Pellegrin),,72263
QUATRE BORNES, LES HALLES,,72264
QUATRE BORNES, MORC  RIVERSIDE,,72537
QUATRE BORNES, MORC CERISIER,,72529
QUATRE BORNES, MORC DOOKUN 1 ( Mun of Q.Bornes),,72530
QUATRE BORNES, MORC DOOKUN 2 (Mun of Vac/Phoenix,,73361
QUATRE BORNES, MORC MEDINE,,72533
QUATRE BORNES, MORC NUCKCHEDDY,,72534
QUATRE BORNES, MORC PIERREFONDS,,72435
QUATRE BORNES, MORC POONITH,,72436
QUATRE BORNES, MORC SAINT JEAN,Avenue des Azalees,72238
QUATRE BORNES, MORC SAINT JEAN,Avenue des Capucines,72238
QUATRE BORNES, MORC SAINT JEAN,Avenue des Girofliers,72238
QUATRE BORNES, MORC SAINT JEAN,Avenue des Glaieuls,72238
QUATRE BORNES, MORC SAINT JEAN,Avenue des Goyaviers,72238
QUATRE BORNES, MORC SAINT JEAN,Avenue des Jacarandas,72238
QUATRE BORNES, MORC SAINT JEAN,Avenue des Lataniers,72238
QUATRE BORNES, MORC SAINT JEAN,Avenue des Longaniers,72238
QUATRE BORNES, MORC SAINT JEAN,Avenue des Manguiers,72238
QUATRE BORNES, MORC SAINT JEAN,Avenue des Orchidees,72238
QUATRE BORNES, MORC SAINT JEAN,Avenue des Palmiers,72238
QUATRE BORNES, MORC SAINT JEAN,Avenue des Rosiers,72238
QUATRE BORNES, MORC SAINT JEAN,Avenue des Talipots,72238
QUATRE BORNES, MORC SAINT JEAN,Avenue des Tulipes,72238
QUATRE BORNES, MORC SAINT JEAN,Belcourt Avenue,72238
QUATRE BORNES, MORC SAINT JEAN,Dr. Delaitre Avenue,72238
QUATRE BORNES, MORC SAINT JEAN,Jacinthes Avenue,72238
QUATRE BORNES, MORC SAINT JEAN,St Jean Rd (south) from Tulipes to Girofliers,72238
QUATRE BORNES, MORC SAINT JEAN,S. Seewoosagur Ramgoolam Ave(both sides) from Newton to Trunk Rd,72238
QUATRE BORNES, MORC SAINT JEAN,Trianon Avenue No. 1,72238
QUATRE BORNES, MORC SAINT JEAN,Trianon Avenue No. 2,72238
QUATRE BORNES, MORC SAINT JEAN,Ylang Ylang Avenue,72238
QUATRE BORNES, N H D C  VILLENEUVE,,72241
QUATRE BORNES, N H D C PALM,,72440
QUATRE BORNES, NEHRU ROAD (from Kingstone Ave  to Kalimaye Rd),,72539
QUATRE BORNES, ORCHARD CENTRE,,72242
QUATRE BORNES, ORCHARD TOWER,,72243
QUATRE BORNES, PAILLOTTE (East),Bambous  RD,73452
QUATRE BORNES, PAILLOTTE (East),Bandhoo Rd,73452
QUATRE BORNES, PAILLOTTE (East),Boojhoo Rd,73452
QUATRE BORNES, PAILLOTTE (East),Cypres lane 1,73452
QUATRE BORNES, PAILLOTTE (East),Cypres lane 2,73452
QUATRE BORNES, PAILLOTTE (East),Lall Bahadur Shastri (southern side),73452
QUATRE BORNES, PAILLOTTE (East),Ramburrun Lane,73452
QUATRE BORNES, PAILLOTTE (East),Royal Rd (eastern side) frm Shastri Rd to Sonie Rd,73452
QUATRE BORNES, PAILLOTTE (East),Sumoondar Rd,73452
QUATRE BORNES, PAILLOTTE (East),Sumputh Rd,73452
QUATRE BORNES, PAILLOTTE (West),Augum lane,73360
QUATRE BORNES, PAILLOTTE (West),Callychurn Lane,73360
QUATRE BORNES, PAILLOTTE (West),Candos Lane West,73360
QUATRE BORNES, PAILLOTTE (West),Dawoo Lane,73360
QUATRE BORNES, PAILLOTTE (West),Jugnoo lane,73360
QUATRE BORNES, PAILLOTTE (West),Kalimaye lane,73360
QUATRE BORNES, PAILLOTTE (West),Ragoo Lane upto Verna Lane,73360
QUATRE BORNES, PAILLOTTE (West),Ramdhonee Lane,73360
QUATRE BORNES, PAILLOTTE (West),Royal Rd (western side) from Candos Lane west to  Vostok ,73360
QUATRE BORNES, PAILLOTTE (West),Soobul Lane,73360
QUATRE BORNES, PALMA 1,Bissessur Ave,72444
QUATRE BORNES, PALMA 1,Canal Ave,72444
QUATRE BORNES, PALMA 1,Charlie Ave,72444
QUATRE BORNES, PALMA 1,Cremation Avenue (whole),72444
QUATRE BORNES, PALMA 1,Cremation lane (from cremation Ave to Palma Rd),72444
QUATRE BORNES, PALMA 1,Eucalyptus lane,72444
QUATRE BORNES, PALMA 1,Gangadar Ave,72444
QUATRE BORNES, PALMA 1,Laseringue Avenue (eastern side),72444
QUATRE BORNES, PALMA 1,M. Beekharry lane,72444
QUATRE BORNES, PALMA 1,Palma Rd(south) from Cremation Ave to Round About,72444
QUATRE BORNES, PALMA 1,Pandeea lane,72444
QUATRE BORNES, PALMA 1,R. Rughooputh Ave,72444
QUATRE BORNES, PALMA 1,Sowamber Ave,72444
QUATRE BORNES, PALMA 2 ,J. Nehru (north) from Kalimaye Rd to Riviere Papayes,72445
QUATRE BORNES, PALMA 2 ,Kalimaye Rd (west) from J.Nehru to Chemin Machine,72445
QUATRE BORNES, PALMA 2 ,Chemin Machine (north) from kalimaye Rd to Palma Rd,72445
QUATRE BORNES, PALMA 2 ,Palma Rd (south) from Chemin Machne to Pierrefonds Round about,72445
QUATRE BORNES, PALMA 2 ,Jeewoonarain Avenue,72445
QUATRE BORNES, PALMA 2 ,Jugnauth Lane,72445
QUATRE BORNES, PALMA 2 ,St Brigitte Avenue,72445
QUATRE BORNES, PALMA 2 ,St Brigitte  Church,72445
QUATRE BORNES, PALMA 2 ,Cheshire Home,72445
Queen Victoria ,Bonne Mere,,42701
Queen Victoria ,Camp Bonne Mere,,42702
Queen Victoria ,NHDC B Mere,,42703
Queen Victoria ,Queen Victoria ,,42704
QUATRE BORNES, PALMA 2 ,Lawat lane,72445
QUATRE BORNES, PALMA JUNCTION,Hospital Rd (west side from La Paix to West Lane Candos),72546
QUATRE BORNES, PALMA JUNCTION,Kingstone (west) from La Paix to Nehru,72546
QUATRE BORNES, PALMA JUNCTION,Palma Rd (south) from Western Boundary to Chemin Machine,72546
QUATRE BORNES, PALMA JUNCTION,Seechurn Ave ,72546
QUATRE BORNES, PALMA JUNCTION,Seetloo Ave,72546
QUATRE BORNES, PALMA JUNCTION,Shakti lane ,72546
QUATRE BORNES, PALMA JUNCTION,,72546
QUATRE BORNES, PALMA JUNCTION,Toolsee lane,72546
QUATRE BORNES, PELLEGRIN,,72247
QUATRE BORNES, PIERREFONDS,,72248
QUATRE BORNES, QUATRE BORNES 1          ,Telfair Ave(west side) from St. Jean Road  to Forget Ave ,72249
QUATRE BORNES, QUATRE BORNES 1,St. Jean Rd(north side) from Telfair st to Victoria Ave ,72249
QUATRE BORNES, QUATRE BORNES 1,Forget Rd Southern side from Telfair st to Buswell st.,72249
QUATRE BORNES, QUATRE BORNES 1,Doyen Ave(west side) from Forget to V. Naaz ,72249
QUATRE BORNES, QUATRE BORNES 1,Victoria Ave(east side) from V. Naaz to St. Jean Rd ,72249
QUATRE BORNES, QUATRE BORNES 1,Bus Terminal,72249
QUATRE BORNES, QUATRE BORNES 1,Buswell Ave,72249
QUATRE BORNES, QUATRE BORNES 1,C. Dunant Ave,72249
QUATRE BORNES, QUATRE BORNES 1,C. Hall Ave,72249
QUATRE BORNES, QUATRE BORNES 1,Commerson Ave,72249
QUATRE BORNES, QUATRE BORNES 1,D'Epinay Ave,72249
QUATRE BORNES, QUATRE BORNES 1,D'Hotman Ave,72249
QUATRE BORNES, QUATRE BORNES 1,Fareed Ave,72249
QUATRE BORNES, QUATRE BORNES 1,Gaetan Raynal S.S.S,72249
QUATRE BORNES, QUATRE BORNES 1,Henessy Ave,72249
QUATRE BORNES, QUATRE BORNES 1,Henessy lane,72249
QUATRE BORNES, QUATRE BORNES 1,Osman Ave,72249
QUATRE BORNES, QUATRE BORNES 1,P. Henri Ave,72249
QUATRE BORNES, QUATRE BORNES 1,Post-Office,72249
QUATRE BORNES, QUATRE BORNES 1,Tagore Ave,72249
QUATRE BORNES, QUATRE BORNES 1,Town Hall,72249
QUATRE BORNES, QUATRE BORNES 2                    ,Baissac Ave,72350
QUATRE BORNES, QUATRE BORNES 2,Bernandin De St. Pierre ,72350
QUATRE BORNES, QUATRE BORNES 2,Berthaud (east) from St Jean Rd to S.V.Naz,72350
QUATRE BORNES, QUATRE BORNES 2,Berthaud lane,72350
QUATRE BORNES, QUATRE BORNES 2,Bouvet Ave,72350
QUATRE BORNES, QUATRE BORNES 2,Bruce Ave,72350
QUATRE BORNES, QUATRE BORNES 2,Conservatoire F. Mitterand,72350
QUATRE BORNES, QUATRE BORNES 2,Darwin Ave,72350
QUATRE BORNES, QUATRE BORNES 2,Duperre Ave,72350
QUATRE BORNES, QUATRE BORNES 2,Ernest Harel St,72350
QUATRE BORNES, QUATRE BORNES 2,Fleming Ave,72350
QUATRE BORNES, QUATRE BORNES 2,Farquhar Ave  from Victoria to Naz,72350
QUATRE BORNES, QUATRE BORNES 2,Gladstone Ave(from  StanleyAve to Hitchcock Ave,72350
QUATRE BORNES, QUATRE BORNES 2, Hitchcock (west) from Victoria to S.V.Naz,72350
QUATRE BORNES, QUATRE BORNES 2,Imp. Kistnen ,72350
QUATRE BORNES, QUATRE BORNES 2,Imp. Victoria,72350
QUATRE BORNES, QUATRE BORNES 2, Labourdonnais Ave,72350
QUATRE BORNES, QUATRE BORNES 2,L. Nellan Govt. School,72350
QUATRE BORNES, QUATRE BORNES 2,L.L'homme Ave,72350
QUATRE BORNES, QUATRE BORNES 2,La Forge lane,72350
QUATRE BORNES, QUATRE BORNES 2,Loreto Convent College,72350
QUATRE BORNES, QUATRE BORNES 2,Odette Ernest Ave,72350
QUATRE BORNES, QUATRE BORNES 2,Seeboo lane,72350
QUATRE BORNES, QUATRE BORNES 2,Mgr Murphy Ave,72350
QUATRE BORNES, QUATRE BORNES 2,Sir  Guy Forget from B.D.St Pierre Ave to Victoria Ave,72350
QUATRE BORNES, QUATRE BORNES 2,Sir Naz Ave (south) Side from Hitchcock to Berthaud,72350
QUATRE BORNES, QUATRE BORNES 2,Stanley Ave,72350
Poudre D'Or Hamlet,Forbach Branch,,31001
Poudre D'Or Hamlet,Morc VRS A,,31002
Poudre D'Or Hamlet,Morc VRS B,,31003
Poudre D'Or Hamlet,Morc VRS C,,31004
Poudre D'Or Hamlet,Morc VRS D,,31005
Poudre D'Or Hamlet,Poudre D'Or Hamlet,,31006
QUATRE BORNES, QUATRE BORNES 2,Stanley lane,72350
QUATRE BORNES, QUATRE BORNES 2,ST. Andrews Church,72350
QUATRE BORNES, QUATRE BORNES 2,St. Esprit  College,72350
QUATRE BORNES, QUATRE BORNES 2,St. Jean Rd (North Side)Victoria  to Berthaud Ave,72350
QUATRE BORNES, QUATRE BORNES 2,St. Rosaire Church,72350
QUATRE BORNES, QUATRE BORNES 2,Stevenson Ave,72350
QUATRE BORNES, QUATRE BORNES 2,Surcouf Ave,72350
QUATRE BORNES, QUATRE BORNES 2,Tee Koung Lane,72350
QUATRE BORNES, QUATRE BORNES 2,Victoria (west side) from St Jean to Hitchcock,72350
QUATRE BORNES, QUATRE BORNES 2,Willoughby Ave,72350
QUATRE BORNES, QUATRE BORNES 3,A. Brown Ave,72351
QUATRE BORNES, QUATRE BORNES 3,Balgobin Ave,72351
QUATRE BORNES, QUATRE BORNES 3,Berthaud Ave (East) from Remy Ollier to Naz,72351
QUATRE BORNES, QUATRE BORNES 3,Duperre Ave,72351
QUATRE BORNES, QUATRE BORNES 3,Einstein Ave,72351
QUATRE BORNES, QUATRE BORNES 3,Farquhar Ave from Naz to Ollier,72351
QUATRE BORNES, QUATRE BORNES 3,Hitchcock Ave(west) from Ollier to Naz,72351
QUATRE BORNES, QUATRE BORNES 3,Imp St Esprit,72351
QUATRE BORNES, QUATRE BORNES 3,Imp.Antelme,72351
QUATRE BORNES, QUATRE BORNES 3,Jenner St,72351
QUATRE BORNES, QUATRE BORNES 3,Leclezio Ave,72351
QUATRE BORNES, QUATRE BORNES 3,Louvet Ave,72351
QUATRE BORNES, QUATRE BORNES 3,Moussa Lane,72351
QUATRE BORNES, QUATRE BORNES 3,Ollier Ave (south) from Berthaud Ave to Hitchcock,72351
QUATRE BORNES, QUATRE BORNES 3,Ollier Lane ,72351
QUATRE BORNES, QUATRE BORNES 3,Ollier lane no.1,72351
QUATRE BORNES, QUATRE BORNES 3,Ollier lane no.2,72351
QUATRE BORNES, QUATRE BORNES 3,R. Ollier Ave,72351
QUATRE BORNES, QUATRE BORNES 3,S. Gaya Ave,72351
QUATRE BORNES, QUATRE BORNES 3,Sir C. Antelme Ave,72351
QUATRE BORNES, QUATRE BORNES 3,Sir V vaz (north) from Berthaud to Hitchcock,72351
QUATRE BORNES, QUATRE BORNES 3,Stanley Ave,72351
QUATRE BORNES, QUATRE BORNES 3,Stanley Ave from Naz to Ollier,72351
QUATRE BORNES, QUATRE BORNES 3,Stylet Ave,72351
QUATRE BORNES, QUATRE BORNES 4,Boundary (south) from Berthaud to Dawtal Lane,72352
QUATRE BORNES, QUATRE BORNES 4,Berthaud Ave (east) from Ollier to Boundary,72352
QUATRE BORNES, QUATRE BORNES 4,Boundary Rd,72352
QUATRE BORNES, QUATRE BORNES 4,Dawtal lane,72352
QUATRE BORNES, QUATRE BORNES 4,Farquhar lane,72352
QUATRE BORNES, QUATRE BORNES 4,Robert E Hart from Dawtal Lane to Berthaud,72352
QUATRE BORNES, QUATRE BORNES 5,B. Sequard Ave,72253
QUATRE BORNES, QUATRE BORNES 5,Candos lane,72253
QUATRE BORNES, QUATRE BORNES 5,Cossigny Ave,72253
QUATRE BORNES, QUATRE BORNES 5,E. Rochecouste Govt. School,72253
QUATRE BORNES, QUATRE BORNES 5,Malartic lane,72253
QUATRE BORNES, QUATRE BORNES 5,Meredac Ave,72253
QUATRE BORNES, QUATRE BORNES 5,Police Station,72253
QUATRE BORNES, QUATRE BORNES 5,Ramsamy lane,72253
QUATRE BORNES, QUATRE BORNES 5,Reservoir lane,72253
QUATRE BORNES, QUATRE BORNES 5,Sir S. Ramgoolam Ave (both sides) ,72253
QUATRE BORNES, QUATRE BORNES 5,Sir W. Newton Ave,72253
QUATRE BORNES, QUATRE BORNES 5,T. D'Avice Ave,72253
Pointe aux Sables,Camp Firinga,  ,11101
Pointe aux Sables,Cite Blanc ( Padco ),,11102
Pointe aux Sables,Cite C.H.A/Cite Debarcadere,,11103
Pointe aux Sables,Cite Ilois Phase I & phase II,,11104
Pointe aux Sables,Cite La Lumiere,,11106
Pointe aux Sables,Cite Lateka,,11105
Pointe aux Sables,Kensington,,11107
Pointe aux Sables,La Tour Koenig Industrial Zone,,11109
Pointe aux Sables,La Tour Koenig Phase I & Phase 2,,11108
Pointe aux Sables,Marguerite Phase 1,,11110
Pointe aux Sables,Morcellement D'Hotman,,11111
Pointe aux Sables,Morcellement Fon Sing,,11112
Pointe aux Sables,Morcellement Fortune,,11113
Pointe aux Sables,Morcellement Ghurburrun,,11122
Pointe aux Sables,Morcellement Ghurburrun Ph 1 Brunes Pailles Phase 2,,11114
Pointe aux Sables,Morcellement Ibrahim Dawood,,11115
Pointe aux Sables,Morcellement Ilois   Phase 1 & Phase 2,,11116
Pointe aux Sables,Morcellement Koenig/sur mer,,11117
Pointe aux Sables,Morcellement Le Prinmtemps,,11118
Pointe aux Sables,Morcellement Le Vieux,,11119
Pointe aux Sables,Morcellement Nazroo Phase 1 & Phase 2,,11120
Pointe aux Sables,Morcellement Rey,,11121
Pointe aux Sables,Morcellement S.L.D.C,,11123
Pointe aux Sables,Morcellement Sohun,,11124
Pointe aux Sables,Morcellement Soobra Phase 1 & Phase 2,,11125
Pointe aux Sables,Morcellement Verger Le Bain,,11127
Pointe aux Sables,Morcellement Verger Mangue,,11126
Pointe aux Sables,Morcellement Verger Sur Mer,,11128
Pointe aux Sables,Pointe aux Sables,,11129
Pointe aux Sables,Police Flat,,11130
Pointe aux Sables,Residence Coquillage,,11131
Pointe aux Sables,Residence La Tourelle 1 & 2,,11132
Pointe aux Sables,Terrasson 1,,11133
Pointe aux Sables,U.T.M,,11134
Pointe aux Sables,Verger Mangue,,11135
QUATRE BORNES, QUATRE BORNES 5,Tritan D'Avice Ave,72253
QUATRE BORNES, QUATRE BORNES 5,Wellington Ave,72253
QUATRE BORNES, RESIDENCE D'EPINAY,,72254
QUATRE BORNES,BASSIN/ PALMA,Appadoo Avenue,72501
QUATRE BORNES,BASSIN/ PALMA,Appadoo lane,72501
QUATRE BORNES,BASSIN/ PALMA,Appadoo lane 1,72501
QUATRE BORNES,BASSIN/ PALMA,Ave Des Roches,72501
QUATRE BORNES,BASSIN/ PALMA,Ave Trotter,72501
QUATRE BORNES,BASSIN/ PALMA,Bapamah lane,72501
QUATRE BORNES,BASSIN/ PALMA,Bassin Rd,72501
QUATRE BORNES,BASSIN/ PALMA,Bassin lane 1,72501
QUATRE BORNES,BASSIN/ PALMA,Casquette lane,72501
QUATRE BORNES,BASSIN/ PALMA,Chooroomoonee lane,72501
QUATRE BORNES,BASSIN/ PALMA,Cooperative lane,72501
QUATRE BORNES,BASSIN/ PALMA,La Paix Ave,72501
QUATRE BORNES,BASSIN/ PALMA,Felico  lane,72501
QUATRE BORNES,BASSIN/ PALMA,Forges Ave,72501
QUATRE BORNES,BASSIN/ PALMA,Fraternite Ave,72501
QUATRE BORNES,FLAT RIVER ISLANDS,,72265
QUATRE BORNES,JACKSON  AVE,Ramdanee Ave,72523
QUATRE BORNES,JACKSON  AVE,Chemin Machine (south) from Palma Rd  to Kalimaye Rd,72523
QUATRE BORNES,MORC MIO,,72560
QUATRE BORNES,PALMA JUNCTION,Sambal Lane,72546
QUATRE BORNES,RENGANADEN SEENEEVASSSEN AVE,,72455
QUATRE BORNES,RESIDENCE TRIANON (delivery by Phoenix P.O),,72260
QUATRE BORNES,SODNAC ,Ave  des Fauvettes,72256
QUATRE BORNES,SODNAC ,Ave  des Tourterelles,72256
QUATRE BORNES,SODNAC ,Ave des  Pelicans,72256
QUATRE BORNES,SODNAC ,Ave des Aigles,72256
QUATRE BORNES,SODNAC ,Ave des Allouettes,72256
QUATRE BORNES,SODNAC ,Ave des Autruches,72256
QUATRE BORNES,SODNAC ,Ave des Becasses,72256
QUATRE BORNES,SODNAC ,Ave des Bengalis,72256
QUATRE BORNES,SODNAC ,Ave des Canards,72256
QUATRE BORNES,SODNAC ,Ave des Colombes,72256
QUATRE BORNES,SODNAC ,Ave des Eperviers,72256
QUATRE BORNES,SODNAC ,Ave des Flammants,72256
QUATRE BORNES,SODNAC ,Ave des Geais,72256
QUATRE BORNES,SODNAC ,Ave des Hirondelles,72256
QUATRE BORNES,SODNAC ,Ave des Ibis,72256
QUATRE BORNES,SODNAC ,Ave des Kiwis,72256
QUATRE BORNES,SODNAC ,Ave des Moineaux,72256
QUATRE BORNES,SODNAC ,Ave des Mouettes,72256
QUATRE BORNES,SODNAC ,Ave des Nandous,72256
QUATRE BORNES,SODNAC ,Ave des Pigeons,72256
QUATRE BORNES,SODNAC ,Ave des Pinsons,72256
QUATRE BORNES,SODNAC ,Ave des Roitelets ,72256
QUATRE BORNES,SODNAC ,Ave des Tulipes,72256
QUATRE BORNES,SODNAC ,Ave  du Cardinal,72256
QUATRE BORNES,SODNAC ,Hillcrest Avenue,72256
QUATRE BORNES,SODNAC ,Impasse des Ibis,72256
QUATRE BORNES,SODNAC ,Impasse Hirondelles,72256
QUATRE BORNES,SODNAC ,Loriots Ave,72256
QUATRE BORNES,SODNAC ,Perdrix Ave,72256
QUATRE BORNES,SODNAC ,Roitelets Ave,72256
QUATRE BORNES,SODNAC ,Rossignol Ave,72256
QUATRE BORNES,SODNAC ,Sodnac Ave (both sides),72256
QUATRE BORNES,SODNAC ,Sodnac SSS,72256
QUATRE BORNES,SODNAC ,Toucan Ave,72256
QUATRE BORNES,SODNAC ,Ave  des Dodos,72256
QUATRE BORNES,SODNAC ,Ave  des Faucons,72256
QUATRE BORNES,TRIANON,,72257
QUATRE BORNES,TRIANON SHOPPING CENTRE,,72258
QUATRE BORNES,Tribeca Central Trianon,,72261
QUATRE BORNES,VICTORIA HOSPITAL,,72259
Poudre D'Or Village,Bois Doiseau,,30901
Poudre D'Or Village,Cite EDC ,,30902
Poudre D'Or Village,Debarcadere,,30903
Poudre D'Or Village,Ile Dambre,,30904
Poudre D'Or Village,Poudre D'Or Village,,30905
Pointe aux Piments,Camp Lilas,,21301
Pointe aux Piments,Camp Sada,,21302
Pointe aux Piments,Camp Scipion,,21303
Pointe aux Piments,Grande Pointe aux Piments,,21304
Pointe aux Piments,Morc Brizmohun,,21305
Pointe aux Piments,Petite Pointe aux Piments,,21306
PORT LOUIS,Anse Courtois,Trunk Rd from Pailles Junction to Ring Rd,11201
PORT LOUIS,Anse Courtois,Southern part of Junction Rd,11201
PORT LOUIS,Bain des Dames,Bain des Dames Coast Road,11301
PORT LOUIS,Bain des Dames,Bain des Dames Street,11301
PORT LOUIS,Bain des Dames,Boodhun Street,11301
PORT LOUIS,Bain des Dames,Charron Street,11301
PORT LOUIS,Bain des Dames,Edwards Street,11301
PORT LOUIS,Bain des Dames,Fook Seung Road,11301
PORT LOUIS,Bain des Dames,Galdemar Street,11301
PORT LOUIS,Bain des Dames,Gregoire Street,11301
PORT LOUIS,Bain des Dames,Jacobs Street,11301
PORT LOUIS,Bain des Dames,L.A. Hugues Street,11301
PORT LOUIS,Bain des Dames,N. Osman Street,11301
PORT LOUIS,Bain des Dames,Nathaniel Street,11301
PORT LOUIS,Bain des Dames,Pezanie Street,11301
PORT LOUIS,Bain des Dames,Stevenson Lane,11301
PORT LOUIS,Bain des Dames,W. Hewitson Street,11301
PORT LOUIS,Bangladesh,Craston Martin Street ,11401
PORT LOUIS,Bangladesh, Ernest Le Blanc Street ,11401
PORT LOUIS,Bangladesh, Hesketch Bell Street,11401
PORT LOUIS,Bangladesh, Jules Mallac Street ,11401
PORT LOUIS,Bangladesh,  Pouce Street ,11401
PORT LOUIS,Barracks Region,Auguste Rouget from Mere Barthelemy to Jemmapes Street,11302
PORT LOUIS,Barracks Region,Barracks Street,11302
PORT LOUIS,Barracks Region,Bolton Street,11302
PORT LOUIS,Barracks Region,Brown Sequard Street,11302
PORT LOUIS,Barracks Region,Brown Sequard Street,11302
PORT LOUIS,Barracks Region,ChaussÃ©e Street from Ruisseau Pouce to Edith Cavell Street,11302
PORT LOUIS,Barracks Region,Chevrot Street,11302
PORT LOUIS,Barracks Region,Edith Cavell Street from Mere Barthelemy Street to John Kennedy Street,11302
PORT LOUIS,Barracks Region,John Kennedy Street from Jemmapes  to Edith Cavell Street (Eastern Side),11302
PORT LOUIS,Barracks Region,John Kennedy Street from Ruisseau Pouce to Edith Cavell Street,11302
PORT LOUIS,Barracks Region,La GaietÃ© Street from Orleans Street to Beaugeard Street,11302
PORT LOUIS,Barracks Region,Orleans Street,11302
PORT LOUIS,Barracks Region,Reverand Lebrun Street,11302
PORT LOUIS,Barracks Region,Sir Celicourt Antelme Street,11302
PORT LOUIS,Barracks Region,St Georges Street from Mere Barthelemy Street to Barracks Street,11302
PORT LOUIS,Barracks Region,St Louis Street from Mere Barthelemy Street to Barracks,11302
PORT LOUIS,Bell Village,Brabant Road South from Menagerie Street to Paul Fercy Adele Street,11202
PORT LOUIS,Bell Village,Eastern Side of Trunk Road from Royal Road to Kiosque,11202
PORT LOUIS,Bell Village,From Kiosque to Paul Fercy Adele,11202
PORT LOUIS,Bell Village,Lime Street,11202
PORT LOUIS,Bell Village,Link Road,11202
PORT LOUIS,Bell Village,Menagerie Road Southern Side from Brabant Street to St Joseph Road,11202
PORT LOUIS,Bell Village,MGR Leen from Kiosque to Post Office,11202
PORT LOUIS,Bell Village,Old Moka Road upto entry of CWA,11202
PORT LOUIS,Bell Village,Paul Fercy Adele Street,11202
PORT LOUIS,Bell Village,Port Louis St Jean Road North from St Joseph to Menagerie Street,11202
PORT LOUIS,Bell Village,St Joseph East,11202
PORT LOUIS,Bell Village,St Patrick Street,11202
PORT LOUIS,Blvd Victoria 1 ,  Blvd Pitot St from Blvd Victoria to China Street ,11402
PORT LOUIS,Blvd Victoria 1,  China / Diego garcia st from La Paix St to Edgard Laurent Street ,11402
PORT LOUIS,Blvd Victoria 1,  Daulphine St from La Paix St Etienne Pellereau Street ,11402
PORT LOUIS,Blvd Victoria 1,  Diore St from La Paix St to Edgard Laurent Street,11402
PORT LOUIS,Blvd Victoria 1,  Etienne Pellereau St from SSR St to Nyon Street ,11402
PORT LOUIS,Blvd Victoria 1,"  Lenepveu Lane 1, 2, 3",11402
PORT LOUIS,Blvd Victoria 1,  Lenepveu Street ,11402
PORT LOUIS,Blvd Victoria 1,  Nyon St from La Paix St to Edgard Laurent Street,11402
PORT LOUIS,Blvd Victoria 1,  S V Naz St from La Paix St to Sir Edgard Laurent Street ,11402
PORT LOUIS,Blvd Victoria 1,  St Aulaire Street,11402
PORT LOUIS,Blvd Victoria 1,Dr H. Joonya Street,11402
PORT LOUIS,Blvd Victoria 1,  Epidariste Trime  ( Nyon ) St from La Paix St to Edgard  Laurent Street ,11402
PORT LOUIS,Blvd Victoria 1, La Paix St Northward,11402
PORT LOUIS,Blvd Victoria 2 ,  Sun Yat Sen St from S.S Ramgoolam St to Dauphine Street ,11403
PORT LOUIS,Blvd Victoria 2 , China St from Inkerman St to La Paix Street ,11403
PORT LOUIS,Blvd Victoria 2 ,  Dauphine St from Mgr Gonin St to La Paix Street ,11403
PORT LOUIS,Blvd Victoria 2 , Dugarreau Street ,11403
PORT LOUIS,Blvd Victoria 2 , Guimbeau Street ,11403
PORT LOUIS,Blvd Victoria 2 ,  Hatch Street,11403
PORT LOUIS,Blvd Victoria 2 ,  Inkerman St from Blvd Victoria to Dauphine Street ,11403
PORT LOUIS,Blvd Victoria 2 ,  Lapoter Street ,11403
PORT LOUIS,Blvd Victoria 2 ,  Leclezio Street ,11403
PORT LOUIS,Blvd Victoria 2 ,  Nyon St from La Paix St to Inkerman Street ,11403
PORT LOUIS,Blvd Victoria 2 ,  Sir V.Naz St from Mgr Gonin St to La Paix Street ,11403
PORT LOUIS,Blvd Victoria 2 ,  Sornay Street ,11403
PORT LOUIS,Blvd Victoria 2 ,  St Aulaire St from La Paix St to Dugarreau Street ,11403
PORT LOUIS,Borstal,Borstal ,11203
PORT LOUIS,Borstal,Borstal Rehabilitation Centre ,11203
PORT LOUIS,Briquetterie,Abercrombie Avenue,11701
PORT LOUIS,Briquetterie,Abercrombie CHA,11701
PORT LOUIS,Briquetterie,Bois DorÃ©e Street,11701
PORT LOUIS,Briquetterie,Bois Savon Street,11701
PORT LOUIS,Briquetterie,Boisee Street,11701
PORT LOUIS,Briquetterie,Brandon Street,11701
PORT LOUIS,Briquetterie,Briquetterie CHA,11701
PORT LOUIS,Briquetterie,Briquetterie Street,11701
PORT LOUIS,Briquetterie,Corson Street,11701
PORT LOUIS,Briquetterie,Dauguet Street,11701
PORT LOUIS,Briquetterie,Dr. Maurice Cure Street,11701
PORT LOUIS,Briquetterie,Eagle Street,11701
PORT LOUIS,Briquetterie,Eastern Side of Mohameddan Cemetry Road from Mariamen Temple Road,11701
PORT LOUIS,Briquetterie,Fregate Street,11701
PORT LOUIS,Briquetterie,La Perle Street,11701
PORT LOUIS,Briquetterie,Lavocaire Street,11701
PORT LOUIS,Briquetterie,Mariamen Temple Street Nothern Side from Mohamedan Cemetry to Round About,11701
PORT LOUIS,Briquetterie,Paul Street,11701
PORT LOUIS,Briquetterie,Port Louis Terre Rouge Road from Round About to Riviere Terre Rouge,11701
PORT LOUIS,Briquetterie,Raphael Street,11701
PORT LOUIS,Briquetterie,Rodrigues Street,11701
PORT LOUIS,Briquetterie,St Pierre Street,11701
PORT LOUIS,Briquetterie,Veronce Street,11701
PORT LOUIS,Camp Chapelon East,Trunk Road plus Old Moka Road from Entry of CWA upto entry of Bonnefin Street,11204
PORT LOUIS,Camp Chapelon East,Henri Seneck Street,11204
PORT LOUIS,Camp Chapelon East,James Slade Street,11204
PORT LOUIS,Camp Chapelon East,William Stanley ,11204
PORT LOUIS,Camp Chapelon West,De Rosnay Street,11205
PORT LOUIS,Camp Chapelon West,Desire Sicard Street,11205
PORT LOUIS,Camp Chapelon West,Impasse Rayeroux,11205
PORT LOUIS,Camp Chapelon West,Madrassa Road,11205
PORT LOUIS,Camp Chapelon West,Philippe Rousset,11205
PORT LOUIS,Camp Chapelon West,Pierre Arthur Rayeroux,11205
PORT LOUIS,Camp Chapelon West,Road A,11205
PORT LOUIS,Camp Chapelon West,Road B,11205
PORT LOUIS,Camp Chapelon West,Robert Stain,11205
PORT LOUIS,Camp Chapelon West,St Louis River from Trunk Road to behind St Louis Power Station,11205
PORT LOUIS,Camp Chapelon West,Trunk Road East from Plaine Lauzun to St Louis Bridge,11205
PORT LOUIS,Camp Chapelon West,Volcy de Senneville Street,11205
PORT LOUIS,Camp Firinga,,11101
PORT LOUIS,Camp Yoloff,Coringa,11601
Piton,Beau Sejour,,30801
Piton,Beau Sejour SE,,30802
Piton,Bon Espoir,,30803
Piton,Cite EDC,,30804
Piton,Espe Piton,,30805
Piton,La Paix,,30806
Piton,Mon Piton,,30807
Piton,Morc Le Haut Champs,,30808
Piton,NHDC,,30809
PORT LOUIS,Camp Yoloff,Daureawoo,11601
PORT LOUIS,Camp Yoloff,Gelle,11601
PORT LOUIS,Camp Yoloff,Imp. Macao,11601
PORT LOUIS,Camp Yoloff,Indians,11601
PORT LOUIS,Camp Yoloff,J.Tranquille,11601
PORT LOUIS,Camp Yoloff,Kleber ,11601
PORT LOUIS,Camp Yoloff,Latanier,11601
PORT LOUIS,Camp Yoloff,Macao Street,11601
PORT LOUIS,Camp Yoloff,Magon St from Noor E Islam St to Mariamen Temple Street,11601
PORT LOUIS,Camp Yoloff,Malacca,11601
PORT LOUIS,Camp Yoloff,Military Rd   ,11601
PORT LOUIS,Camp Yoloff,Military Street from Round About to Noor-E-Islam,11601
PORT LOUIS,Camp Yoloff,Noor E Islam Mosque St Western Side From Magon St - Nicolay Power Station,11601
PORT LOUIS,Camp Yoloff,Rene Maigrot,11601
PORT LOUIS,Camp Yoloff,Rochecouste,11601
PORT LOUIS,Camp Yoloff,Rohan,11601
PORT LOUIS,Camp Yoloff,Rozan,11601
PORT LOUIS,Camp Yoloff,Samuel Fouquereaux,11601
PORT LOUIS,Camp Yoloff,Sirdar,11601
PORT LOUIS,Canal Dayot (both sides),C.A.Macpersom,11207
PORT LOUIS,Canal Dayot (both sides),Canal Dayot Street,11207
PORT LOUIS,Canal Dayot (both sides),Delta Lane ,11207
PORT LOUIS,Canal Dayot (both sides),Impasse Canay Dayot,11207
PORT LOUIS,Canal Dayot (both sides),James Mercier Lane ,11207
PORT LOUIS,Canal Dayot (both sides),Lamare Jean Baptiste Street ,11207
PORT LOUIS,Carreau Lalo ,Afique Lane ,11801
PORT LOUIS,Carreau Lalo ,Amasaki Lane,11801
PORT LOUIS,Carreau Lalo ,Bernandin de St Pierre Street ,11801
PORT LOUIS,Carreau Lalo ,Capeyron Henri Andre Street ,11801
PORT LOUIS,Carreau Lalo ,Doomun lane,11801
PORT LOUIS,Carreau Lalo ,F.H Decaille Street ,11801
PORT LOUIS,Carreau Lalo ,James Canonville Street ,11801
PORT LOUIS,Carreau Lalo ,Jules Chavin Street ,11801
PORT LOUIS,Carreau Lalo ,Jules Coup Street ,11801
PORT LOUIS,Carreau Lalo ,Kalimaye Lane ,11801
PORT LOUIS,Carreau Lalo ,Lima Lane ,11801
PORT LOUIS,Carreau Lalo ,Lome Lane ,11801
PORT LOUIS,Carreau Lalo ,Oslo Lane ,11801
PORT LOUIS,Carreau Lalo ,Ramsarran lane,11801
PORT LOUIS,Carreau Lalo , Rosiers  Avenue,11801
PORT LOUIS,Carreau Lalo ,Solitaire Street ,11801
PORT LOUIS,Cassis 1,C.H. Leal Lane,11303
PORT LOUIS,Cassis 1,Cassis Government School,11303
PORT LOUIS,Cassis 1,Hindu House,11303
PORT LOUIS,Cassis 1,Impasse 332,11303
PORT LOUIS,Cassis 1,Impasse Delance,11303
PORT LOUIS,Cassis 1,Impasse Demerez,11303
PORT LOUIS,Cassis 1,Impasse Gansseran,11303
PORT LOUIS,Cassis 1,Impasse Gansseran,11303
PORT LOUIS,Cassis 1,Impasse Jolivet,11303
PORT LOUIS,Cassis 1,Jean Baptiste Lamasse,11303
PORT LOUIS,Cassis 1,Joseph Lane,11303
PORT LOUIS,Cassis 1,Nayazamana Street,11303
PORT LOUIS,Cassis 1,Roseline Street,11303
PORT LOUIS,Cassis 2,Albercrombie Street,11304
PORT LOUIS,Cassis 2,Douglas Street,11304
PORT LOUIS,Cassis 2,Dundenald Street,11304
PORT LOUIS,Cassis 2,Edgard Aubert Street from Trunk Road to Kwantee Street,11304
PORT LOUIS,Cassis 2,Edgard Gallet Street,11304
PORT LOUIS,Cassis 2,Malborough Street,11304
PORT LOUIS,Cassis 2,Praslin Street,11304
PORT LOUIS,Cassis 2,Renganaden Seeneevassen Street,11304
PORT LOUIS,Cassis 2,Reserve Street,11304
PORT LOUIS,Cassis 2,Reserve Street,11304
PORT LOUIS,Cassis 2,Tamatave Street,11304
PORT LOUIS,Cassis 2,Tanner Street,11304
PORT LOUIS,Cassis 3,A. N Noormohamed Street,11305
PORT LOUIS,Cassis 3,Almadina Street,11305
PORT LOUIS,Cassis 3,Odette Ernest Street,11305
PORT LOUIS,Cassis 3,Edgard Aubert Street from Trunk Road to Odette Ernest Street,11305
PORT LOUIS,Cassis 3,Edgard Gallet Street from Almadina Street to Trunk Road,11305
PORT LOUIS,Cassis 3,Johanna Street,11305
PORT LOUIS,Cassis 3,Maupin Street (Southern side from Round About to Brabant Street),11305
PORT LOUIS,Cassis 3,Motais Street from Maupin Street to Joana Street,11305
PORT LOUIS,Cassis 3,Octave Sandapa Street,11305
PORT LOUIS,Cassis 3,Redoute Street,11305
PORT LOUIS,Cassis 3,Seychelles Street,11305
PORT LOUIS,Cassis 3,Victor K Vern Street,11305
PORT LOUIS,Caudan,Caudan Street,11306
PORT LOUIS,Caudan,Decaen Street,11306
PORT LOUIS,Caudan,Deconti Street,11306
PORT LOUIS,Caudan,Engineer Street,11306
PORT LOUIS,Caudan,Falcan Street,11306
PORT LOUIS,Caudan,Foncault Street,11306
PORT LOUIS,Caudan,La Fleur Street,11306
PORT LOUIS,Caudan,Motais Street from Maupin Street to Caudan Street,11306
PORT LOUIS,Caudan Waterfromt,,11307
PORT LOUIS,Central Market (Both wings),,11308
PORT LOUIS,Champ De Mars,,11404
PORT LOUIS,China Town,David St up to Sun Yat Sen Street,11602
PORT LOUIS,China Town,Dr Edwards Laurent Street ,11602
PORT LOUIS,China Town,Emmanuel Anquetil Street,11602
PORT LOUIS,China Town,Farquhar St up to Corderie Street,11602
PORT LOUIS,China Town,Joseph Riviere Street,11602
PORT LOUIS,China Town,Jummah Mosque Street,11602
PORT LOUIS,China Town,Leoville L`Homme St up to Corderie Street ,11602
PORT LOUIS,China Town,Louis Pasteur Street,11602
PORT LOUIS,China Town,Northern Side of Corderie Street,11602
PORT LOUIS,China Town,Queen St up to Corderie Street,11602
PORT LOUIS,China Town,R.Ollier St up to Corderie Street,11602
PORT LOUIS,China Town,Royal St up to Corderie Street,11602
PORT LOUIS,Citadelle Region ,  Corneille Street ,11405
PORT LOUIS,Citadelle Region ,  Destaing Street,11405
PORT LOUIS,Citadelle Region ,"  Eugene Laurent Lane 33, 37, 43 ",11405
PORT LOUIS,Citadelle Region ,  Eugene Laurent Street ,11405
PORT LOUIS,Citadelle Region ,  G.H.D Atchia Street ( Eastern Side ) ,11405
PORT LOUIS,Citadelle Region ,  Herscall Street  ,11405
PORT LOUIS,Citadelle Region ,  Sebastopol Street ,11405
PORT LOUIS,Citadelle Region ,  Shakespeare Street ,11405
PORT LOUIS,Citadelle Region ,  Suffren St from Mgr Gonin St to Eugene  Laurent Street ,11405
PORT LOUIS,Cite Borstal,Dr Manilall Street ,11206
PORT LOUIS,Cite Borstal,F.l Maurel Street ,11206
PORT LOUIS,Cite Borstal,Jean Lebrun Street ,11206
PORT LOUIS,Cite Borstal,Leoville Lhomme Street ,11206
PORT LOUIS,Cite Borstal,Remy Ollier Street ,11206
PORT LOUIS,Cite Borstal,Seeneevassen Street ,11206
PORT LOUIS,Cite CHA,,11802
PORT LOUIS,Cite La Cure,,11803
PORT LOUIS,Cite La Lumiere,,11106
Plaine Magnien,Agricultural Extension Office,,51501
Plaine Magnien,Balance ,,51502
Plaine Magnien,Bois D'Oiseau,,51503
Plaine Magnien,Cemetry Rd,,51504
Plaine Magnien,Chatgaon (ex Airport),,51505
Plaine Magnien,Cite Burrenchobay,,51506
Plaine Magnien,Cite EDC Balance,,51507
Plaine Magnien,La Cambuse,,51508
Plaine Magnien,La Grotte,,51509
Plaine Magnien,Le Chaland,,51510
Plaine Magnien,Madame Dayla,,51511
Plaine Magnien,Mon desert Rd ,,51512
Plaine Magnien,Morc Gobin,,51513
Plaine Magnien,Morc Ithier,,51514
Plaine Magnien,NHDC les Palmiers,,51515
Plaine Magnien,Plaine Magnien,,51516
Plaine Magnien,Rishi dayanand Rd,,51517
Plaine Magnien,Ruisseau Copeaux,,51518
Plaine Magnien,Solitude,,51519
Plaine Magnien,SSR International Airport,,51520
PORT LOUIS,Cite Lateka,,11105
PORT LOUIS,Cite Martial,Indians,11501
PORT LOUIS,Cite Martial,Klebert ,11501
PORT LOUIS,Cite Martial, Latanier,11501
PORT LOUIS,Cite Martial,Military Rd   ,11501
PORT LOUIS,Cite Martial,Sirdar,11501
PORT LOUIS,Cite Martial,Coringa,11501
PORT LOUIS,Cite Martial,Daureawoo,11501
PORT LOUIS,Cite Martial, Gele,11501
PORT LOUIS,Cite Martial,Imp. Macao,11501
PORT LOUIS,Cite Martial,J.Tranquille,11501
PORT LOUIS,Cite Martial, Macao Street,11501
PORT LOUIS,Cite Martial,Malacca ,11501
PORT LOUIS,Cite Martial,Rene Maigrot,11501
PORT LOUIS,Cite Martial, Rochecoust,11501
PORT LOUIS,Cite Martial, Rohan,11501
PORT LOUIS,Cite Martial, Rozan ,11501
PORT LOUIS,Cite Martial,Samuel Fouqueraux,11501
PORT LOUIS,Cite Mauvillac,Acacia Street,11208
PORT LOUIS,Cite Mauvillac,Camelia Street,11208
PORT LOUIS,Cite Mauvillac,Flamboyant Street,11208
PORT LOUIS,Cite Mauvillac,Jackarandas Street,11208
PORT LOUIS,Cite Mauvillac,Jasmin Street,11208
PORT LOUIS,Cite Mauvillac,Lilas Street,11208
PORT LOUIS,Cite Mauvillac,Miguet Street,11208
PORT LOUIS,Cite Mauvillac,Pailles Junction West (part),11208
PORT LOUIS,Cite Roche Bois, F.Victor Street,11603
PORT LOUIS,Cite Roche Bois, J.Serret Street,11603
PORT LOUIS,Cite Roche Bois,C.Jeewanjee Street,11603
PORT LOUIS,Cite Roche Bois,Denise Hall,11603
PORT LOUIS,Cite Roche Bois,Desperoux Street ,11603
PORT LOUIS,Cite Roche Bois,Dr H.A Wheldone Street,11603
PORT LOUIS,Cite Roche Bois,G.Gillet Street,11603
PORT LOUIS,Cite Roche Bois,J.Vigoureux Street,11603
PORT LOUIS,Cite Roche Bois,L.Michel Street,11603
PORT LOUIS,Cite Roche Bois,M.Gueho Street,11603
PORT LOUIS,Cite Roche Bois,N.C Hing Street ,11603
PORT LOUIS,Cite Roche Bois,P.A Wiehe Street ,11603
PORT LOUIS,Cite Roche Bois,Robert Surcouf Street ,11603
PORT LOUIS,Cite Roche Bois,S.Ahnee Street ,11603
PORT LOUIS,Cite Roche Bois,V.Larche Street ,11603
PORT LOUIS,Cite Roche Bois,Wade Street,11603
PORT LOUIS,Cite Valijee,Bach Lane,11309
PORT LOUIS,Cite Valijee,Banyan Lane,11309
PORT LOUIS,Cite Valijee,Canal Dayot Street,11309
PORT LOUIS,Cite Valijee,Chopin Lane,11309
PORT LOUIS,Cite Valijee,Dahlia Lane,11309
PORT LOUIS,Cite Valijee,Ebony Lane,11309
PORT LOUIS,Cite Valijee,Flamboyant Street,11309
PORT LOUIS,Cite Valijee,Florida Lane,11309
PORT LOUIS,Cite Valijee,Gonin Lane,11309
PORT LOUIS,Cite Valijee,Hazlit Lane,11309
PORT LOUIS,Cite Valijee,Heliotrope Lane,11309
PORT LOUIS,Cite Valijee,Iqbal Lane,11309
PORT LOUIS,Cite Valijee,Jasmin Lane,11309
PORT LOUIS,Cite Valijee,Labonte Lane,11309
PORT LOUIS,Cite Valijee,Letard Street,11309
PORT LOUIS,Cite Valijee,Menagerie Street from St Joseph Street to Mauritius Telecom Southern side,11309
PORT LOUIS,Cite Valijee,Merigold Lane,11309
PORT LOUIS,Cite Valijee,Milton Lane,11309
Phoenix,Allee Brillant,,73501
Phoenix,Allee Jacques,,73502
Phoenix,Bassin,,73603
Phoenix,Belle Terre,,73604
Phoenix,Boundary,,73605
Phoenix,Camp Fouquereaux 1,,73606
Phoenix,Camp Fouquereaux 2,,73607
Phoenix,Camp Fouquereaux 3,,73608
Phoenix,Camp Fouquereaux Bch Rd ,,73609
Phoenix,Camp Hosany,,73610
Phoenix,Castel,,73611
Phoenix,Cinq Arpents,,73612
Phoenix,Cite 50,,73613
Phoenix,Clairfonds 1,,73514
Phoenix,Clairfonds 2,,73516
Phoenix,Clairfonds 3,,73515
Phoenix,Closel,,73417
Phoenix,Flat River Islands,,73518
Phoenix,Hassen Raffa,,73619
Phoenix,Hermitage,,73620
Phoenix,Highlands,,73621
Phoenix,Highlands Branch Rd,,73622
Phoenix,Independence,,73423
Phoenix,Jumbo,,73524
Phoenix,LE Meritt,,73525
Phoenix,Les Halles,,73526
Phoenix,Mesnil,,73627
Phoenix,Morc Blue Print,,73628
Phoenix,Morc Boucan,,73529
Phoenix,Morc Koenig,,73630
Phoenix,Morc Lenoir,,73532
Phoenix,Morc Lonrho,,73631
Phoenix,Morc MTMD,,73633
Phoenix,Morc Nazroo,,73634
Phoenix,Morc Noel,,73535
Phoenix,Morc Trianon,,73536
Phoenix,Mosque Rd,,73637
Phoenix,Nalletamby,,73538
Phoenix,Nehru,,73539
Phoenix,Ollier,,73440
Phoenix,Palmerstone,,73541
Phoenix,Petit Camp,,73542
Phoenix,Pine wood Garden,,73643
Phoenix,Pont Fer,,73544
Phoenix,Riverside,,73645
Phoenix,Robinson 1,,73546
Phoenix,Robinson 3,,73547
Phoenix,Robinson2,,73548
Phoenix,Royal Road,Royal Road,73556
Phoenix,Sawmill,,73549
Phoenix,Sayed Hossen Highlands Bch,,73650
Phoenix,St. Paul,,73551
Phoenix,Tout Court,,73652
Phoenix,Valentina,,73553
PORT LOUIS,Cite Valijee,Moliere lane,11309
PORT LOUIS,Cite Valijee,Oaks Lane,11309
PORT LOUIS,Cite Valijee,Royal Road Western part from St Joseph Street to Flamboyant Street,11309
PORT LOUIS,Cite Valijee,Rubinstein Lane,11309
PORT LOUIS,Cite Valijee,St Joseph Street Western side from Royal Road to Menagerie Street,11309
PORT LOUIS,Cite Valijee,Strauss Lane,11309
PORT LOUIS,Cite Valijee,Tagore Lane,11309
PORT LOUIS,Cite Valijee,Tulip Lane,11309
PORT LOUIS,Cite Valijee,Vanoogaree Lane,11309
PORT LOUIS,Cite Valijee,Wagner Lane,11309
PORT LOUIS,Croisee Vallee Des Pretes ,,11804
PORT LOUIS,Crowland Tory,,11406
PORT LOUIS,Crownland Robert Scott,,11805
PORT LOUIS,Customs House , Mer Rouge,11604
PORT LOUIS,Domaine Les Pailles,,11209
PORT LOUIS,Dr. A. G. Jeetoo Hospital,,11310
PORT LOUIS,Emmanuel Anquetil Building,,11321
PORT LOUIS,Enniskillen,MGR Leen Street from Labourdonnais Street to Promenade,11412
PORT LOUIS,Enniskillen,Maxime de Sornay,11412
PORT LOUIS,Enniskillen,Enniskillen Street,11412
PORT LOUIS,Enniskillen,Mayer Street from Labourdonnais Street ,11412
PORT LOUIS,Enniskillen,Bancilhon Street,11412
PORT LOUIS,Enniskillen,Raoul Rivet Street from Labourdonnais to Jenner Street,11412
PORT LOUIS,Enniskillen,Justice Street,11412
PORT LOUIS,Enniskillen,Independence Street,11412
PORT LOUIS,Enniskillen,Jenner Street,11412
PORT LOUIS,Enniskillen,Cook Street,11412
PORT LOUIS,Enniskillen,Boulevard Rivaze,11412
PORT LOUIS,Enniskillen,Wellington Street (Jawaharlall Nehru),11412
PORT LOUIS,Enniskillen,Seetulsing Street (ex Washerwoman),11412
PORT LOUIS,Enniskillen,Generosity Street,11412
PORT LOUIS,Font George, Mer Rouge ,11605
PORT LOUIS,G.M. Tower,,11311
PORT LOUIS,GRNW,Adolphe Rolando ,11210
PORT LOUIS,GRNW,Batterie Lane ,11210
PORT LOUIS,GRNW,Batterie Road ,11210
PORT LOUIS,GRNW,Canal Dayot Street.,11210
PORT LOUIS,GRNW,Dr Henri Perrot Lane ,11210
PORT LOUIS,GRNW,J.E Pitchen,11210
PORT LOUIS,GRNW,James Russel Street ,11210
PORT LOUIS,Guibies,Ahmed Lane ,11213
PORT LOUIS,Guibies,AllyHossen lane ,11213
PORT LOUIS,Guibies,Avenue Florimant ,11213
PORT LOUIS,Guibies,Bali Lane ,11213
PORT LOUIS,Guibies,Baloram Lane ,11213
PORT LOUIS,Guibies,Buckredun Lane ,11213
PORT LOUIS,Guibies,Impasse Purmah ,11213
PORT LOUIS,Guibies,Les Guibies Branch Road ,11213
PORT LOUIS,Guibies,Modoo Lane ,11213
PORT LOUIS,Guibies,Mosque Lane ,11213
PORT LOUIS,Guibies,Purmah Lane ,11213
PORT LOUIS,Guibies,Soobadar Lane ,11213
PORT LOUIS,Harbour View 1,,11407
PORT LOUIS,Harbour View 2,,11408
PORT LOUIS,Hospice Montfort ,Nicolay Road,11606
PORT LOUIS,I.B.L. Complex,,11312
PORT LOUIS,Informatic Park,,11211
PORT LOUIS,Intermediate  Court,,11313
PORT LOUIS,Kensington,,11107
PORT LOUIS,La Butte Region,A. Esnouf Street,11314
PORT LOUIS,La Butte Region,Andrews Street,11314
PORT LOUIS,La Butte Region,Angousty Street,11314
Petite Riviere,Camp des Embrevades,,90801
Petite Riviere,Camp Racket (Benoit),,90802
Petite Riviere,Canon Casse,,90803
Petite Riviere,Cite Betel,,90804
Petite Riviere,Cite Flamboyant (NHDC),,90805
Petite Riviere,Morc Goldsmith,,90806
Petite Riviere,Morc Gros Cailloux,,90807
Petite Riviere,Petite Riviere,,90808
PORT LOUIS,La Butte Region,Avenue mgr Leen from Armory Bridge to Andrews Street,11314
PORT LOUIS,La Butte Region,Bandelaire Street,11314
PORT LOUIS,La Butte Region,Belvedere Street,11314
PORT LOUIS,La Butte Region,Brabant Street from Maupin Street to Andrews Street (Eastern side),11314
PORT LOUIS,La Butte Region,Conrad Street,11314
PORT LOUIS,La Butte Region,Dalembert Street,11314
PORT LOUIS,La Butte Region,Darcel Melotte Street,11314
PORT LOUIS,La Butte Region,Dickens Street,11314
PORT LOUIS,La Butte Region,Discovery Street,11314
PORT LOUIS,La Butte Region,Entrecasteaux Southern part from St Petrichier to Souillac St Nothern part,11314
PORT LOUIS,La Butte Region,Esquire Street,11314
PORT LOUIS,La Butte Region,Field Street,11314
PORT LOUIS,La Butte Region,G.E.F poulin Street,11314
PORT LOUIS,La Butte Region,GASSITA St,11314
PORT LOUIS,La Butte Region,Gravel Street,11314
PORT LOUIS,La Butte Region,Hossen Street,11314
PORT LOUIS,La Butte Region,M. Giraud Street,11314
PORT LOUIS,La Butte Region,Madagascar Street,11314
PORT LOUIS,La Butte Region,Maupin Street from Entrecasteaux Street to Mountain,11314
PORT LOUIS,La Butte Region,Mootoosamy Street,11314
PORT LOUIS,La Butte Region,Mount Lane,11314
PORT LOUIS,La Butte Region,Orange Street,11314
PORT LOUIS,La Butte Region,Piton Street,11314
PORT LOUIS,La Butte Region,Tankwen Street,11314
PORT LOUIS,La Cure :La Cure Bus Terminus ,,11806
PORT LOUIS,La Tour Koenig East: Excell Avenue (East),,11212
PORT LOUIS,La Tour Koenig Industrial Zone,,11109
PORT LOUIS,Les Salines,Gebert Cemetry,11315
PORT LOUIS,Les Salines,"Cemetry Road, ,",11315
PORT LOUIS,Les Salines,Nelson Street,11315
PORT LOUIS,Les Salines,Robert Edward Hart Garden Allee des Filaos,11315
PORT LOUIS,Les Salines,Western Cemetry,11315
PORT LOUIS,Line Barracks,,11316
PORT LOUIS,Lower Valle Des Pretes ,Jean francois Street,11817
PORT LOUIS,Lower Valle Des Pretes ,Paul et Virginie Street,11817
PORT LOUIS,Lower Valle Des Pretes ,School lane,11817
PORT LOUIS,Lower Valle Des Pretes ,Swadesh Street,11817
PORT LOUIS,M.C.F.I , Mer Rouge ,11608
PORT LOUIS,Marguerite Phase 1,,11110
PORT LOUIS,Marie Reine de la Paix ,Antonio Street,11413
PORT LOUIS,Marie Reine de la Paix ,Capitaine de Valence Street,11413
PORT LOUIS,Marie Reine de la Paix ,De Courcy Street from Beaugeard Street to MGR Leen,11413
PORT LOUIS,Marie Reine de la Paix ,Desroches Street from Beaugeard Street to MGR Leen Street,11413
PORT LOUIS,Marie Reine de la Paix ,Emyrne Street,11413
PORT LOUIS,Marie Reine de la Paix ,Henri Le Sidaner from Beaugeard Street to MGR Leen,11413
PORT LOUIS,Marie Reine de la Paix ,I. Levieux Street,11413
PORT LOUIS,Marie Reine de la Paix ,Mauritius Street,11413
PORT LOUIS,Marie Reine de la Paix ,Mayer Street  from Labourdonnais Street to Decourcy Street,11413
PORT LOUIS,Marie Reine de la Paix ,Montenot Street,11413
PORT LOUIS,Marie Reine de la Paix ,Nahaboo Solim Street from Beaugeard Street to MGR Leen,11413
PORT LOUIS,Marie Reine de la Paix ,Poupinel de Valence Street,11413
PORT LOUIS,Marie Reine de la Paix ,St James Street,11413
PORT LOUIS,Marie Reine de la Paix ,St John Street,11413
PORT LOUIS,Mauritius Bulk Sugar Terminal (Building),,11317
PORT LOUIS,Mauritius Freeport Authority ,Mer Rouge,11607
PORT LOUIS,Mer Rouge,,11609
PORT LOUIS,Mocellement Mohamedally,,11811
PORT LOUIS,Montebello Industrial Zone,,11217
PORT LOUIS,Montebello: Western Side of Trunk Road from Ring Road to Pailles Junction,,11216
PORT LOUIS,Montee S: From P aux Sables Junction to B River Junction (Western Side),,11218
PORT LOUIS,Morc Le Rock,Avenue Citronelle ,11214
PORT LOUIS,Morc Le Rock,Avenue Conseil ,11214
PORT LOUIS,Morc Le Rock,Avenue Framboises ,11214
PORT LOUIS,Morc Le Rock,Avenue Sapin ,11214
Petit Raffray,Camp Mayeux,,30701
Petit Raffray,Les Charmose,,30702
Petit Raffray,Mare Seche,,30703
Petit Raffray,Mont Mascal,,30704
Petit Raffray,Morc Bholah,,30705
Petit Raffray,Morc Gowreesunkur 1,,30706
Petit Raffray,Morc Gowreesunkur 2,,30707
Petit Raffray,Morc Harrangee,,30708
Petit Raffray,Morc Loderchand,,30709
Petit Raffray,Moulin au vent,,30710
Petit Raffray,Petit Raffray Village 1,,30711
Petit Raffray,Petit Raffray Village 2,,30712
Petit Raffray,Reunion Maurel,,30713
Petit Raffray,St Francois,,30714
Petit Raffray,Union Daruty,,30715
Petit Raffray,Union Delcourt,,30716
PORT LOUIS,Morc Le Rock,Avenue Talipot ,11214
PORT LOUIS,Morc Le Rock,Axess,11214
PORT LOUIS,Morc Le Rock,Baichoo Lane ,11214
PORT LOUIS,Morc Le Rock,Deepun Lane ,11214
PORT LOUIS,Morc Le Rock,Diamond Avenue ,11214
PORT LOUIS,Morc Le Rock,Emerald Avenue ,11214
PORT LOUIS,Morc Le Rock,Gold Avenue ,11214
PORT LOUIS,Morc Le Rock,Iqbal Avenue ,11214
PORT LOUIS,Morc Le Rock,Jade Avenue ,11214
PORT LOUIS,Morc Le Rock,La Fleur Road ,11214
PORT LOUIS,Morc Le Rock,Mauvilac Paints ,11214
PORT LOUIS,Morc Le Rock,Pailles Kaliamen Temple Street ,11214
PORT LOUIS,Morc Le Rock,Pearl Avenue ,11214
PORT LOUIS,Morc Le Rock,Pembas ,11214
PORT LOUIS,Morc Le Rock,Roland Maurel Avenue ,11214
PORT LOUIS,Morc Le Rock,Roshan Road ,11214
PORT LOUIS,Morc Le Rock,Shreemati Indira Gandhi Road ,11214
PORT LOUIS,Morc Le Rock,Silver Avenue ,11214
PORT LOUIS,Morc Manna,,11409
PORT LOUIS,Morc Raffray,Avenue Bengali 1,11215
PORT LOUIS,Morc Raffray,Avenue Bengali 2,11215
PORT LOUIS,Morc Raffray,Avenue Bengali 3,11215
PORT LOUIS,Morc Raffray,Avenue Bengali 4,11215
PORT LOUIS,Morc Raffray,Avenue Cardinal 1,11215
PORT LOUIS,Morc Raffray,Avenue Cardinal 2,11215
PORT LOUIS,Morc Raffray,Avenue Cardinal 3,11215
PORT LOUIS,Morc Raffray,Avenue Cardinal 4,11215
PORT LOUIS,Morc Raffray,Avenue Cardinal 5,11215
PORT LOUIS,Morc Raffray,Avenue Claude De Delaitre ,11215
PORT LOUIS,Morc Raffray,Avenue Colline No 1 ,11215
PORT LOUIS,Morc Raffray,Avenue Colline No 2 ,11215
PORT LOUIS,Morc Raffray,Avenue Conde 2,11215
PORT LOUIS,Morc Raffray,Avenue Conde 4,11215
PORT LOUIS,Morc Raffray,Avenue Conde 5,11215
PORT LOUIS,Morc Raffray,Avenue Conde 7,11215
PORT LOUIS,Morc Raffray,Avenue Crecerlle 2,11215
PORT LOUIS,Morc Raffray,Avenue Dodo 1 ,11215
PORT LOUIS,Morc Raffray,Avenue Dodo 2,11215
PORT LOUIS,Morc Raffray,Avenue Dodo 3,11215
PORT LOUIS,Morc Raffray,Avenue Dodo 4,11215
PORT LOUIS,Morc Raffray,Avenue Perdrix 2,11215
PORT LOUIS,Morc Raffray,Avenue Perdrix 3,11215
PORT LOUIS,Morc Raffray,Avenue Perroquet 1,11215
PORT LOUIS,Morc Raffray,Avenue Perroquet 2,11215
PORT LOUIS,Morc Raffray,Avenue Perroquet 3,11215
PORT LOUIS,Morc Raffray,Avenue Perroquet 4,11215
PORT LOUIS,Morc Raffray,Avenue Perroquet 5,11215
PORT LOUIS,Morc Raffray,Avenue Perruche 1,11215
PORT LOUIS,Morc Raffray,Avenue Perruche 2,11215
PORT LOUIS,Morc Raffray,Avenue Perruche 3,11215
PORT LOUIS,Morc Raffray,Avenue Perruche 4,11215
PORT LOUIS,Morc Raffray,Avenue Peruche 5 ,11215
PORT LOUIS,Morc Raffray,Avenue Peruche 6,11215
PORT LOUIS,Morc Raffray,Avenue Pingouin No 1,11215
PORT LOUIS,Morc Raffray,Avenue Pingouin No 2,11215
PORT LOUIS,Morcellement Agnis /Ramlagun ( lower V.D Pretes),,11807
PORT LOUIS,Morcellement Ally /Sekdaur (lower V.D Pretes),,11808
PORT LOUIS,Morcellement Almadina ,Al Madina  Ave,11809
PORT LOUIS,Morcellement Almadina ,Autruches Street,11809
PORT LOUIS,Morcellement Almadina ,Avenue des Dodos,11809
PORT LOUIS,Morcellement Almadina ,Avenue des Rosiers,11809
Petit Bel Air,Camp Vinson,,52301
Petit Bel Air,Cemetery,,52302
Petit Bel Air,Petit Bel Air,,52303
Pamplemousses,Beau Plan,,21001
Pamplemousses,Bois Rouge,,21002
Pamplemousses,Botanical Garden,,21003
Pamplemousses,Camp Badamiers,,21006
Pamplemousses,Camp d Embrevades,,21007
Pamplemousses,Canton Belle Eau,,21005
Pamplemousses,Canton Nancy,,21004
Pamplemousses,Cite E.D.C,,21008
Pamplemousses,La Louisa,,21009
Pamplemousses,Mon Plaisir,,21010
Pamplemousses,Mon Rocher,,21012
Pamplemousses,Monc. Ripaille,,21011
Pamplemousses,Monc.Maison Blanche,,21013
Pamplemousses,Pamplemousses,,21014
Pamplemousses,Riviere Citron,,21015
Pamplemousses,S.S.R.N.Hospital,,21017
Pamplemousses,Sixth Mile,,21016
PORT LOUIS,Morcellement Almadina ,Colombes Street,11809
PORT LOUIS,Morcellement Almadina ,Faucon Street,11809
PORT LOUIS,Morcellement Almadina ,Glaieuls Street,11809
PORT LOUIS,Morcellement Almadina ,Jasmin Ave,11809
PORT LOUIS,Morcellement Almadina ,Laetita,11809
PORT LOUIS,Morcellement Almadina ,Pelican Street,11809
PORT LOUIS,Morcellement Almadina ,Solitaire Street ,11809
PORT LOUIS,Morcellement Almadina ,Zaynah,11809
PORT LOUIS,Morcellement Ameermeeah ,,11810
PORT LOUIS,Morcellement D'Hotman,,11111
PORT LOUIS,Morcellement Fon Sing,,11112
PORT LOUIS,Morcellement Fortune,,11113
PORT LOUIS,Morcellement Ibrahim Dawood,Jacquiers Ave,11115
PORT LOUIS,Morcellement Ibrahim Dawood,Manguiers Ave,11115
PORT LOUIS,Morcellement Ibrahim Dawood,Badamiers Ave,11115
PORT LOUIS,Morcellement Le Vieux,,11119
PORT LOUIS,Morcellement Pitchen ,,11812
PORT LOUIS,Morcellement Rey,Accacia,11121
PORT LOUIS,Morcellement Rey,Aloes,11121
PORT LOUIS,Morcellement Rey,Badamiers Ave,11121
PORT LOUIS,Morcellement Rey,Bambous,11121
PORT LOUIS,Morcellement Rey,Bosquet,11121
PORT LOUIS,Morcellement Rey,Cactus,11121
PORT LOUIS,Morcellement Rey,Catelyas,11121
PORT LOUIS,Morcellement Rey,Cerisiers ,11121
PORT LOUIS,Morcellement Rey,COLBERT,11121
PORT LOUIS,Morcellement Rey,Coqueluches  ,11121
PORT LOUIS,Morcellement Rey,Fuschias,11121
PORT LOUIS,Morcellement Rey,Goldem Rd,11121
PORT LOUIS,Morcellement Rey,Groseilles,11121
PORT LOUIS,Morcellement Rey,Jacquiers ,11121
PORT LOUIS,Morcellement Rey,Jamalacs,11121
PORT LOUIS,Morcellement Rey,Jupiter,11121
PORT LOUIS,Morcellement Rey,Lantana,11121
PORT LOUIS,Morcellement Rey,Link Rd,11121
PORT LOUIS,Morcellement Rey,Mandarine,11121
PORT LOUIS,Morcellement Rey,Manguiers ,11121
PORT LOUIS,Morcellement Rey,Marie Madeleine,11121
PORT LOUIS,Morcellement Rey,Nectarine,11121
PORT LOUIS,Morcellement Rey,Neptune,11121
PORT LOUIS,Morcellement Rey,Noisettes,11121
PORT LOUIS,Morcellement Rey,Novembriers,11121
PORT LOUIS,Morcellement Rey,Novembriers lane 1,11121
PORT LOUIS,Morcellement Rey,Novembriers lane 2,11121
PORT LOUIS,Morcellement Rey,Sunhill,11121
PORT LOUIS,Morcellement Rey,Tournesol,11121
PORT LOUIS,Morcellement Rey,Trochettias,11121
PORT LOUIS,Morcellement Sohun,cyprus,11124
PORT LOUIS,Morcellement Sohun,pigeon,11124
PORT LOUIS,Morcellement Sohun,Peacock,11124
PORT LOUIS,Morcellement Verger Le Bain,Discovery,11127
PORT LOUIS,Morcellement Verger Le Bain,Columbia,11127
PORT LOUIS,Morcellement Verger Le Bain,Collins,11127
PORT LOUIS,Morcellement Verger Le Bain,Comet,11127
PORT LOUIS,Morcellement Verger Le Bain,Armstrong,11127
PORT LOUIS,Morcellement Verger Le Bain,Ariane,11127
PORT LOUIS,Morcellement Verger Le Bain,Appollo,11127
PORT LOUIS,Morcellement Verger Le Bain,Aldrin,11127
PORT LOUIS,Morcellement Verger Mangue,Sohun Lane,11126
PORT LOUIS,Morcellement Verger Mangue,Verger mangues St,11126
PORT LOUIS,Morcellement Verger Mangue,Verger mangues St 1,11126
PORT LOUIS,Moulin De La Concorde , Quay D,11610
Plaine des Papayes,Bois Mangue,,21201
Plaine des Papayes,Camp Maraz,,21202
Plaine des Papayes,Cite EDC,,21203
Plaine des Papayes,Cite NHDC,,21204
Plaine des Papayes,Morc Beau Plan,,21205
Plaine des Papayes,Morc Blue Nile,,21206
Plaine des Papayes,Morc Chummun,,21207
Plaine des Papayes,Morc Dauhoo,,21208
Plaine des Papayes,Morc Koonjoo,,21209
Plaine des Papayes,Morc Ramphul,,21210
Plaine des Papayes,Morc Seebundhun,,21211
Plaine des Papayes,Morc VRS,,21212
Plaine des Papayes,P.Papayes East,,21213
Plaine des Papayes,P.Papayes West,,21214
Plaine des Papayes,Theo Maigrot Sq,,21215
PORT LOUIS,Municipality of Port Louis,,11318
PORT LOUIS,New Government Centre,,11319
PORT LOUIS,NHDC (La Cure ),,11814
PORT LOUIS,NHDC (Les Cocotiers ),,11815
PORT LOUIS,NHDC (Media ),,11816
PORT LOUIS,NHDC Cite La Cure ,,11813
PORT LOUIS,Pailles,Bonnefin Street,11219
PORT LOUIS,Pailles,Entry of Bonnefin Road upto Mountain Road,11219
PORT LOUIS,Pailles,Riverside Street,11219
PORT LOUIS,Pailles,St Louis Rivulet 2 up to Mountain,11219
PORT LOUIS,Pailles East,Anse Courtois ,11220
PORT LOUIS,Pailles East,Avenue Claude Delaitre ,11220
PORT LOUIS,Pailles East,Manaram Lane ,11220
PORT LOUIS,Pailles East,Morcellement Mountain View ,11220
PORT LOUIS,Pailles West,St Vincent de Paul Avenue,11221
PORT LOUIS,Pailles West,Timol Lane,11221
PORT LOUIS,Pailles West,Velvindron Street,11221
PORT LOUIS,Pailles West,Western Side of Trunk Road from St Louis rivulet 2 to Pailles Junction,11221
PORT LOUIS,Pailles West,Captain Ellis Street,11221
PORT LOUIS,Pailles West,Jackaria Street,11221
PORT LOUIS,Pailles West,Janoo Lane,11221
PORT LOUIS,Pailles West,Pailles Junction Road from Trunk Road to Cite Mauvillac,11221
PORT LOUIS,Paul Toureau Region,Canal Anglais up to Nicolay Road,11702
PORT LOUIS,Paul Toureau Region,Citrus Street,11702
PORT LOUIS,Paul Toureau Region,Latanier River upto Nocolay Road,11702
PORT LOUIS,Paul Toureau Region,Mandarin Street,11702
PORT LOUIS,Paul Toureau Region,Pamplemousses Road from Canal Anglais to Ruisseau Latanier Western Side,11702
PORT LOUIS,Paul Toureau Region,Paul Toureau Street,11702
PORT LOUIS,Plaine Lauzun Industrial Zone,River from behind St Louis power station upto bus station,11222
PORT LOUIS,Plaine Lauzun Industrial Zone,Royal Road from Trunk Road to Bus Station,11222
PORT LOUIS,Plaine Lauzun Industrial Zone,Trunk Road from Royal Road to St Louis Power Station,11222
PORT LOUIS,Plaine Verte 1, Blvd Hugon,11502
PORT LOUIS,Plaine Verte 1,Depinay,11502
PORT LOUIS,Plaine Verte 1,Diego Garcia,11502
PORT LOUIS,Plaine Verte 1,Dr Hassen Sakir up to Paul  et Viginie Street,11502
PORT LOUIS,Plaine Verte 1,G. M. Issac from Paul Et Viginie up to Blvd Victoria,11502
PORT LOUIS,Plaine Verte 1, I.Bacosse Subdar,11502
PORT LOUIS,Plaine Verte 1, L.Vele street,11502
PORT LOUIS,Plaine Verte 1, Pellegrin,11502
PORT LOUIS,Plaine Verte 1, Ruch Paul,11502
PORT LOUIS,Plaine Verte 1,Trichnapoly / Krishnaputy street,11502
PORT LOUIS,Plaine Verte 1,Northern side of Blvd Pitot street,11502
PORT LOUIS,Plaine Verte 2,"A.R Nawab, ",11503
PORT LOUIS,Plaine Verte 2,Ave Goomany Ally,11503
PORT LOUIS,Plaine Verte 2, Benares ,11503
PORT LOUIS,Plaine Verte 2,Cadinouche,11503
PORT LOUIS,Plaine Verte 2,Cock Lane ,11503
PORT LOUIS,Plaine Verte 2,Ghoon,11503
PORT LOUIS,Plaine Verte 2,Hassen Hussein,11503
PORT LOUIS,Plaine Verte 2,I.Bacosse Soobadar,11503
PORT LOUIS,Plaine Verte 2,Joseph Francois,11503
PORT LOUIS,Plaine Verte 2,Kankal,11503
PORT LOUIS,Plaine Verte 2,Khustar,11503
PORT LOUIS,Plaine Verte 2,Mawlana,11503
PORT LOUIS,Plaine Verte 2,Mosque St,11503
PORT LOUIS,Plaine Verte 2, Oscar Grandcourt,11503
PORT LOUIS,Plaine Verte 2,Ramsamy Canabady,11503
PORT LOUIS,Plaine Verte 2,Ravine,11503
PORT LOUIS,Plaine Verte 3 ,A.R Mohamed St ( Western Side ) from Magon St to Ambroisine St,11611
PORT LOUIS,Plaine Verte 3 ,Abbe De Rouledes Street ,11611
PORT LOUIS,Plaine Verte 3 ,Ambroisine Street ,11611
PORT LOUIS,Plaine Verte 3 ,Avis Lane ,11611
PORT LOUIS,Plaine Verte 3 ,B.Dassagne Street ,11611
PORT LOUIS,Plaine Verte 3 ,Benares St from St Francois St to A.R Mohamed Street ,11611
PORT LOUIS,Plaine Verte 3 ,Bombay Street,11611
PORT LOUIS,Plaine Verte 3,Calcutta St from St Francois Xavier St to A.R Mohamed Street,11611
PORT LOUIS,Plaine Verte 3,Canal Street ,11611
PORT LOUIS,Plaine Verte 3,Cite Laval Street,11611
PORT LOUIS,Plaine Verte 3,Delhi Street ,11611
PORT LOUIS,Plaine Verte 3,Duponsel Street ,11611
PORT LOUIS,Plaine Verte 3,Eastern Side of St Francois Xavier St from Magon St to Military Street,11611
PORT LOUIS,Plaine Verte 3,Hyderabad Street,11611
PORT LOUIS,Plaine Verte 3,James Forester Street ,11611
PORT LOUIS,Plaine Verte 3,Jardin Despaux Street,11611
PORT LOUIS,Plaine Verte 3,Leopold BOUR Street,11611
PORT LOUIS,Plaine Verte 3,Louis Victor Ducasse Street,11611
PORT LOUIS,Plaine Verte 3,Madras St from St Francois Xavier St to A.R Mohamed Street,11611
PORT LOUIS,Plaine Verte 3,Magon St from St Francois Xavier St to A.R Mohamed Street,11611
PORT LOUIS,Plaine Verte 3,Marceline Street,11611
PORT LOUIS,Plaine Verte 3,Maurice Poupard Street,11611
PORT LOUIS,Plaine Verte 3,Military Rd ( Southern Part ) from Peer Jamal Shah St to Francois Xavier Street,11611
PORT LOUIS,Plaine Verte 3,Perimbe St from St Francois Xavier to Ambroise Street ,11611
PORT LOUIS,Plaine Verte 3,Reserve Canal Bathurst,11611
PORT LOUIS,Plaine Verte 3,St Pierre Street,11611
PORT LOUIS,Plaine Verte 3,Western side of peer Jamal Shah Street ( Pamplemousses Rd ),11611
PORT LOUIS,Plaine Verte 4 ,Aleppo St from Noor-E-Islam St to Little Bridge ,11612
PORT LOUIS,Plaine Verte 4 ,Benares St from St Francois Xavier  to Maharatta ,11612
PORT LOUIS,Plaine Verte 4 ,Bombay St from St Francois Xavier St to Leonce L`Oiseau Street,11612
PORT LOUIS,Plaine Verte 4 ,Borneo Street ,11612
PORT LOUIS,Plaine Verte 4 ,Calcutta St From St Francois Xavier St to Little Bridge ,11612
PORT LOUIS,Plaine Verte 4 ,Calicut St  from Noor-E-Islam St to Maharatta Street,11612
PORT LOUIS,Plaine Verte 4 ,Eastern Side od Noor-E-Islam Street,11612
PORT LOUIS,Plaine Verte 4 ,Goa Street ,11612
PORT LOUIS,Plaine Verte 4 ,Ignapatnam,11612
PORT LOUIS,Plaine Verte 4 ,Java Street ,11612
PORT LOUIS,Plaine Verte 4 ,Leonce L`Oiseau Street ,11612
PORT LOUIS,Plaine Verte 4 ,Louis Xazier Street,11612
PORT LOUIS,Plaine Verte 4 ,Madras St from St Francois Xavier to Little Bridge ,11612
PORT LOUIS,Plaine Verte 4 ,Madura Street ,11612
PORT LOUIS,Plaine Verte 4 ,Magon St from Noor-E-Islam - St Frnacois Xavier Street,11612
PORT LOUIS,Plaine Verte 4 ,Maharata Street ,11612
PORT LOUIS,Plaine Verte 4 ,Military Road from St Francois Xavier St to Noor-E-Islam,11612
PORT LOUIS,Plaine Verte 4 ,Paliaca St from Noor-E-Islam St to Maharatta,11612
PORT LOUIS,Plaine Verte 4 ,Penang Street ,11612
PORT LOUIS,Plaine Verte 4 ,Perimbe St from St Francois Xavier to Noor-E-Islam Street ,11612
PORT LOUIS,Plaine Verte 4 ,Serang Street,11612
PORT LOUIS,Plaine Verte 4 ,Soumantra Street ,11612
PORT LOUIS,Plaine Verte 4 ,Velore St from St Francois Xavier St to Noor-E-Islam Street ,11612
PORT LOUIS,Plaine Verte 4 ,Western Side of St Francois Xavier Street,11612
PORT LOUIS,Pointe aux Sables,Royal Rd,11129
PORT LOUIS,Pointe aux Sables,Link Rd,11129
PORT LOUIS,Pointe aux Sables,Flamboyants,11129
PORT LOUIS,Pointe aux Sables,Printemps,11129
PORT LOUIS,Police Flats (Bell Village),,11223
PORT LOUIS,Pont St Louis: Trunk Road from St Louis Stream 1 to St Louis Stream 2,,11224
PORT LOUIS,Port Louis Waterfront (Harbour up to Fish Port),,11320
PORT LOUIS,Quay D,,11615
PORT LOUIS,Renganaden Seeneevassen,Mariamen Temple  Street,11613
PORT LOUIS,Renganaden Seeneevassen,Queen St from Sun Yat Sen St to Sir Edgar Laurent Street,11613
PORT LOUIS,Renganaden Seeneevassen,Remy Ollier St from Sun Yat Sen St to Sir Edgar Laurent Street,11613
PORT LOUIS,Renganaden Seeneevassen,Royal St from Sun Yat Sen St to Edgar Laurent Street ,11613
PORT LOUIS,Renganaden Seeneevassen,S.S.Ramgoolam St from Sun Yat Sen St to Sir Edgar Laurent Street,11613
PORT LOUIS,Renganaden Seeneevassen,Sir Edgar Laurent St from SSR St to Mariamen Temple Street,11613
Old Grand Port,Belle Vue /Kenya,,51401
Old Grand Port,Cite NHDC,,51402
Old Grand Port,Debarcadere,,51403
Old Grand Port,Ferney,,51404
Old Grand Port,Le Vallon,,51405
Old Grand Port,Old Grand Port,,51406
PORT LOUIS,Renganaden Seeneevassen,Sun Yat Sen St from SSR St Trunk Road,11613
PORT LOUIS,Renganaden Seeneevassen,Ellacin Street ( Ex Barbeau St ) From S.S. Ramgoolam St Trunk Road.,11613
PORT LOUIS,Renganaden Seeneevassen,Farquahar Street ,11613
PORT LOUIS,Renganaden Seeneevassen,Guai Street,11613
PORT LOUIS,Residence Coquillage,,11131
PORT LOUIS,Roche Bois  1,Abattoir Rd from Trunk Rd to Baie Du Tombeau Rd,11614
PORT LOUIS,Roche Bois  1,Arrignet Street ,11614
PORT LOUIS,Roche Bois  1,Baie Du Tombeau Rd From Round About to Pont Bruniquel .,11614
PORT LOUIS,Roche Bois  1,Balisage Street ,11614
PORT LOUIS,Roche Bois  1,C Suzor Street ,11614
PORT LOUIS,Roche Bois  1,Cemetry Rd ,11614
PORT LOUIS,Roche Bois  1,De Candray,11614
PORT LOUIS,Roche Bois  1,Debonchor Rd from Abattoir Road to Desperoux St  ,11614
PORT LOUIS,Roche Bois  1,Elysee Street ,11614
PORT LOUIS,Roche Bois  1,J.Serret Street ,11614
PORT LOUIS,Roche Bois  1,Juliet E. August Street ,11614
PORT LOUIS,Roche Bois  1,Latanier River From Trunk Road to the sea,11614
PORT LOUIS,Roche Bois  1,National Rd ,11614
PORT LOUIS,Roche Bois  1,Souchon Street ,11614
PORT LOUIS,Roche Bois  1,Terre Rouge River from Trunk Road to the sea,11614
PORT LOUIS,Roche Bois  1,Trunk Road Western Side from Latanier River to Ruisseau Terre Rouge,11614
PORT LOUIS,Roche Bois  1,Victor Albert Street ,11614
PORT LOUIS,Roche Bois  1,Vaudagne Steet ,11614
PORT LOUIS,Roche Bois 2,Abattoir Road from Latanier River to Trunk Road,11703
PORT LOUIS,Roche Bois 2,Adelaide Street,11703
PORT LOUIS,Roche Bois 2,Alfred Bernard Street,11703
PORT LOUIS,Roche Bois 2,Balisage Road from Trunk Road to Batterie Casse Street,11703
PORT LOUIS,Roche Bois 2,Barry Street,11703
PORT LOUIS,Roche Bois 2,Batterie CassÃ© CHA,11703
PORT LOUIS,Roche Bois 2,Baxipea Street,11703
PORT LOUIS,Roche Bois 2,Benitier Street,11703
PORT LOUIS,Roche Bois 2,Blanche Street,11703
PORT LOUIS,Roche Bois 2,Blue Marlin Street,11703
PORT LOUIS,Roche Bois 2,Bonnefin Street,11703
PORT LOUIS,Roche Bois 2,Chapelle Street,11703
PORT LOUIS,Roche Bois 2,Cocoterie Road,11703
PORT LOUIS,Roche Bois 2,Constance Street,11703
PORT LOUIS,Roche Bois 2,Desboucher Street from Meenatchee Amen to Trunk Road,11703
PORT LOUIS,Roche Bois 2,Descarrieres Street,11703
PORT LOUIS,Roche Bois 2,Despierres Street,11703
PORT LOUIS,Roche Bois 2,Desroses Street,11703
PORT LOUIS,Roche Bois 2,Dupont Street,11703
PORT LOUIS,Roche Bois 2,Eastern Side of Mohameddan Cemetery from Mariamen Temple to Ruisseau Terre Rouge,11703
PORT LOUIS,Roche Bois 2,Flamboyant Street,11703
PORT LOUIS,Roche Bois 2,Fortune Street,11703
PORT LOUIS,Roche Bois 2,Guillot Street,11703
PORT LOUIS,Roche Bois 2,Hon. Felix Barbe Street,11703
PORT LOUIS,Roche Bois 2,Impasse Cimetiere,11703
PORT LOUIS,Roche Bois 2,Impasse Cocoterie,11703
PORT LOUIS,Roche Bois 2,John Brodie Street,11703
PORT LOUIS,Roche Bois 2,Julius Bonchera Street,11703
PORT LOUIS,Roche Bois 2,Kamaya Street,11703
PORT LOUIS,Roche Bois 2,Koenig Street,11703
PORT LOUIS,Roche Bois 2,Latanier River from Nicolay Road to Trunk Road,11703
PORT LOUIS,Roche Bois 2,Latanier Street,11703
PORT LOUIS,Roche Bois 2,Lavaud Street,11703
PORT LOUIS,Roche Bois 2,Leonce Allas Street,11703
PORT LOUIS,Roche Bois 2,Lesur Street,11703
PORT LOUIS,Roche Bois 2,Lobster Street,11703
PORT LOUIS,Roche Bois 2,Mariamen Temple Road ,11703
PORT LOUIS,Roche Bois 2,Maurice Street,11703
Nouvelle France,Bemanique,,51301
Nouvelle France,Bissoondoyalrd,,51302
Nouvelle France,Commelonne,,51303
Nouvelle France,Grand Port Rd,,51304
Nouvelle France,Kanpur,,51305
Nouvelle France,La Peyre,,51306
Nouvelle France,Morc B.Climat,,51307
Nouvelle France,N.France,,51309
Nouvelle France,N.H.D.C N.France,,51308
Nouvelle France,Pont Colville,,51310
Nouvelle France,Residence U.Park,,51311
Nouvelle France,Savanne Rd,,51312
Nouvelle France,Seegoolam Rd,,51313
Olivia,Camp Beau Bois,,41401
Olivia,Camp Jakeeree,,41402
Olivia,CHA + (state land),,41403
Olivia,Deep River S.E,,41404
Olivia,EDC ,,41405
Olivia,Kewal Nagar (Belle Rive),,41406
Olivia,la Nourrice,,41407
Olivia,Louis Renaud,,41408
Olivia,Morc Deep River,,41409
Olivia,Morc Hamid,,41410
Olivia,Morc Louis Renaud,,41411
Olivia,Morc Trois Ilots****,,41412
Olivia,Morc VRS Kewal Nagar,,41413
Olivia,Olivia,,41414
Olivia,Plaines Bananes,,41415
Olivia,Rousset Rd (olivia),,41416
Olivia,SILWF - Olivia,,41417
Olivia,Trois Ilots,,41418
PORT LOUIS,Roche Bois 2,Octopus Street,11703
PORT LOUIS,Roche Bois 2,Palmier Street,11703
PORT LOUIS,Roche Bois 2,Pamma Street,11703
PORT LOUIS,Roche Bois 2,Pellegrin Street (1),11703
PORT LOUIS,Roche Bois 2,Pellegrin Street (2),11703
PORT LOUIS,Roche Bois 2,Pipou Street,11703
PORT LOUIS,Roche Bois 2,Reverand Robert Giraud Street,11703
PORT LOUIS,Roche Bois 2,Roche Terre Street,11703
PORT LOUIS,Roche Bois 2,Ruisseau Terre Rouge from Trunk Road to Mohameddan Cemetry,11703
PORT LOUIS,Roche Bois 2,Shand Street,11703
PORT LOUIS,Roche Bois 2,St Famille Street,11703
PORT LOUIS,Roche Bois 2,St Martin Street,11703
PORT LOUIS,Roche Bois 2,Talipot Street,11703
PORT LOUIS,Roche Bois 2,Tamarind Street,11703
PORT LOUIS,Roche Bois 2,Trunk Road Eastern Side from latanier River to Ruisseau Terre Rouge,11703
PORT LOUIS,Roche Bois 2,Whales Street,11703
PORT LOUIS,Royal College,,11322
PORT LOUIS,Ruisseau des Creoles,Conde Street,11323
PORT LOUIS,Ruisseau des Creoles,D'Alambert Street from Dentrecastaux Street to Conde Street,11323
PORT LOUIS,Ruisseau des Creoles,D'Entrecastaux Street from Petrichier Square to Souillac Street (Western Side),11323
PORT LOUIS,Ruisseau des Creoles,Deschartes Street from Petrichier Square to Lord Kitchener Street,11323
PORT LOUIS,Ruisseau des Creoles,E Bouchet Street,11323
PORT LOUIS,Ruisseau des Creoles,Ruisseau des Creoles Street,11323
PORT LOUIS,Ruisseau des Creoles,Souillac Street from Deschartes Street to D'Entrecastaux Eastern Side,11323
PORT LOUIS,Soreze,,11225
PORT LOUIS,St Croix 1,Capitaine Street,11704
PORT LOUIS,St Croix 1,Dagorne Street,11704
PORT LOUIS,St Croix 1,Ducray Street,11704
PORT LOUIS,St Croix 1,Impasse Nicolay,11704
PORT LOUIS,St Croix 1,Latanier Lane,11704
PORT LOUIS,St Croix 1,Latanier River from Route des Palplemousses to Mariamen Temple,11704
PORT LOUIS,St Croix 1,Mariamen Temple (Southern part) from Round About to Latanier River,11704
PORT LOUIS,St Croix 1,Pamplemousses Road from Latanier River to Round About,11704
PORT LOUIS,St Croix 1,Peros Banos Street,11704
PORT LOUIS,St Croix 1,Tromelin Street,11704
PORT LOUIS,St Croix 2,Avenue Pere Laval from Terre Rouge Road to Canal Bathurst,11705
PORT LOUIS,St Croix 2,Champ Ville Street,11705
PORT LOUIS,St Croix 2,Coteau Street,11705
PORT LOUIS,St Croix 2,Desrose Street,11705
PORT LOUIS,St Croix 2,Dr. S. Ramgoolam Street,11705
PORT LOUIS,St Croix 2,La Prairie Street,11705
PORT LOUIS,St Croix 2,Latanier River from Pamplemousses Street to off Pieton Pere Laval,11705
PORT LOUIS,St Croix 2,latanier Street,11705
PORT LOUIS,St Croix 2,L'oiseau Street,11705
PORT LOUIS,St Croix 2,Pamplemousses Street (Eastern Side) from latanier River to Ruisseau Terre Rouge,11705
PORT LOUIS,St Croix 2,Pieton Pere Laval Southern Part from Canal Bathurst Street to P. Perelaval 2,11705
PORT LOUIS,St Croix 2,Sophie Street,11705
PORT LOUIS,St Croix 2,Terre Rouge River from Terre Rouge River to Impasse Canal,11705
PORT LOUIS,St Croix 2,The whole of Canal Bathurst,11705
PORT LOUIS,St Croix 2,W. Sophie Street,11705
PORT LOUIS,St Croix 3,A. Leung Pew Street,11706
PORT LOUIS,St Croix 3,Arpenteur Street,11706
PORT LOUIS,St Croix 3,B. Brette Street,11706
PORT LOUIS,St Croix 3,Capucine Street,11706
PORT LOUIS,St Croix 3,CHA Mamzelle,11706
PORT LOUIS,St Croix 3,Higginson Street,11706
PORT LOUIS,St Croix 3,Isidore Bougnet Street,11706
PORT LOUIS,St Croix 3,Louis Bandot Street,11706
PORT LOUIS,St Croix 3,Mamzelle Street,11706
PORT LOUIS,St Croix 3,New St Marie Street,11706
PORT LOUIS,St Croix 3,Northern Side Pieton Pere Laval from St Croix Rd to Canal Bathurst,11706
PORT LOUIS,St Croix 3,Pere Laval Road from Canal Bathurst to Cavans,11706
PORT LOUIS,St Croix 3,St Croix Church,11706
PORT LOUIS,St Croix 3,St Croix Road,11706
PORT LOUIS,St Croix 3,St Marie Street from Canal Bathurst to St Croix Road,11706
PORT LOUIS,St Croix 3,Terre Rouge River,11706
PORT LOUIS,St Croix 3,The whole of Capitaine Pontre Street,11706
PORT LOUIS,St Croix 3,The whole of St Croix Road,11706
PORT LOUIS,St Croix 4,Bassin Road,11707
PORT LOUIS,St Croix 4,CHA Le Cornu,11707
PORT LOUIS,St Croix 4,Charles Beguinot Street,11707
PORT LOUIS,St Croix 4,Emile Basset Street,11707
PORT LOUIS,St Croix 4,Le Cornu Street,11707
PORT LOUIS,St Croix 4,Mamode Hossen Ellam Street,11707
PORT LOUIS,St Croix 4,Pieton Pere Laval 2,11707
PORT LOUIS,St Croix 4,Rev Pere Rivault Street,11707
PORT LOUIS,St Croix 4,Richard Miles Brown Street,11707
PORT LOUIS,St Croix 5,A.L Boulle Street,11708
PORT LOUIS,St Croix 5,Acajou Street (Star),11708
PORT LOUIS,St Croix 5,Bois de Natte Street,11708
PORT LOUIS,St Croix 5,Campeches Street,11708
PORT LOUIS,St Croix 5,Captain Pontre Lane,11708
PORT LOUIS,St Croix 5,Colophane Street,11708
PORT LOUIS,St Croix 5,Eastern Side of Mayflower,11708
PORT LOUIS,St Croix 5,Eucalyptus Street,11708
PORT LOUIS,St Croix 5,Gabriel Bouic Street,11708
PORT LOUIS,St Croix 5,Jamblon Street,11708
PORT LOUIS,St Croix 5,Naushad Street ,11708
PORT LOUIS,St Croix 5,Palissandre Street,11708
PORT LOUIS,St Croix 5,Privette Street,11708
PORT LOUIS,St Croix 5,Quatre Epices Street,11708
PORT LOUIS,St Croix 5,St Marie Road North from St Croix Road to La Cure,11708
PORT LOUIS,St Croix 5,St Marie Street II,11708
PORT LOUIS,St Croix 5,Tatamaka Street,11708
PORT LOUIS,St Denis,Avice Street,11411
PORT LOUIS,St Denis,Bon Cherville Street,11411
PORT LOUIS,St Denis,Breard Street,11411
PORT LOUIS,St Denis,Duclos Street,11411
PORT LOUIS,St Denis,Gayasing Street,11411
PORT LOUIS,St Denis,Gravier Street (S. Sivananda Street),11411
PORT LOUIS,St Denis ,Shah - E - Islam Street,11411
PORT LOUIS,St Denis ,Sookdeo Bissoondoyal Street,11411
PORT LOUIS,St Denis ,St Denis Street from Labourdonnais Street to M. Gandhi Street,11411
PORT LOUIS,St Denis ,Tulsidas Street,11411
PORT LOUIS,St Georges,A. FellafÃ© Street,11324
PORT LOUIS,St Georges,A.L. Osman Street,11324
PORT LOUIS,St Georges,Beaugeard Street (Northern part) from Labourdonnais Street to Mere Barthelemy Street,11324
PORT LOUIS,St Georges,Champ de Lovt Street,11324
PORT LOUIS,St Georges,Colin Barthelemy Street,11324
PORT LOUIS,St Georges,De Courney Street from Beaugeard Street to St Georges Street,11324
PORT LOUIS,St Georges,Dechazal Street,11324
PORT LOUIS,St Georges,Desroches Street from Beaugeard Street to Ruisseau du Pouce,11324
PORT LOUIS,St Georges,Dr Auguste Rouget Street,11324
PORT LOUIS,St Georges,Dr Yves Cantin Street,11324
PORT LOUIS,St Georges,Edith Cavell Street from Ponce Stream to Mere Barthelemy Street,11324
PORT LOUIS,St Georges,Henri Le Sidaner Street from Beaugeard Street to Volcy Pougnet,11324
PORT LOUIS,St Georges,La Brillane Street,11324
PORT LOUIS,St Georges,Labourdonnais Street (Western Side) from Ruisseau du Pouce to Beaugeard Street,11324
PORT LOUIS,St Georges,Mere Barthelemy Street Eastern side from Beaugeard Street to ruisseau du Pouce,11324
PORT LOUIS,St Georges,N. Decotter Street,11324
PORT LOUIS,St Georges,Nahaboo Solim Street from Beaugeard Street to Raoul Rivet,11324
Notre Dame,Church Square,,22001
Notre Dame,Montee Jolie,,22002
Notre Dame,Morc L'Amitie,,22004
Notre Dame,Morc Teeluck,,22006
Notre Dame,Morc VRS,,22007
Notre Dame,Morc. Kitchine,,22003
Notre Dame,Morc.La Rochelle,,22005
Notre Dame,N.H.D.C Baillache,,22009
Notre Dame,N.H.D.C.Church,,22010
Notre Dame,N.H.D.C.Valton,,22011
Notre Dame,Notre Dame,,22008
Notre Dame,Platform,,22012
PORT LOUIS,St Georges,Poivre Street,11324
PORT LOUIS,St Georges,Poupinel de Valence from Beaugeard Street to Terney,11324
PORT LOUIS,St Georges,Raoul Rivet Street from Mere Barthelemy Street to Labourdonnais Street,11324
PORT LOUIS,St Georges,Ruisseau du Pouce from Mere Barthelemy Street to Labourdonnais Street,11324
PORT LOUIS,St Georges,St Georges Street from Mere Barthelemy Street to Labourdonnais Street,11324
PORT LOUIS,St Georges,St Louis Street from Mere Barthelemy Street to Champs de Lovt,11324
PORT LOUIS,St Georges,Swan Street,11324
PORT LOUIS,St Georges,Union Street,11324
PORT LOUIS,St Georges,Victor de la Faye Street,11324
PORT LOUIS,Supreme Court,,11325
PORT LOUIS,SVICC,,11226
PORT LOUIS,Terrason 1 (west),Martello Street (southern side),11133
PORT LOUIS,Terrason 1 (west),Multipliant Street ,11133
PORT LOUIS,Terrason 1 (west),Orchide Street ,11133
PORT LOUIS,Terrason 1 (west),Palmiers Street ,11133
PORT LOUIS,Terrason 1 (west),Pellican ,11133
PORT LOUIS,Terrason 1 (west),Short Lane ,11133
PORT LOUIS,Terrason 1 (west),Sparrow Street ,11133
PORT LOUIS,Terrason 1 (west),Terasson,11133
PORT LOUIS,Terrason 1 (west),Tulipes Street ,11133
PORT LOUIS,Terrasson Lower,Iris Street ,11227
PORT LOUIS,Terrasson Lower,Lauriers Street ,11227
PORT LOUIS,Terrasson Lower,Rosiers Street ,11227
PORT LOUIS,Terrasson Lower,Terrasson Street ,11227
PORT LOUIS,The Peninsula (Tower),,11326
PORT LOUIS,Tranquebar,Bathfield Street,11410
PORT LOUIS,Tranquebar,C.A. Piperdy Street,11410
PORT LOUIS,Tranquebar,Chankin Street,11410
PORT LOUIS,Tranquebar,Chateau D'Eau Street,11410
PORT LOUIS,Tranquebar,Cotillon Lane,11410
PORT LOUIS,Tranquebar,Cotillon Street,11410
PORT LOUIS,Tranquebar,Cremation Ground Street,11410
PORT LOUIS,Tranquebar,Doorundar Street,11410
PORT LOUIS,Tranquebar,Guillaume Giquel from Ruisseau du Pouce to M. Gandhi Street,11410
PORT LOUIS,Tranquebar,John Kennedy Street,11410
PORT LOUIS,Tranquebar,Langlois Street,11410
PORT LOUIS,Tranquebar,Mahe (Seychelles) Street,11410
PORT LOUIS,Tranquebar,Nazareth Street,11410
PORT LOUIS,Tranquebar,Pouce Road,11410
PORT LOUIS,Tranquebar,Prince Alfred Street,11410
PORT LOUIS,Tranquebar,Prince de Gale Street,11410
PORT LOUIS,U.T.M,,11134
PORT LOUIS,Upper Vallee Des Pretes ,Chitrakoot,11818
PORT LOUIS,Upper Vallee Des Pretes ,Valmicki Rd,11818
PORT LOUIS,Vallee Pitot 1, Alma Street from Bvd Victoria to dry watercourse,11504
PORT LOUIS,Vallee Pitot 1, Inkerman st from Blvd victoria up to Chalets,11504
PORT LOUIS,Vallee Pitot 1, Italy,11504
PORT LOUIS,Vallee Pitot 1,Iqbal Street,11504
PORT LOUIS,Vallee Pitot 1, Lawry Cole Street,11504
PORT LOUIS,Vallee Pitot 1,Malakoff  from Bonaparte to dry river,11504
PORT LOUIS,Vallee Pitot 1, Poland,11504
PORT LOUIS,Vallee Pitot 1,Rajkumar Gajadhur ,11504
PORT LOUIS,Vallee Pitot 1,Chalets,11504
PORT LOUIS,Vallee Pitot 1,Cornet,11504
PORT LOUIS,Vallee Pitot 1,Hungarian,11504
PORT LOUIS,Vallee Pitot 1,Peltes Street,11504
PORT LOUIS,Vallee Pitot 1,Sunny Razvi street,11504
PORT LOUIS,Vallee Pitot 1,Varsovie ,11504
PORT LOUIS,Vallee Pitot 1,Crimea up to Ruisseau. ,11504
PORT LOUIS,Vallee Pitot 1,Hongrois street up to Ruisseau,11504
PORT LOUIS,Vallee Pitot 1,Comets street,11504
Nouvelle Decouverte,Nouvelle Decouverte,,81201
PORT LOUIS,Vallee Pitot 1,Galdemar,11504
PORT LOUIS,Vallee Pitot 1,Iqbql street,11504
PORT LOUIS,Vallee Pitot 1,Sauzier,11504
PORT LOUIS,Vallee Pitot 2,Beau Jardinier Street,11505
PORT LOUIS,Vallee Pitot 2,Blvd Hugon from Blvd Victoria up to mountain,11505
PORT LOUIS,Vallee Pitot 2,Blvd Pitot from Blvd Victoria up to mountain,11505
PORT LOUIS,Vallee Pitot 2,Edward St ,11505
PORT LOUIS,Vallee Pitot 2,Kissoondary Lane,11505
PORT LOUIS,Vallee Pitot 2,Malakoff st from dry Ruisseau up to canal Englais ,11505
PORT LOUIS,Vallee Pitot 2, Mamelon Vert,11505
PORT LOUIS,Vallee Pitot 2, Palmyre St,11505
PORT LOUIS,Vallee Pitot 2, Sunny Hill Lane,11505
PORT LOUIS,Vallee Pitot 2, Carpenter Lane,11505
PORT LOUIS,Vallee Pitot 3, Brancion ,11506
PORT LOUIS,Vallee Pitot 3, Imp. Orient ,11506
PORT LOUIS,Vallee Pitot 3,Orient St,11506
PORT LOUIS,Vallee Pitot 3,Tagore Ave,11506
PORT LOUIS,Verger Mangue,,11135
PORT LOUIS,Victoria Square,Perdreau Street,11327
PORT LOUIS,Victoria Square,Dumas Street,11327
PORT LOUIS,William Newton Region,ChaussÃ©e Street from Ruisseau du Pouce to Intendance Street,11328
PORT LOUIS,William Newton Region,Church Street from Mgr Gonin Street to Labourdonnais Street,11328
PORT LOUIS,William Newton Region,Dauphine Street from Mgr Gonin to Jules Koenig Street,11328
PORT LOUIS,William Newton Region,Dr Ferriere Street,11328
PORT LOUIS,William Newton Region,Duke of Edinburgh Street,11328
PORT LOUIS,William Newton Region,Farquhar Street Corderie Street to Duke of Edinburgh Street,11328
PORT LOUIS,William Newton Region,Farquhar Street from Duke of Edinburgh to Corderie Street,11328
PORT LOUIS,William Newton Region,Felicien Mallefille Street,11328
PORT LOUIS,William Newton Region,George Guibert Street,11328
PORT LOUIS,William Newton Region,Georges Guibert Street upto Mgr Gonin,11328
PORT LOUIS,William Newton Region,Intendance Street,11328
PORT LOUIS,William Newton Region,John Kennedy from Ruisseau du pouce to Intendance Street,11328
PORT LOUIS,William Newton Region,La Poudriere Street,11328
PORT LOUIS,William Newton Region,Laroquer Street,11328
PORT LOUIS,William Newton Region,Lislet Geoffroy Street upto Mgr Gonin,11328
PORT LOUIS,William Newton Region,Lord Baden Powell Street,11328
PORT LOUIS,William Newton Region,Maillard Street,11328
PORT LOUIS,William Newton Region,Mere Barthelemy Street from Ruisseau du Pouce to Poudriere Street,11328
PORT LOUIS,William Newton Region,Pope Hennessy Street from Labourdonnais Street to Dauphine Street,11328
PORT LOUIS,William Newton Region,Queen Street from Croderie Street to Duke of Edinburgh Street,11328
PORT LOUIS,William Newton Region,Royal Street from Corderie Street to Duke of Edinburgh Street,11328
PORT LOUIS,William Newton Region,Sir Virgile Naz Street from Mgr Gonin Street to Jules Koenig Street,11328
PORT LOUIS,William Newton Region,Suffren Street from Mgr Gonin to Pope Hennessy Street,11328
PORT LOUIS,William Newton Region,Vieux Conseil Street,11328
PORT LOUIS,William Newton Region,Winston Churchil Street,11328
Morc St Andre ,Cite Cremation,,20901
Morc St Andre ,Morc St Andre East,,20902
Morc St Andre ,Morc St Andre West,,20903
Morc St Andre ,Morc VRS,,20904
Montagne Blanche,Cite Saint Joseph,,80901
Montagne Blanche,Montagne Blanche,,80902
Montagne Blanche,Morc Sans Souci,,80903
Montagne Blanche,Petit Paquet,,80905
Montagne Blanche,Sans Souci,,80906
New Grove,Astroea Rochecouste,,51201
New Grove,Bamboo,,51202
New Grove,Bois Dâoiseaux,,51203
New Grove,Business Park,,51204
New Grove,Cite La Rosa,,51205
New Grove,Cite Mont Fertile,,51206
New Grove,Cite NHDC,,51207
New Grove,Deux Bras,,51208
New Grove,Deux Bras S.E,,51209
New Grove,Gros Billot,,51210
New Grove,Gros Billot Branch,,51211
New Grove,Kalimaye,,51212
New Grove,La Rosa,,51213
New Grove,Mare Chicose,,51214
New Grove,Mont Fertille,,51215
New Grove,Morc Balance,,51216
New Grove,Morc Dreepaul,,51217
New Grove,Morc Ganga,,51218
New Grove,Morc Gaytree,,51219
New Grove,Morc Mauripark,,51220
New Grove,Morc VRS,,51221
New Grove,New Grove,,51222
New Grove,Parasol,,51223
New Grove,Siding,,51224
Midlands,Midlands,,52501
Midlands,Morc Ferret,,52502
Midlands,Morc Ramdanee,,52503
Midlands,Morc St Therese,,52504
Melrose,Melrose,,80701
Melrose,NHDC Melrose,,80702
Medine Camp de Masque,Bel Etang,,41201
Medine Camp de Masque,Medine,,41202
Medine Camp de Masque,Mont Ida,,41203
Mare Tabac,Aspral ,,51101
Mare Tabac,Camp Francois,,51102
Mare Tabac,Cite CHA,,51103
Mare Tabac,Cite Greenwood,,51104
Mare Tabac,Gros Bois  Rd,,51105
Mare Tabac,Joli Bois,,51106
Mare Tabac,Jugoo Bhunjun,,51107
Mare Tabac,Mare Tabac,,51108
Mare Tabac,Morc SIT,,51109
Mare Tabac,NHDC Mare Tabac ,,51110
Mare La Chaux,Camp Creole,,41101
Mare La Chaux,Mare La Chaux,,41102
Mare D'Albert,Allee Coco,,51001
Mare D'Albert,Cite EDC,,51002
Mare D'Albert,Cite Mare D'Albert,,51003
Mare D'Albert,Gros Bois S.E,,51004
Mare D'Albert,Les Vergers de Gros Bois,,51005
Mare D'Albert,Mare D'Albert,,51006
Mare D'Albert,Morc Gokool,,51007
Mare D'Albert,Morc Grove,,51008
Mare D'Albert,Morc Piscine,,51009
Mare D'Albert,Morc Samlaul,,51010
Mare D'Albert,Morc Toolsee,,51011
Mare D'Albert,Rampe Le Moirt,,51012
Mahebourg,Allee Gheude,,50801
Mahebourg,Blue Bay,,50802
Mahebourg,Bois D'oiseaux,,50803
Mahebourg,Carreau Manioc,,50804
Mahebourg,Cent Gaulettes,,50805
Mahebourg,Cite La Chaux,,50806
Mahebourg,Debarcadere,,50807
Mahebourg,Hospital,,50808
Mahebourg,Ile aux deux cocos,,50809
Mahebourg,Mahebourg,,50810
Mahebourg,Maurice st,,50811
Mahebourg,Morc. Lorette,,50812
Mahebourg,Museum,,50813
Mahebourg,Pointe Canon,,50814
Mahebourg,Pointe D'Esny,,50815
Mahebourg,Pte des Regates,,50816
Mahebourg,Pte Jerome,,50817
Mahebourg,Quartier,,50818
Mahebourg,Remy Ollier,,50819
Mahebourg,Tombeau,,50820
Mahebourg,Ville Noire,,50821
Mahebourg,Villeneuve,,50822
Mahebourg,Waterfront,,50823
Moka,Appartment Le Ravin,,80801
Moka,Baboolall RD,,80802
Moka,Bagatelle Mall,,80832
Moka,Bagatelle Office Park,,80832
Moka,Bocage,,80803
Moka,Bois Cheri ,,80804
Moka,Bon Air(+ villa road),,80805
Moka,Camp Samy,,80806
Moka,Chantenay,,80807
Moka,Cite Mahatma Gandhi,,80808
Moka,Cite Telfair,,80809
Moka,Gentilly,,80810
Moka,Gentilly Estate (new morc MDA),,80811
Moka,Les Allees d'Helvetia 1,,80840
Moka,Les Allees d'Helvetia 2,,80838
Moka,Les Allees d'Helvetia 3,,80839
Moka,Martindale,,80833
Moka,Mauritius Broadcasting Corporation( M B C ),,80812
Moka,Moka Business Centre,,80813
Moka,MOKA EYE HOSPITAL,,80814
Moka,Moka Village,,80815
Moka,Morc Bagatelle,,80816
Moka,Morc Bega-Ebene,,80817
Moka,Morc Bout Du Monde-Ebene,,80818
Moka,Morc Eureka,,80819
Moka,Morc Hein,,80820
Moka,Morc Mon Desert,,80821
Moka,Morc Mon Plaisir,,80822
Moka,Morc Noel,,80823
Moka,Morc Paratian,,80824
Moka,Mount ORY ,,80825
Moka,Pont Souillac,,80826
Moka,Railway Square,,80827
Moka,Reduit,,80835
Moka,Residence Cybervillage,,80828
Moka,STATE HOUSE,,80836
Moka,Telfair ,,80829
Moka,University Of Mauritius,,80837
Moka,Valory,,80830
Moka,Vinson,,80831
Long Mountain,Baillache,,20801
Long Mountain,Boulingrin,,20802
Long Mountain,C.H.A  ,,20804
Long Mountain,Camp la Boue/ Vallee du Paradis,,20803
Long Mountain,Cite Social Welfare,,20805
Long Mountain,Descoins,,20806
Long Mountain,E.D.C.  A,,20807
Long Mountain,E.D.C.  B,,20808
Long Mountain,L'Industrie,,20810
Long Mountain,Les Mariannes,,20809
Long Mountain,Morc. Baillache,,20811
Long Mountain,Morc. Nouvelle,,20812
Long Mountain,Robinson (Left Side),,20813
Long Mountain,Valton,,20814
Le Morne,Dilo Pourie,,91201
Le Morne,La Prairie,,91204
Le Morne,Le Morne Brabant,,91202
Le Morne,Le Morne Village,,91203
Le Morne,Morc Gambien,,91205
Laventure,Laventure,,41001
Mapou,Cite S.I.L.W.F,,31801
Mapou,Ferret,,31802
Mapou,Labourdonnais,,31803
Mapou,Mapou,,31804
Mapou,Morc B.Plateau,,31805
Mapou,Morc BelleVue,,31806
Mapou,Morc Hiilside,,31807
Mapou,NHDC,,31808
Lalmatie,Belvedere,,42603
Lalmatie,Grand Bas Fond(southern part),,42604
Lalmatie,Lalmatie,,42601
Lalmatie,Mission Cross,,42602
La Laura / Malenga,La Laura,,80501
La Laura / Malenga,LA LAURA/Riv Baptiste,,80502
La Laura / Malenga,Malinga,,80503
La Gaulette,Coteau Raffin,,91101
La Gaulette,La Gaulette,,91102
La Gaulette,Morc Desveaux,,91103
La Gaulette,Morc La Fleche,,91104
La Flora,Bostom Rd,,61701
La Flora,Cooperative Rd,,61702
La Flora,Kanhye Rd,,61703
La Flora,La Flora,,61704
La Flora,Matoo Rd,,61705
La Flora,Pamplemousses Rd,,61706
La Flora,Rioux,,61707
La Flora,Seebaruth Rd,,61708
L'Esperance Trebuchet,L'Esperance Trebuchet,,30301
L'Escalier,Allée Jacques,,61401
L'Escalier,Camp La Hache,,61402
L'Escalier,Camp Tagore,,61403
L'Escalier,Charles Rd,,61404
L'Escalier,Chattorgoon,,61405
L'Escalier,Cite EDC,,61406
L'Escalier,Cite Longtill,,61407
L'Escalier,Cite Paul & Virginie,,61408
L'Escalier,L'Escalier,,61412
L'Escalier,La Barraque S.E,,61409
L'Escalier,La Chapelle,,61410
L'Escalier,La Sourdine,,61411
L'Escalier,Morc Barbe,,61413
L'Escalier,Morc La Sourdine,,61414
L'Escalier,Morc Tagore,,61415
L'Escalier,Savannah,,61416
L'Escalier,Savannah S.E,,61417
Gros Cailloux,Croisee Chebel,,90701
Gros Cailloux,Gros Cailloux,,90702
Gros Cailloux,Morc Domah,,90703
Grande Retraite,Bois d'Oiseaux,,43302
Grande Retraite,Petite retraite,,43303
L'Avenir,Beau Bois,,80401
L'Avenir,L'Avenir,,80402
Grand Sable,Camp Balma,,50601
Grand Sable,Camp Pierre,,50602
Grand Sable,Grand Sable,,50603
Grand Sable,Petit Sable,,50604
Grand Sable,Plaine Des Roches,,50605
Grand Sable,Pointe Des Roches,,50606
Grand Bois,Allee Jacques,,60501
Grand Bois,Camp Bananes,,60502
Grand Bois,College Lane,,60503
Grand Bois,Fazerally Road,,60504
Grand Bois,"Grand Bois + boolaky road
",,60505
Grand Bois,La Forge Road,,60506
Grand Bois,"Le Grand Road
",,60507
Grand Bois,Media,,60508
Grand Bois,Morc SIT,,60509
Grand Bois,N.H.D.C Grand Bois,,60510
Grand Bois,N.H.D.C Legrand,,60511
Grand Bois,Old Savanne Rd,,60512
Grand Bois,Sewsagur Rd,,60513
Grand Bois,Young Tow,,60514
Grand Bay,Aquamarine,,30501
Grand Bay,Bain Boeuf,,30503
Grand Bay,Bazar,,30502
Grand Bay,Beau Manguier,,30504
Grand Bay,Camp Carol,,30512
Grand Bay,Camp Harel,,30505
Grand Bay,Camp Huradon,,30509
Grand Bay,Camp Lamour,,30511
Grand Bay,Chemin Vingt Pied,,30513
Grand Bay,Cite CHA,,30507
Grand Bay,Cite EDC,,30506
Grand Bay,Cite Lumiere,,30508
Grand Bay,Coastal Rd,,30510
Grand Bay,Dodo Square,,30514
Grand Bay,La Croisette,,30517
Grand Bay,La Mare Ronde,,30518
Grand Bay,Les Bougainvilliers,,30516
Grand Bay,Les Flamants,,30519
Grand Bay,Macumba,,30544
Grand Bay,Mont Choisy (s.e),,30525
Grand Bay,Mont Choisy Shopping Mall,,30527
Grand Bay,Morc Berth,,30526
Grand Bay,Morc Boucan,,30529
Grand Bay,Morc Chetty,,30537
Grand Bay,Morc Comty,,30541
Grand Bay,Morc Foondun,,30533
Grand Bay,Morc Honore,,30530
Grand Bay,Morc Jaulim,,30540
Grand Bay,Morc Jitsing,,30542
Grand Bay,Morc Le Caleche,,30531
Grand Bay,Morc Le Corsaire,,30524
Grand Bay,Morc Martin,,30528
Grand Bay,Morc Oreb,,30539
Grand Bay,Morc Raffray (a),,30520
Grand Bay,Morc Raffray (b),,30521
Grand Bay,Morc Raffray (c) ,,30522
Grand Bay,Morc Raffray (d),,30523
Grand Bay,Morc Ramdin,,30543
Grand Bay,Morc Swan,,30532
Grand Bay,Morc Toorabally,,30535
Grand Bay,Morc Unicorn,,30534
Grand Bay,Morc Villa Pereybere,,30538
Grand Bay,Moulin Casse,,30536
Grand Bay,Oasis 2 (res),,30545
Grand Bay,Pereybere,,30546
Grand Bay,Pointe D'Azur,,30547
Grand Bay,Racket,,30549
Grand Bay,Richmond Hill,,30548
Grand Bay,Sottise,,30550
Grand Bay,Super U,,30551
Grand Bel Air,Grand Bel Air,,50301
Goodlands,Arya Mandir,,30401
Goodlands,Astoria,,30402
Goodlands,Balkan,,30403
Goodlands,Bois Rouge,,30404
Goodlands,CEB Sq,,30405
Goodlands,Cite Ste Claire,,30406
Goodlands,Domaine du Moulin,,30407
Goodlands,Madame Azor,,30408
Goodlands,Mamzelle Jeanne (Wlk II) &  (Wlk III),,30409
Goodlands,Mapon Leclezio,,30410
Goodlands,Morc Petit Village,,30411
Goodlands,Morc St Antoine,,30412
Goodlands,Mosque Sq,,30413
Goodlands,New Morc Goodlands,,30414
Goodlands,Petit Village,,30415
Goodlands,Plateau,,30416
Goodlands,Railway Sq,,30417
Goodlands,Reservoir,,30418
Goodlands,Soobany Sq,,30419
Goodlands,St Antoine Industrial Zone,,30420
Goodlands,Triangle ,,30421
G.R.S.E,ANAHITA IRS+HOTEL,,40901
G.R.S.E,Beau Champ,,40902
G.R.S.E,Beau Champ S.E (ALTEO),,40903
G.R.S.E,Camp Pecheurs,,40904
G.R.S.E,FOUR SEASONS+HOTEL,,40905
G.R.S.E,Grande River South East,,40906
G.R.S.E,Morc  VRS,,40907
G.R.S.E,Quartier,,40908
Le Hochet,Cite C.H.A,,21801
Le Hochet,Cite Roma,,21802
Le Hochet,Jumbo,,21803
Le Hochet,La Fontaine 23,,21804
Le Hochet,Le Hochet,,21805
Le Hochet,Morc Manick,,21809
Le Hochet,Morc Motee,,21810
Le Hochet,Morc. Foondun,,21806
Le Hochet,Morc. Goolamally 1,,21807
Le Hochet,Morc. Goolamally 2,,21808
Le Hochet,Morc. Raffray 2,,21812
Le Hochet,Morc.Raffray 1,,21811
Le Hochet,Riche Terre,,21813
Le Hochet,Riche Terre Ind Zone,,21814
Le Hochet,Terre Rouge (village),,21815
Grand Gaube,Arya Mandir,,30601
Grand Gaube,Batie,,30602
Grand Gaube,Butte a L'Herbe,,30603
Grand Gaube,Calodyne,,30604
Grand Gaube,Camp Corail ,,30605
Grand Gaube,Camp Madras,,30606
Grand Gaube,Camp Petrol,,30607
Grand Gaube,Cite EDC,,30609
Grand Gaube,Citerne,,30608
Grand Gaube,Complex Melville No 1,,30611
Grand Gaube,Complex Melville No 2,,30612
Grand Gaube,Complex Melville No 3,,30613
Grand Gaube,Complex Melville No 4,,30614
Grand Gaube,Complex Paul et Virginie,,30610
Grand Gaube,Couacaud,,30615
Grand Gaube,Germain,,30616
Grand Gaube,Grand Gaube,,30617
Grand Gaube,John Kennedy,,30618
Grand Gaube,La Lucie Residence,,30619
Grand Gaube,Morc Agnis Phase 1,,30620
Grand Gaube,Nelson,,30621
Grand Gaube,Pere Glorieux,,30622
Grand Gaube,Quartier des Lauriers,,30623
Grand Gaube,Sin Fat,,30625
Grand Gaube,St Jean Bosco,,30624
Grand Gaube,St Joseph Roc en Roc,,30626
Grand Gaube,St Michel,,30627
Fond du Sac,Fond du Sac East,,20601
Fond du Sac,Fond du Sac West,,20602
Fond du Sac,Morc Dilchand,,20603
Ecroignard,Ecroignard,,40801
Flic en Flac,Carriere,,90501
Flic en Flac,Flic en Flac,,90502
Flic en Flac,Hilton Hotel,,90503
Flic en Flac,La Pirogue,,90504
Flic en Flac,Manguiers,,90505
Flic en Flac,Morc Anna 1,,90506
Flic en Flac,Morc Anna 2,,90507
Flic en Flac,Morc Bismic,,90508
Flic en Flac,Morc de Chazal,,90509
Flic en Flac,Morc Palmyre,,90514
Flic en Flac,Morc Safeland 1,,90511
Flic en Flac,Morc Safeland 2,,90512
Flic en Flac,Morc Safeland 3,,90513
Flic en Flac,Mouettes,,90510
Flic en Flac,Residence St Jacques,,90515
Flic en Flac,Sand Hotel,,90516
Flic en Flac,Sofitel Hotel,,90517
Flic en Flac,Souffleurs,,90518
Flic en Flac,Taj and Mahadhiva Hotel,,90519
Flic en Flac,Tourtereaux,,90520
Flic en Flac,Wolmar,,90521
FOREST - SIDE,CAMP BOMBAY,Dr Bour St,74401
FOREST - SIDE,CAMP LAGESSE,Camp Lagesse Lane,74402
FOREST - SIDE,CAMP LAGESSE,Derby Lane,74402
FOREST - SIDE,CAMP LAGESSE,Derby St South (from G Colin to C lagesse),74402
FOREST - SIDE,CAMP LAGESSE,G Duval St from Melish to C Lagesse Lane,74402
FOREST - SIDE,CAMP LAGESSE,Lagesse Lane,74402
FOREST - SIDE,CAMP LAGESSE,Melish St,74402
FOREST - SIDE,CAMP LE JUGE,Bakurally St,74403
FOREST - SIDE,CAMP LE JUGE,Camp le Juge St,74403
FOREST - SIDE,CELICOURT ANTELME,Acajou Lane,74444
FOREST - SIDE,CELICOURT ANTELME,Celicourt Antelme,74444
FOREST - SIDE,CELICOURT ANTELME,Finch Lane (Imp Raffray),74444
FOREST - SIDE,CELICOURT ANTELME,Garage UBS,74444
FOREST - SIDE,CELICOURT ANTELME,Impasse Bissessur,74444
FOREST - SIDE,CELICOURT ANTELME,Imperial College,74444
FOREST - SIDE,CELICOURT ANTELME,Marygold St,74444
FOREST - SIDE,CELICOURT ANTELME,Orchidee,74444
FOREST - SIDE,CELICOURT ANTELME,Royal Road from Fire Stn to Pasteur,74444
FOREST - SIDE,CITE ATLEE,Ampere Ave,74405
FOREST - SIDE,CITE ATLEE,Daffodil St,74405
FOREST - SIDE,CITE ATLEE,Greenwood Ave,74405
FOREST - SIDE,CITE ATLEE,Gustave Colin (south) from Ampere St to street F,74405
FOREST - SIDE,CITE ATLEE,J.S Rennie St,74405
FOREST - SIDE,CITE ATLEE,Jean XX1 Ave,74405
FOREST - SIDE,CITE ATLEE,Street F,74405
FOREST - SIDE,CITE ATLEE,Street G,74405
FOREST - SIDE,CITE CAMP LE JUGE,Gustave Colin (south) from Oak ave to Rivulet,74406
FOREST - SIDE,CITE CAMP LE JUGE,Gustave Colin (south) from Oak ave to Rivulet),74406
FOREST - SIDE,CITE CAMP LE JUGE,Ebony,74406
FOREST - SIDE,CITE CAMP LE JUGE,Oaks,74406
FOREST - SIDE,CITE JOACHIM,Ampere Street,74508
FOREST - SIDE,CITE JOACHIM,Blakett St.,74508
FOREST - SIDE,CITE JOACHIM,Curie Street,74508
FOREST - SIDE,CITE JOACHIM,Darwin Street,74508
FOREST - SIDE,CITE JOACHIM,Edison Street,74508
FOREST - SIDE,CITE JOACHIM,Halley Street,74508
FOREST - SIDE,CITE JOACHIM,Ingersol Street,74508
FOREST - SIDE,CITE JOACHIM,St.F,74508
FOREST - SIDE,CITE JOACHIM,St.G,74508
FOREST - SIDE,CITE LA BRASSERIE,Bach Lane,74409
FOREST - SIDE,CITE LA BRASSERIE,Chopin Lane,74409
FOREST - SIDE,CITE LA BRASSERIE,La Brasserie Rd (south) of Cite La Brasserie,74409
FOREST - SIDE,CITE LA BRASSERIE,Mozart lane,74409
FOREST - SIDE,CITE LA BRASSERIE,Schubert  lane,74409
FOREST - SIDE,CITE LA BRASSERIE,Strauss lane,74409
FOREST - SIDE,CITE ST LUC,Bambous lane,74410
FOREST - SIDE,CITE ST LUC,Cactus lane,74410
FOREST - SIDE,CITE ST LUC,Goyaviers lane,74410
FOREST - SIDE,CITE ST LUC,Ravenal lane,74410
FOREST - SIDE,CITE ST LUC,Sapins lane,74410
FOREST - SIDE,CITE ST LUC,Sir G.Duval St bordering Cite St Luc,74410
FOREST - SIDE,FLAT CEZANNE,,74511
FOREST - SIDE,FLAT RAMDENEE,,74512
FOREST - SIDE,FORST- SIDE 1,G.Froppier (east) from G.Colin to G.Bestel,74513
FOREST - SIDE,FORST- SIDE 1,Gustave Bestel Street,74513
FOREST - SIDE,FORST- SIDE 1,Impasse Derby,74513
FOREST - SIDE,FORST- SIDE 1,Mercury lane,74513
FOREST - SIDE,FORST- SIDE 1,Netupe lane,74513
FOREST - SIDE,FORST- SIDE 1,Impasse Goranah,74513
FOREST - SIDE,FORST- SIDE 1,Bonnefin St from Royal Rd to  G.Froppier St,74513
FOREST - SIDE,FORST- SIDE 1,Camp Franky (Garda) lane,74513
FOREST - SIDE,FORST- SIDE 1,Mahogany lane,74513
FOREST - SIDE,FORST- SIDE 1,S.Pydiah St,74513
FOREST - SIDE,FORST- SIDE 1,G.Colin north from Roya Rd to Froppier,74513
FOREST - SIDE,FORST- SIDE 1,Royal Rd from G. Colin  St to Le Printemps,74513
FOREST - SIDE,FORST- SIDE 1,Derby St from G.Colin St to F.Bonnefin St,74513
FOREST - SIDE,FORST- SIDE 2,Appanah lane,74514
FOREST - SIDE,FORST- SIDE 2,Chandrayah lane,74514
FOREST - SIDE,FORST- SIDE 2,Chandrayah lane 2,74514
FOREST - SIDE,FORST- SIDE 2,Dr H. Robert St (south) ,74514
FOREST - SIDE,FORST- SIDE 2,Frederic Bonnefin Street from Froppier to Joachim,74514
FOREST - SIDE,FORST- SIDE 2,G.Froppier (west) from Colin to H.Robert,74514
FOREST - SIDE,FORST- SIDE 2,G.Colin Street from Margeot to Froppier (north side),74514
FOREST - SIDE,FORST- SIDE 2,Haut plateau Lane (from H.Robert to Darwin),74514
FOREST - SIDE,FORST- SIDE 2,Impasse Benoit,74514
FOREST - SIDE,FORST- SIDE 2,Impasse G.Bestel,74514
FOREST - SIDE,FORST- SIDE 2,Impasse Loumeau,74514
FOREST - SIDE,FORST- SIDE 3,Maabar Lane,74514
FOREST - SIDE,FORST- SIDE 4,Morc Laurent lane,74514
FOREST - SIDE,FORST- SIDE 5,Poivre Street,74514
FOREST - SIDE,HENRI ROBERT-north (WARD 2),,74215
FOREST - SIDE,ICERY    ,3 Filling Stations (La Vigie),74416
FOREST - SIDE,ICERY    ,Carosin lane,74416
FOREST - SIDE,ICERY    ,Decaen (east),74416
FOREST - SIDE,ICERY    ,Forest Side SSS,74416
FOREST - SIDE,ICERY    ,SBM Park,74416
FOREST - SIDE,L'OKANA,Impasse Maurel,74422
FOREST - SIDE,L'OKANA,L'Okana Road,74422
FOREST - SIDE,LA BASSERIE (north),,74537
FOREST - SIDE,lA BASSERIE (south),,74445
FOREST - SIDE,LA CROIX,Cite Harel 1+ 2,74419
FOREST - SIDE,LA CROIX,Bld Victoria,74419
FOREST - SIDE,LA CROIX,La Croix lane,74419
FOREST - SIDE,LA CROIX,E. Nemorin,74419
FOREST - SIDE,LA CROIX,Ethnicity,74419
FOREST - SIDE,LA CROIX,Cure St from Nemorin to Ethnicity,74419
FOREST - SIDE,LA CROIX,Seeneevassen St,74419
FOREST - SIDE,LA CROIX,Seeneevassen lane,74419
FOREST - SIDE,LES AUBINEAUX,,74420
FOREST - SIDE,LOCAL GOVT SERVICE COMMISSION,,74421
FOREST - SIDE,LOUIS PASTERUR,Pasteur,74423
FOREST - SIDE,LOUIS PASTERUR,Swastica,74423
FOREST - SIDE,LOUIS PASTERUR,Ex MBC,74423
FOREST - SIDE,MAGNOLIAS FLATS,Royal Road East  from Magniola  to Pasteur,74424
FOREST - SIDE,MAURICE MARTIN,Maurice Martin,74425
FOREST - SIDE,MAURICE MARTIN,Decaen ,74425
FOREST - SIDE,MORC ANTELME,Barnet,74447
FOREST - SIDE,MORC ANTELME,Barrow (Barlow),74447
FOREST - SIDE,MORC ANTELME,Bristol,74447
FOREST - SIDE,MORC ANTELME,Corby,74447
FOREST - SIDE,MORC ANTELME,Hamilton,74447
FOREST - SIDE,MORC ANTELME,Maidstone,74447
FOREST - SIDE,MORC ANTELME,Mayfair,74447
FOREST - SIDE,MORC ANTELME,Orient,74447
FOREST - SIDE,MORC ANTELME,Stafford,74447
FOREST - SIDE,MORC CARBONEL,Swift lane,74427
FOREST - SIDE,MORC DEVOYENNE,,74428
FOREST - SIDE,MORC LECLEZIO,,74429
FOREST - SIDE,MORC PIAT,Meadow Lark Lane,74430
FOREST - SIDE,MORC PIAT,Osprey Street,74430
FOREST - SIDE,MORC PIAT,Pheasant lane,74430
FOREST - SIDE,MORC PIAT,Sand Piper lane,74430
FOREST - SIDE,MORC PIAT,Sheldrake Lane,74430
FOREST - SIDE,MORC PILOT,,74448
FOREST - SIDE,MORCELLEMENT DARUTY,,74532
FOREST - SIDE,MORCELLEMENT RAMALINGUM,Bungsy Lane,74556
FOREST - SIDE,MORCELLEMENT RAMALINGUM,Domur lane,74556
FOREST - SIDE,MORCELLEMENT RAMALINGUM,Cardinal Margeot Street,74556
FOREST - SIDE,MORCELLEMENT RAMALINGUM,G Colin Street (North side) from Margeot to Ramalingum,74556
FOREST - SIDE,MORCELLEMENT RAMALINGUM,Ramalingum Lane,74556
FOREST - SIDE,PUBLIC SERVICE COMMISSION,,74434
FOREST - SIDE,RESIDENCE LA COLOMBE,,74435
FOREST - SIDE,RESIDENCE LES COLONIES,,74436
FOREST - SIDE,RESIDENCE LES JASMINS,,74437
FOREST - SIDE,ROCHECOUSTE,Filling Station Rochecouste,74438
FOREST - SIDE,ROCHECOUSTE,Hibiscus,74438
FOREST - SIDE,ROCHECOUSTE,Olsen,74438
FOREST - SIDE,ROCHECOUSTE,Hortensia,74438
FOREST - SIDE,ROCHECOUSTE,Jasmin,74438
FOREST - SIDE,ROCHECOUSTE,Marguerite,74438
FOREST - SIDE,ROCHECOUSTE,Rochecouste St,74438
FOREST - SIDE,ROCHECOUSTE,Rochecouste Lane,74438
FOREST - SIDE,ROCHECOUSTE,Forum,74438
FOREST - SIDE,ROCHECOUSTE,NTA,74438
FOREST - SIDE,ROCHECOUSTE,Community Health centre,74438
FOREST - SIDE,ROCHECOUSTE,Fire Station,74438
FOREST - SIDE,ROCHECOUSTE,Decaen west,74438
Ebene,Ebene Cybercity,,72201
Ebene,Ebene S.E (Ebene Housing Estate),,72202
Ebene,Morc Ebene,,72203
Dagotiere,L'Assurance,,80201
Dagotiere,Lower Dagotiere,,80202
Dagotiere,NHDC Dagotiere,,80203
Dagotiere,Upper Dagotiere,,80204
Dagotiere,Valetta,,80205
Dubreuil,DUBREUIL,,81501
Dubreuil,NHDC DUBREUIL,,81502
Dubreuil,RISHI DAYANAND,,81503
Dubreuil,SAMLO,,81504
Eau Coulee,Abbe de la caille,,74301
Eau Coulee,Abbe Laval,,74202
Eau Coulee,Bougainville ,,74203
Eau Coulee,Camp Caval,,74504
Eau Coulee,Camp Dhoby,,74305
Eau Coulee,Camp Levieux,,74306
Eau Coulee,Camp Pierrot,,74207
Eau Coulee,Camp Rouillard,,74253
Eau Coulee,Camp Rouillard,,74208
Eau Coulee,Castel, ,73655
Eau Coulee,Castel,,74109
Eau Coulee,Charles Regnaud, ,74257
Eau Coulee,Cite du Pavillon,,74310
Eau Coulee,Cite Malherbes B,,74311
Eau Coulee,Cite MalherbesA,,74312
Eau Coulee,Cite Rivet,,74313
Eau Coulee,Cite Souchon, ,74214
Eau Coulee,Cite Souchon ,,74314
Eau Coulee,Clement Charoux,,74315
Eau Coulee,Couvent De Lorette Road,,74316
Eau Coulee,Cpe Rd (Dove st-De  sornay st),,74217
Eau Coulee,Daruty De Grand Pre 1,,74218
Eau Coulee,Daruty DE Grand Pre 2,,74519
Eau Coulee,E.Coulee Royal Rd 1,,74220
Eau Coulee,E.Coulee Royal Rd 2,,74321
Eau Coulee,E.Coulee(Hissandee-C.Cheron,,74222
Eau Coulee,Eau Coulee Royal Road 2, ,74322
Eau Coulee,Engrais Cathan,,74323
Eau Coulee,Engrais Martial 1,,74124
Eau Coulee,Engrais Martial 2,,74225
Eau Coulee,Flat Bahemia,,74226
Eau Coulee,Flat Baissac,,74327
Eau Coulee,Flat Bonomally ,,74328
Eau Coulee,Flat Henessy,,74229
Eau Coulee,Flat Joomun,,74330
Eau Coulee,Hissandee ,,74231
Eau Coulee,La Mairee,,74232
Eau Coulee,Labourdonnais, ,74360
Eau Coulee,Lapeyrouse,,74233
Eau Coulee,Mgr Leen, ,74359
Eau Coulee,Morc Burtun 111,,74334
Eau Coulee,Morc Nasapen,,74336
Eau Coulee,Morc Piat, ,74535
Eau Coulee,Morc Piat,,74235
Eau Coulee,Morc. Adam,,74337
Eau Coulee,Morc. Baptiste,,74338
Eau Coulee,Morc. Camphriers,,74339
Eau Coulee,Morc. Cantin ,,74340
Eau Coulee,Morc. Hossenbux,,74341
Eau Coulee,Municipal House,,74342
Eau Coulee,NHDC Complex ,,74343
Eau Coulee,NHDC Prevert,,74344
Eau Coulee,Notre Dame de Lorette Street, ,74357
Eau Coulee,Pinewood, ,73654
Eau Coulee,Pope Henessy 1,,74245
Eau Coulee,Pope Henessy 2,,74446
Eau Coulee,Quatre Carreaux,,74347
Eau Coulee,Remono,,74248
Eau Coulee,Remono,,74449
Eau Coulee,Robinson ,,74550
Eau Coulee,Royal Rd Shell- Pope Henessy,,74451
Eau Coulee,Sir William Newton,,74252
Eau Coulee,Terre Coupe ,,74553
Eau Coulee,Tout Court,,74354
Eau Coulee,Trou Aux Cerfs,,74555
Eau Coulee,Villa Chambly,,74356
Eau Coulee,Wooton, ,74362
Creve Coeur,Creve Coeur,,20401
Creve Coeur,Morc.Creve ,,20402
Creve Coeur,Ripaille        1/2/3,,20403
Creve Coeur,Robinson (Right side),,20404
Creve Coeur,Thomassin,,20405
Creve Coeur,Upper C. Coeur,,20406
D'Epinay,Camp Creole,,20501
D'Epinay,Cite C.H.A,,20502
D'Epinay,Depinay Village,,20503
D'Epinay,Domaine de Rosalie,,20504
D'Epinay,Grande Rosalie,,20505
D'Epinay,Ilot,,20506
D'Epinay,Jouvence,,20507
D'Epinay,Le Plessis Mount,,20508
D'Epinay,Mme Cayeux,,20515
D'Epinay,Mon Gout,,20514
D'Epinay,Mon Plaisir Mount,,20509
D'Epinay,Monc V.R.S,,20513
D'Epinay,Monc. Juwaheer,,20512
D'Epinay,Monc. Le Plessis,,20510
D'Epinay,Monc. Mount,,20511
D'Epinay,The Mount,,20516
Curepipe,Arcades Currimjee,,74501
Curepipe,B. Sequard,,74503
Curepipe,Barracks,,74502
Curepipe,Charles Lees,,74404
Curepipe,Clos  de la tour,,74405
Curepipe,Commerford,,74506
Curepipe,Commerson,,74407
Curepipe,E. Laurent,,74208
Curepipe,Flat Lotus,,74309
Curepipe,Flat Mesnil,,74410
Curepipe,Flat St. Antoine,,74311
Curepipe,Galeries Y. Palach,,74412
Curepipe,Garden,,74213
Curepipe,Higginson,,74414
Curepipe,Ian Palach,,74415
Curepipe,L.Geoffroy,,74517
Curepipe,Les Casernes,,74216
Curepipe,Malartic,,74418
Curepipe,Malherbes,,74319
Curepipe,Morc Faucon,,74220
Curepipe,Morc Souchon,,74222
Curepipe,Morc.Senneville,,74221
Curepipe,Municipality,,74423
Curepipe,Noelville,,74224
Curepipe,Queen Elizabeth,,74425
Curepipe,R.Gujadhur,,74426
Curepipe,Robinson 1,,74527
Curepipe,Robinson 2,,74528
Curepipe,Robinson 3,,74529
Curepipe,Royal College,,74430
Curepipe,Salaffa Region,,74431
Curepipe,Ste Therese,,74432
Curepipe,Stevenson,,74533
Curepipe,Talipots,,74234
Curepipe,Thomy D'Arifat,,74335
Curepipe,W. Churchill,,74536
Congomah,Cite E.D.C,,20302
Congomah,Congomah,,20301
Congomah,Royal Rd,,20303
Cluny,Bemanique,,50501
Cluny,Camp Bengali,,50502
Cluny,Camp Ramdin,,50503
Cluny,Cluny,,50504
Cluny,Eau Bleue Tostee,,50505
Cluny,Railway,,50506
Cottage,Cite C.H.A,,30201
Cottage,Cottage North,,30202
Cottage,Cottage South,,30203
Cottage,Morc Beau Plateau,,30204
Cottage,Morc Kestrel,,30205
Cottage,Morc VRS,,30206
Cottage,NHDC,,30207
Chemin Grenier,Adventist RD,,60401
Chemin Grenier,Camp Barbe,,60402
Chemin Grenier,Camp Charlot,,60403
Chemin Grenier,Camp Fanny,,60404
Chemin Grenier,Camp Fanny Lorquet,,60405
Chemin Grenier,Camp Galets,,60406
Chemin Grenier,Camp Goolbar,,60407
Chemin Grenier,Camp Jeannette,,60408
Chemin Grenier,Camp Lilas,,60409
Chemin Grenier,Florentina,,60410
Chemin Grenier,Jooloom,,60411
Chemin Grenier,Jumbo,,60412
Chemin Grenier,Lotus,,60413
Chemin Grenier,Mont Carmel,,60414
Chemin Grenier,Morc Dunputh,,60415
Chemin Grenier,Mosque Rd,,60416
Chemin Grenier,New Mosque,,60417
Chemin Grenier,Plaine des Galets,,60418
Chemin Grenier,PlayGround,,60419
Chemin Grenier,Railway,,60420
Chemin Grenier,Riviere des Galets,,60421
Chemin Grenier,Royal Road,Royal Road,60425
Chemin Grenier,Saint Felix,,60422
Chemin Grenier,Satanah,,60423
Chemin Grenier,Social Welfare Centre Rd,,60424
Clemencia,Belle Rose,,40701
Clemencia,Clemencia,,40702
Chamouny,Chamouny,,61301
Chamouny,Mare Anguilles,,61302
Chamouny,Mont Blanc,,61303
Case Noyale,Carreau Eucalyptus,,90301
Case Noyale,Case Noyale,,90302
Case Noyale,Cite CHA,,90303
Case Noyale,Ilot Fortier,,90304
Case Noyale,Morc Multipliants,,90305
Case Noyale,Petite Riviere Noire,,90306
Central Flacq,Belle Vue Allendy,,40601
Central Flacq,Boulet Blanc,,40602
Central Flacq,Boulet Rouge,,40603
Central Flacq,Boutique Coco,,40604
Central Flacq,Camp Garreau,,40605
Central Flacq,Central Flacq,,40606
Central Flacq,Cite Argy,,40607
Central Flacq,Cite Hibiscus,,40608
Central Flacq,Constance S.E,,40609
Central Flacq,Domaine La Colombe,,40610
Central Flacq,Hermitage,,40611
Central Flacq,La Source,,40612
Central Flacq,Morc Argy,,40613
Central Flacq,Morc Hospital,,40614
Central Flacq,Morc Robillard,,40615
Central Flacq,Nehru Nagar,,40616
Central Flacq,Plaine De Gersigny,,40617
Central Flacq,Riche Mare ,,40618
Central Flacq,Saint Remy,,40619
Cap Malheureux,Anse La Raie,,31701
Cap Malheureux,Bain Boeuf,,31702
Cap Malheureux,C.H.A,,31708
Cap Malheureux,Calodyne,,31703
Cap Malheureux,Camp Gervaise,,31704
Cap Malheureux,Cap Malheureux,,31706
Cap Malheureux,Cape Garden,,31705
Cap Malheureux,Cayeux,,31707
Cap Malheureux,Cite EDC,,31709
Cap Malheureux,Jardin du Cap,,31710
Cap Malheureux,La Roue Charette,,31711
Cap Malheureux,Mariamen Temple,,31712
Cap Malheureux,Morc Agnis Ph 2,,31713
Cap Malheureux,Morc Chetty 1,,31714
Cap Malheureux,Morc Chetty 2,,31715
Cap Malheureux,Morc Chetty 3,,31716
Cap Malheureux,Morc Garrib,,31717
Cap Malheureux,Morc Merven,,31718
Cap Malheureux,Morc Rouillard,,31719
Cap Malheureux,Mosque Rd,,31720
Cap Malheureux,NHDC,,31721
Cap Malheureux,Pavillon,,31722
Cap Malheureux,Pazani Mallaye,,31723
Cap Malheureux,Quartier La Ligne,,31724
Cap Malheureux,Residence du Nord,,31725
Cap Malheureux,St Francois,,31726
Cap Malheureux,Villa Maria Sq,,31727
Camp Ithier,Camp Ithier,,40501
Camp Ithier,Isidore Rose,,40502
Camp Ithier,Isidore Rose Pave,,40503
Cascavelle,Beau Songes,,90201
Cascavelle,Camp Creoles,,90202
Cascavelle,Cascavelle,,90203
Cascavelle,Cascavelle Business Park,Cascavelle Business Park,90522
Cascavelle,Xavier,,90204
Chamarel,Camp Madras,,90401
Chamarel,Chamarel,,90402
Chamarel,La Vielle Cheminee,,90403
Chamarel,La Ville Leon,,90404
Chamarel,Les Rouleaux,,90405
Chamarel,Piton,,90406
Chamarel,Societe St Denis,,90407
Chamarel,Ste Anne,,90408
Chamarel,Terre 7 Couleurs,,90409
Camp Diable,CAMP DIABLE,,60304
Camp Diable,EDC CAMP DIABLE,,60301
Camp Diable,ILOT,,60303
Camp Diable,MORC SAVANNAH ,,60302
Camp Diable,NHDC CAMP DIABLE,,60305
Camp Diable,RICHE BOIS,,60306
Camp De Masque,Balance John,,40301
Camp De Masque,Camp De Masque,,40302
Camp De Masque,Camp Sonar,,40303
Camp De Masque,L' Unite,,40304
Camp De Masque Pave,Camp De Masque Pave,,40401
Camp De Masque Pave,Mare Goyaves,,40402
Camp De Masque Pave,Petite Cabane,,40403
Britannia,BRITANNIA,,61201
Britannia,CAMP BERTHAUD,,61206
Britannia,CITE RAMPUR,,61202
Britannia,MORC VRS R.DRAGON,,61205
Britannia,RIVIERE DRAGON,,61204
Britannia,VRS BRITANNIA (land only),,61203
Calebasses,Calebasses,,20201
Calebasses,Koyratty,,20202
Calebasses,L'Espoir,,20203
Calebasses,Old Flacq,,20204
Brisee Verdiere,Belvedere,,42403
Brisee Verdiere,Brisee Verdiere,,42410
Brisee Verdiere,Latapie(western side),,42409
Brisee Verdiere,Mare D'Australia,,42411
Brisee Verdiere,Pont Praslin,,21612
Bramsthan,Bramsthan,,43201
Bon Accueil,Beau Bois,,40206
Bon Accueil,Belvedere,,40203
Bon Accueil,Bon Accueil,,40205
Bon Accueil,Grand Bas Fond (northern part),,40204
Bon Accueil,Grande Retraite,,43301
Bon Accueil,Latapie (eastern side),,40209
Bon Accueil,Mission Cross,,40202
Bon Accueil,Off Beau Bois/Vrindavan,,43302
Bon Accueil,Quatre Bords,,40208
Camp Carol,Camp Carol,,52401
Camp Carol,Carreau Acacia,,52402
Camp Carol,La Cambuse,,52403
Camp Carol,Le Bouchon,,52404
Camp Carol,Mon Desert Mon Tresor,,52405
Camp Carol,Morc. V.R.S M. Desert,,52406
Bois Des Amourettes,Anse Jonchée,,50401
Bois Des Amourettes,Bois Des Amourettes,,50402
Bois Des Amourettes,Domaine des Chasseur,,50403
Bois Des Amourettes,Providence,,50404
Bananes ,Bananes ,,50201
Bananes ,Eau Bleue Reservoir,,50202
